#DEBUG: Format Typ    -> comma
#DEBUG: Time Period   -> 2012-08-01 00:00:00+00:00 2012-09-01 00:00:00+00:00
#DEBUG: Time Zone     -> Etc/UTC
#DEBUG: Data Contact   -> daryl herzmann akrherz@iastate.edu 515-294-5978
#DEBUG: Entries Found -> -1
station,valid,lon,lat,tmpf,dwpf,relh,drct,sknt,p01i,alti,mslp,vsby,gust,skyc1,skyc2,skyc3,skyc4,skyl1,skyl2,skyl3,skyl4,wxcodes,ice_accretion_1hr,ice_accretion_3hr,ice_accretion_6hr,peak_wind_gust,peak_wind_drct,peak_wind_time,feel,metar
JFK,2012-08-01 00:51,-73.7622,40.6386,71.96,66.02,81.57,160.00,5.00,0.00,29.94,1013.90,10.00,M,FEW,SCT,M,M,2900.00,25000.00,M,M,M,M,M,M,M,M,M,71.96,KJFK 010051Z 16005KT 10SM FEW029 SCT250 22/19 A2994 RMK AO2 SLP139 T02220189
JFK,2012-08-01 01:51,-73.7622,40.6386,71.06,66.02,84.10,140.00,3.00,0.00,29.95,1014.20,10.00,M,FEW,SCT,M,M,2900.00,25000.00,M,M,M,M,M,M,M,M,M,71.06,KJFK 010151Z 14003KT 10SM FEW029 SCT250 22/19 A2995 RMK AO2 SLP142 T02170189
JFK,2012-08-01 02:51,-73.7622,40.6386,71.06,66.92,86.77,170.00,4.00,0.00,29.94,1013.90,10.00,M,FEW,SCT,M,M,1400.00,13000.00,M,M,M,M,M,M,M,M,M,71.06,KJFK 010251Z 17004KT 10SM FEW014 SCT130 22/19 A2994 RMK AO2 SLP139 T02170194 50005
JFK,2012-08-01 03:42,-73.7622,40.6386,71.60,66.20,83.09,210.00,7.00,0.00,29.95,M,10.00,M,BKN,M,M,M,1500.00,M,M,M,M,M,M,M,M,M,M,71.60,KJFK 010342Z 21007KT 10SM BKN015 22/19 A2995 RMK AO2
JFK,2012-08-01 03:51,-73.7622,40.6386,73.04,66.92,81.14,200.00,8.00,0.00,29.95,1014.10,10.00,M,BKN,M,M,M,1600.00,M,M,M,M,M,M,M,M,M,M,73.04,KJFK 010351Z 20008KT 10SM BKN016 23/19 A2995 RMK AO2 SLP141 T02280194
JFK,2012-08-01 04:29,-73.7622,40.6386,71.60,66.20,83.09,210.00,8.00,0.00,29.95,M,10.00,M,SCT,M,M,M,1800.00,M,M,M,M,M,M,M,M,M,M,71.60,KJFK 010429Z 21008KT 10SM SCT018 22/19 A2995 RMK AO2
JFK,2012-08-01 04:51,-73.7622,40.6386,71.96,66.92,84.16,200.00,7.00,0.00,29.95,1014.10,10.00,M,SCT,M,M,M,1800.00,M,M,M,M,M,M,M,M,M,M,71.96,KJFK 010451Z 20007KT 10SM SCT018 22/19 A2995 RMK AO2 SLP141 T02220194 402610211
JFK,2012-08-01 05:51,-73.7622,40.6386,73.04,68.00,84.22,170.00,6.00,0.00,29.93,1013.60,10.00,M,SCT,SCT,M,M,1600.00,14000.00,M,M,M,M,M,M,M,M,M,73.04,KJFK 010551Z 17006KT 10SM SCT016 SCT140 23/20 A2993 RMK AO2 SLP136 T02280200 10228 20217 58002
JFK,2012-08-01 06:51,-73.7622,40.6386,73.94,69.08,84.80,200.00,8.00,0.00,29.92,1013.10,10.00,M,SCT,BKN,BKN,M,1600.00,4000.00,14000.00,M,M,M,M,M,M,M,M,73.94,KJFK 010651Z 20008KT 10SM SCT016 BKN040 BKN140 23/21 A2992 RMK AO2 SLP131 T02330206
JFK,2012-08-01 07:51,-73.7622,40.6386,71.96,68.00,87.35,220.00,6.00,0.00,29.91,1012.70,10.00,M,FEW,SCT,SCT,M,1800.00,5000.00,10000.00,M,M,M,M,M,M,M,M,71.96,KJFK 010751Z 22006KT 10SM FEW018 SCT050 SCT100 22/20 A2991 RMK AO2 SLP127 T02220200
JFK,2012-08-01 08:51,-73.7622,40.6386,73.04,68.00,84.22,210.00,9.00,0.00,29.90,1012.50,10.00,M,FEW,BKN,M,M,2300.00,5500.00,M,M,M,M,M,M,M,M,M,73.04,KJFK 010851Z 21009KT 10SM FEW023 BKN055 23/20 A2990 RMK AO2 SLP125 T02280200 56012
JFK,2012-08-01 09:51,-73.7622,40.6386,71.96,69.08,90.66,220.00,6.00,0.00,29.91,1012.60,10.00,M,FEW,SCT,SCT,M,5500.00,10000.00,25000.00,M,M,M,M,M,M,M,M,71.96,KJFK 010951Z 22006KT 10SM FEW055 SCT100 SCT250 22/21 A2991 RMK AO2 SLP126 T02220206
JFK,2012-08-01 10:16,-73.7622,40.6386,73.40,69.80,88.51,230.00,6.00,0.00,29.91,M,10.00,M,BKN,BKN,BKN,M,2100.00,5500.00,25000.00,M,M,M,M,M,M,M,M,73.40,KJFK 011016Z 23006KT 10SM BKN021 BKN055 BKN250 23/21 A2991 RMK AO2 CB DSNT NW
JFK,2012-08-01 10:51,-73.7622,40.6386,75.02,69.98,84.34,210.00,8.00,0.00,29.92,1013.00,10.00,M,BKN,BKN,BKN,M,2100.00,4200.00,25000.00,M,M,M,M,M,M,M,M,75.02,KJFK 011051Z 21008KT 10SM BKN021 BKN042TCU BKN250 24/21 A2992 RMK AO2 SLP130 CB DSNT NW-N TCU W T02390211
JFK,2012-08-01 11:51,-73.7622,40.6386,75.92,69.98,81.85,210.00,7.00,0.00,29.92,1013.20,10.00,M,BKN,BKN,BKN,M,2100.00,3800.00,25000.00,M,M,M,M,M,M,M,M,75.92,KJFK 011151Z 21007KT 10SM BKN021 BKN038TCU BKN250 24/21 A2992 RMK AO2 SLP132 TCU W-N VCSH W-N T02440211 10244 20222 53007
JFK,2012-08-01 12:20,-73.7622,40.6386,75.20,71.60,88.59,200.00,7.00,0.00,29.92,M,10.00,M,FEW,BKN,BKN,BKN,1900.00,4800.00,10000.00,25000.00,M,M,M,M,M,M,M,75.20,KJFK 011220Z 20007KT 10SM FEW019 BKN048TCU BKN100 BKN250 24/22 A2992 RMK AO2 TCU NE AND DSNT S VCSH NE $
JFK,2012-08-01 12:51,-73.7622,40.6386,78.08,71.06,79.05,210.00,9.00,0.00,29.92,1013.10,10.00,M,SCT,BKN,BKN,BKN,2100.00,4400.00,7500.00,25000.00,M,M,M,M,M,M,M,78.08,KJFK 011251Z 21009KT 10SM SCT021 BKN044 BKN075 BKN250 26/22 A2992 RMK AO2 SLP131 SCT V BKN TCU DSNT N T02560217 $
JFK,2012-08-01 13:51,-73.7622,40.6386,78.98,71.06,76.74,210.00,7.00,0.00,29.91,1012.80,10.00,M,FEW,SCT,SCT,BKN,1100.00,4500.00,11000.00,25000.00,M,M,M,M,M,M,M,78.98,KJFK 011351Z 21007KT 10SM FEW011 SCT045 SCT110 BKN250 26/22 A2991 RMK AO2 SLP128 TCU DSNT NW T02610217
JFK,2012-08-01 14:51,-73.7622,40.6386,78.98,69.98,73.97,180.00,9.00,0.00,29.91,1012.70,10.00,M,FEW,SCT,BKN,BKN,1300.00,2100.00,4400.00,25000.00,M,M,M,M,M,M,M,78.98,KJFK 011451Z 18009KT 10SM FEW013 SCT021 BKN044 BKN250 26/21 A2991 RMK AO2 SLP127 SCT V BKN T02610211 57005
JFK,2012-08-01 15:27,-73.7622,40.6386,80.60,71.60,74.11,170.00,10.00,0.00,29.90,M,10.00,M,BKN,BKN,BKN,BKN,1700.00,3400.00,10000.00,25000.00,M,M,M,M,M,M,M,84.57,KJFK 011527Z 17010KT 10SM BKN017 BKN034CB BKN100 BKN250 27/22 A2990 RMK AO2 CB W-NE MOV E VCSH NW-NE
JFK,2012-08-01 15:41,-73.7622,40.6386,82.40,71.60,69.90,180.00,12.00,0.00,29.89,M,10.00,M,BKN,BKN,BKN,BKN,1700.00,3500.00,11000.00,25000.00,TS,M,M,M,M,M,M,87.18,KJFK 011541Z 18012KT 10SM TS BKN017 BKN035CB BKN110 BKN250 28/22 A2989 RMK AO2 TSB41 OCNL LTGIC N-NE TS N-NE MOV E BKN017 V SCT CB W AND DSNT SW MOV E VCSH W-NE
JFK,2012-08-01 15:51,-73.7622,40.6386,80.06,69.98,71.39,210.00,9.00,0.00,29.90,1012.30,10.00,M,BKN,BKN,BKN,BKN,1700.00,3200.00,11000.00,25000.00,TS,M,M,M,M,M,M,83.22,KJFK 011551Z 21009KT 10SM TS BKN017 BKN032CB BKN110 BKN250 27/21 A2990 RMK AO2 TSB41 SLP123 OCNL LTGICCG N-NE TS N-NE MOV E BKN017 V SCT CB W-NW AND DSNT SW MOV E VCSH W-NE T02670211
JFK,2012-08-01 16:11,-73.7622,40.6386,82.40,69.80,65.74,170.00,9.00,0.00,29.89,M,10.00,M,SCT,BKN,BKN,BKN,1700.00,3500.00,7000.00,25000.00,TS,M,M,M,M,M,M,86.22,KJFK 011611Z 17009KT 10SM TS SCT017 BKN035CB BKN070 BKN250 28/21 A2989 RMK AO2 OCNL LTGICCG N-NE TS N-NE MOV E CB NW AND DSNT SW MOV E VCSH NW-NE
JFK,2012-08-01 16:51,-73.7622,40.6386,78.98,71.06,76.74,190.00,11.00,0.00,29.89,1012.10,10.00,M,FEW,SCT,BKN,BKN,1500.00,3000.00,6000.00,25000.00,-TSRA,M,M,M,M,M,M,78.98,KJFK 011651Z 19011KT 10SM -TSRA FEW015 SCT030CB BKN060 BKN250 26/22 A2989 RMK AO2 RAB51 SLP121 OCNL LTGIC SW-W TS SW-W MOV E CB NW-NE MOV E VCSH SW-NE P0000 T02610217
JFK,2012-08-01 17:51,-73.7622,40.6386,75.02,71.06,87.50,210.00,8.00,0.04,29.89,1012.10,5.00,M,FEW,SCT,BKN,OVC,1300.00,3000.00,10000.00,25000.00,RA BR,M,M,M,M,M,M,75.02,KJFK 011751Z 21008KT 5SM RA BR FEW013 SCT030CB BKN100 OVC250 24/22 A2989 RMK AO2 TSE48 SLP121 CB OHD-N MOV E P0004 60004 T02390217 10278 20239 56006
JFK,2012-08-01 18:51,-73.7622,40.6386,75.92,73.04,90.80,200.00,5.00,0.03,29.87,1011.50,10.00,M,SCT,SCT,OVC,M,1200.00,4000.00,11000.00,M,-RA,M,M,M,M,M,M,75.92,KJFK 011851Z 20005KT 10SM -RA SCT012 SCT040 OVC110 24/23 A2987 RMK AO2 SLP115 P0003 T02440228
JFK,2012-08-01 19:37,-73.7622,40.6386,77.00,73.40,88.67,210.00,8.00,0.00,29.88,M,10.00,M,BKN,BKN,OVC,M,1600.00,4600.00,9000.00,M,-RA,M,M,M,M,M,M,77.00,KJFK 011937Z 21008KT 10SM -RA BKN016 BKN046 OVC090 25/23 A2988 RMK AO2 P0000
JFK,2012-08-01 19:51,-73.7622,40.6386,77.00,71.96,84.46,190.00,8.00,0.00,29.88,1011.60,10.00,M,BKN,BKN,OVC,M,1600.00,4800.00,10000.00,M,-RA,M,M,M,M,M,M,77.00,KJFK 011951Z 19008KT 10SM -RA BKN016 BKN048 OVC100 25/22 A2988 RMK AO2 SLP116 P0000 T02500222
JFK,2012-08-01 20:15,-73.7622,40.6386,77.00,71.60,83.44,190.00,10.00,0.00,29.88,M,10.00,M,SCT,SCT,OVC,M,1300.00,3400.00,11000.00,M,M,M,M,M,M,M,M,77.00,KJFK 012015Z 19010KT 10SM SCT013 SCT034 OVC110 25/22 A2988 RMK AO2 RAE1958 P0000
JFK,2012-08-01 20:51,-73.7622,40.6386,77.00,71.96,84.46,190.00,7.00,0.00,29.88,1011.70,10.00,M,SCT,SCT,OVC,M,1600.00,3400.00,11000.00,M,M,M,M,M,M,M,M,77.00,KJFK 012051Z 19007KT 10SM SCT016 SCT034 OVC110 25/22 A2988 RMK AO2 RAE1958 SLP117 P0000 60003 T02500222 55004
JFK,2012-08-01 21:51,-73.7622,40.6386,77.00,71.96,84.46,210.00,9.00,0.00,29.86,1011.10,10.00,M,SCT,SCT,OVC,M,1300.00,2700.00,13000.00,M,M,M,M,M,M,M,M,77.00,KJFK 012151Z 21009KT 10SM SCT013 SCT027 OVC130 25/22 A2986 RMK AO2 SLP111 T02500222
JFK,2012-08-01 22:51,-73.7622,40.6386,75.02,71.06,87.50,0.00,0.00,0.00,29.86,1011.20,10.00,M,FEW,SCT,BKN,BKN,1200.00,2700.00,12000.00,25000.00,M,M,M,M,M,M,M,75.02,KJFK 012251Z 00000KT 10SM FEW012 SCT027 BKN120 BKN250 24/22 A2986 RMK AO2 SLP112 TCU DSNT SE AND DSNT W T02390217
JFK,2012-08-01 23:51,-73.7622,40.6386,75.02,68.00,78.81,260.00,3.00,0.00,29.86,1011.00,10.00,M,FEW,SCT,SCT,BKN,1200.00,2700.00,11000.00,13000.00,M,M,M,M,M,M,M,75.02,KJFK 012351Z 26003KT 10SM FEW012 SCT027 SCT110 BKN130 BKN250 24/20 A2986 RMK AO2 RAB06E43 SLP110 P0000 60003 T02390200 10256 20233 56006
JFK,2012-08-02 00:51,-73.7622,40.6386,75.92,69.08,79.37,0.00,0.00,0.00,29.87,1011.30,10.00,M,FEW,SCT,BKN,BKN,1200.00,3600.00,11000.00,25000.00,M,M,M,M,M,M,M,75.92,KJFK 020051Z 00000KT 10SM FEW012 SCT036 BKN110 BKN250 24/21 A2987 RMK AO2 SLP113 T02440206
JFK,2012-08-02 01:51,-73.7622,40.6386,75.02,69.08,81.79,0.00,0.00,0.00,29.86,1011.10,10.00,M,FEW,SCT,BKN,OVC,1200.00,3600.00,11000.00,13000.00,M,M,M,M,M,M,M,75.02,KJFK 020151Z 00000KT 10SM FEW012 SCT036 BKN110 OVC130 24/21 A2986 RMK AO2 SLP111 T02390206
JFK,2012-08-02 02:51,-73.7622,40.6386,73.94,69.98,87.45,0.00,0.00,0.00,29.86,1011.10,10.00,M,FEW,OVC,M,M,11000.00,20000.00,M,M,M,M,M,M,M,M,M,73.94,KJFK 020251Z 00000KT 10SM FEW110 OVC200 23/21 A2986 RMK AO2 SLP111 T02330211 51001
JFK,2012-08-02 03:51,-73.7622,40.6386,73.94,69.98,87.45,0.00,0.00,0.00,29.85,1010.90,10.00,M,FEW,OVC,M,M,10000.00,15000.00,M,M,M,M,M,M,M,M,M,73.94,KJFK 020351Z 00000KT 10SM FEW100 OVC150 23/21 A2985 RMK AO2 SLP109 T02330211
JFK,2012-08-02 04:51,-73.7622,40.6386,73.94,69.98,87.45,240.00,4.00,0.00,29.88,1011.70,10.00,M,FEW,OVC,M,M,1500.00,9000.00,M,M,M,M,M,M,M,M,M,73.94,KJFK 020451Z 24004KT 10SM FEW015 OVC090 23/21 A2988 RMK AO2 SLP117 T02330211 402780222 $
JFK,2012-08-02 05:51,-73.7622,40.6386,73.04,69.08,87.41,260.00,6.00,0.00,29.86,1011.20,10.00,M,SCT,OVC,M,M,8500.00,19000.00,M,M,M,M,M,M,M,M,M,73.04,KJFK 020551Z 26006KT 10SM SCT085 OVC190 23/21 A2986 RMK AO2 SLP112 T02280206 10244 20228 50001
JFK,2012-08-02 06:51,-73.7622,40.6386,71.06,68.00,90.06,230.00,5.00,0.00,29.86,1011.00,10.00,M,SCT,BKN,M,M,6000.00,15000.00,M,M,M,M,M,M,M,M,M,71.06,KJFK 020651Z 23005KT 10SM SCT060 BKN150 22/20 A2986 RMK AO2 SLP110 T02170200
JFK,2012-08-02 07:51,-73.7622,40.6386,71.96,68.00,87.35,260.00,4.00,0.00,29.85,1010.90,10.00,M,FEW,SCT,M,M,6000.00,15000.00,M,M,M,M,M,M,M,M,M,71.96,KJFK 020751Z 26004KT 10SM FEW060 SCT150 22/20 A2985 RMK AO2 SLP109 T02220200
JFK,2012-08-02 08:51,-73.7622,40.6386,71.96,68.00,87.35,260.00,5.00,0.00,29.86,1011.00,10.00,M,FEW,M,M,M,6000.00,M,M,M,M,M,M,M,M,M,M,71.96,KJFK 020851Z 26005KT 10SM FEW060 22/20 A2986 RMK AO2 SLP110 T02220200 55002 $
JFK,2012-08-02 09:51,-73.7622,40.6386,71.96,69.08,90.66,250.00,7.00,0.00,29.87,1011.40,8.00,M,SCT,M,M,M,3700.00,M,M,M,M,M,M,M,M,M,M,71.96,KJFK 020951Z 25007KT 8SM SCT037 22/21 A2987 RMK AO2 SLP114 T02220206 $
JFK,2012-08-02 10:51,-73.7622,40.6386,73.04,69.08,87.41,250.00,6.00,0.00,29.88,1011.70,7.00,M,FEW,SCT,M,M,1200.00,3700.00,M,M,M,M,M,M,M,M,M,73.04,KJFK 021051Z 25006KT 7SM FEW012 SCT037 23/21 A2988 RMK AO2 SLP117 T02280206 $
JFK,2012-08-02 11:51,-73.7622,40.6386,75.02,69.08,81.79,270.00,7.00,0.00,29.88,1011.80,7.00,M,CLR,M,M,M,M,M,M,M,M,M,M,M,M,M,M,75.02,KJFK 021151Z 27007KT 7SM CLR 24/21 A2988 RMK AO2 SLP118 70007 T02390206 10239 20217 51008 $
JFK,2012-08-02 12:51,-73.7622,40.6386,78.08,69.98,76.19,260.00,6.00,0.00,29.89,1012.00,7.00,M,CLR,M,M,M,M,M,M,M,M,M,M,M,M,M,M,78.08,KJFK 021251Z 26006KT 7SM CLR 26/21 A2989 RMK AO2 SLP120 T02560211
JFK,2012-08-02 13:51,-73.7622,40.6386,78.98,69.08,71.72,240.00,6.00,0.00,29.89,1012.30,8.00,M,FEW,M,M,M,3500.00,M,M,M,M,M,M,M,M,M,M,78.98,KJFK 021351Z 24006KT 8SM FEW035 26/21 A2989 RMK AO2 SLP123 T02610206
JFK,2012-08-02 14:51,-73.7622,40.6386,82.04,69.98,66.93,240.00,6.00,0.00,29.90,1012.40,9.00,M,FEW,M,M,M,4000.00,M,M,M,M,M,M,M,M,M,M,85.85,KJFK 021451Z 24006KT 9SM FEW040 28/21 A2990 RMK AO2 SLP124 T02780211 51006
JFK,2012-08-02 15:51,-73.7622,40.6386,84.92,66.92,54.90,230.00,7.00,0.00,29.90,1012.50,10.00,M,SCT,M,M,M,4500.00,M,M,M,M,M,M,M,M,M,M,87.62,KJFK 021551Z 23007KT 10SM SCT045 29/19 A2990 RMK AO2 SLP125 T02940194
JFK,2012-08-02 16:51,-73.7622,40.6386,84.02,66.92,56.51,200.00,10.00,0.00,29.89,1012.10,10.00,M,FEW,M,M,M,4700.00,M,M,M,M,M,M,M,M,M,M,86.66,KJFK 021651Z 20010KT 10SM FEW047TCU 29/19 A2989 RMK AO2 SLP121 TCU NE-E AND DSNT SW T02890194
JFK,2012-08-02 17:51,-73.7622,40.6386,84.92,66.92,54.90,210.00,12.00,0.00,29.88,1012.00,10.00,M,FEW,M,M,M,5000.00,M,M,M,M,M,M,M,M,M,M,87.62,KJFK 021751Z 21012KT 10SM FEW050 29/19 A2988 RMK AO2 SLP120 TCU DSNT SW T02940194 10300 20239 58004
JFK,2012-08-02 18:51,-73.7622,40.6386,84.02,71.96,67.15,190.00,11.00,0.00,29.89,1012.00,10.00,M,SCT,M,M,M,5000.00,M,M,M,M,M,M,M,M,M,M,89.62,KJFK 021851Z 19011KT 10SM SCT050 29/22 A2989 RMK AO2 SLP120 TCU DSNT SW T02890222
JFK,2012-08-02 19:51,-73.7622,40.6386,84.92,71.96,65.23,200.00,15.00,0.00,29.88,1011.90,10.00,M,SCT,M,M,M,5000.00,M,M,M,M,M,M,M,M,M,M,90.81,KJFK 021951Z 20015KT 10SM SCT050 29/22 A2988 RMK AO2 SLP119 TCU DSNT SW T02940222
JFK,2012-08-02 20:51,-73.7622,40.6386,82.94,71.06,67.44,180.00,17.00,0.00,29.88,1011.70,10.00,M,SCT,M,M,M,5000.00,M,M,M,M,M,M,M,M,M,M,87.60,KJFK 022051Z 18017KT 10SM SCT050 28/22 A2988 RMK AO2 SLP117 TCU DSNT W-NW T02830217 58003
JFK,2012-08-02 21:51,-73.7622,40.6386,82.94,71.06,67.44,190.00,15.00,0.00,29.87,1011.60,10.00,M,FEW,M,M,M,5000.00,M,M,M,M,M,M,M,M,M,M,87.60,KJFK 022151Z 19015KT 10SM FEW050 28/22 A2987 RMK AO2 SLP116 T02830217
JFK,2012-08-02 22:51,-73.7622,40.6386,80.96,71.96,74.15,200.00,15.00,0.00,29.87,1011.60,10.00,20.00,FEW,M,M,M,5000.00,M,M,M,M,M,M,M,M,M,M,85.27,KJFK 022251Z 20015G20KT 10SM FEW050 27/22 A2987 RMK AO2 SLP116 T02720222
JFK,2012-08-02 23:51,-73.7622,40.6386,78.98,71.96,79.12,190.00,13.00,0.00,29.89,1012.00,10.00,M,FEW,SCT,M,M,5000.00,25000.00,M,M,M,M,M,M,M,M,M,78.98,KJFK 022351Z 19013KT 10SM FEW050 SCT250 26/22 A2989 RMK AO2 SLP120 T02610222 10294 20261 53003
JFK,2012-08-03 00:51,-73.7622,40.6386,78.98,73.04,82.06,190.00,14.00,0.00,29.90,1012.60,10.00,M,FEW,M,M,M,25000.00,M,M,M,M,M,M,M,M,M,M,78.98,KJFK 030051Z 19014KT 10SM FEW250 26/23 A2990 RMK AO2 SLP126 T02610228
JFK,2012-08-03 01:51,-73.7622,40.6386,78.08,73.04,84.53,190.00,11.00,0.00,29.92,1013.10,10.00,M,FEW,M,M,M,25000.00,M,M,M,M,M,M,M,M,M,M,78.08,KJFK 030151Z 19011KT 10SM FEW250 26/23 A2992 RMK AO2 SLP131 T02560228
JFK,2012-08-03 02:51,-73.7622,40.6386,78.98,71.06,76.74,220.00,11.00,0.00,29.93,1013.30,10.00,M,FEW,M,M,M,25000.00,M,M,M,M,M,M,M,M,M,M,78.98,KJFK 030251Z 22011KT 10SM FEW250 26/22 A2993 RMK AO2 SLP133 T02610217 51013
JFK,2012-08-03 03:51,-73.7622,40.6386,78.08,71.06,79.05,240.00,10.00,0.00,29.93,1013.50,10.00,M,FEW,SCT,M,M,5000.00,25000.00,M,M,M,M,M,M,M,M,M,78.08,KJFK 030351Z 24010KT 10SM FEW050 SCT250 26/22 A2993 RMK AO2 SLP135 T02560217
JFK,2012-08-03 04:51,-73.7622,40.6386,77.00,71.06,81.92,220.00,10.00,0.00,29.94,1013.80,10.00,M,SCT,SCT,M,M,6000.00,25000.00,M,M,M,M,M,M,M,M,M,77.00,KJFK 030451Z 22010KT 10SM SCT060 SCT250 25/22 A2994 RMK AO2 SLP138 T02500217 403000217
JFK,2012-08-03 05:51,-73.7622,40.6386,75.92,71.96,87.55,240.00,7.00,0.00,29.94,1013.90,10.00,M,SCT,SCT,M,M,6000.00,25000.00,M,M,M,M,M,M,M,M,M,75.92,KJFK 030551Z 24007KT 10SM SCT060 SCT250 24/22 A2994 RMK AO2 SLP139 T02440222 10261 20244 51006
JFK,2012-08-03 06:51,-73.7622,40.6386,75.92,71.96,87.55,230.00,8.00,0.00,29.95,1014.10,9.00,M,FEW,SCT,M,M,6000.00,25000.00,M,M,M,M,M,M,M,M,M,75.92,KJFK 030651Z 23008KT 9SM FEW060 SCT250 24/22 A2995 RMK AO2 SLP141 T02440222
JFK,2012-08-03 07:51,-73.7622,40.6386,75.02,71.96,90.22,230.00,5.00,0.00,29.95,1014.00,10.00,M,FEW,SCT,M,M,6000.00,25000.00,M,M,M,M,M,M,M,M,M,75.02,KJFK 030751Z 23005KT 10SM FEW060 SCT250 24/22 A2995 RMK AO2 SLP140 T02390222
JFK,2012-08-03 08:51,-73.7622,40.6386,73.94,73.04,97.02,200.00,8.00,0.00,29.95,1014.30,10.00,M,FEW,M,M,M,6000.00,M,M,M,M,M,M,M,M,M,M,73.94,KJFK 030851Z 20008KT 10SM FEW060 23/23 A2995 RMK AO2 SLP143 T02330228 53003
JFK,2012-08-03 09:34,-73.7622,40.6386,75.20,73.40,94.14,220.00,5.00,0.00,29.97,M,6.00,M,SCT,M,M,M,700.00,M,M,M,BR,M,M,M,M,M,M,75.20,KJFK 030934Z 22005KT 6SM BR SCT007 24/23 A2997 RMK AO2
JFK,2012-08-03 09:51,-73.7622,40.6386,75.02,73.04,93.57,230.00,6.00,0.00,29.97,1015.00,5.00,M,SCT,SCT,M,M,700.00,6500.00,M,M,BR,M,M,M,M,M,M,75.02,KJFK 030951Z 23006KT 5SM BR SCT007 SCT065 24/23 A2997 RMK AO2 SLP150 SCT007 V BKN T02390228
JFK,2012-08-03 10:51,-73.7622,40.6386,75.02,73.94,96.45,260.00,4.00,0.00,29.99,1015.50,4.00,M,FEW,SCT,SCT,M,700.00,6500.00,25000.00,M,BR,M,M,M,M,M,M,75.02,KJFK 031051Z 26004KT 4SM BR FEW007 SCT065 SCT250 24/23 A2999 RMK AO2 SLP155 T02390233
JFK,2012-08-03 11:51,-73.7622,40.6386,78.08,73.94,87.12,210.00,5.00,0.00,29.99,1015.70,6.00,M,FEW,BKN,M,M,900.00,27000.00,M,M,BR,M,M,M,M,M,M,78.08,KJFK 031151Z 21005KT 6SM BR FEW009 BKN270 26/23 A2999 RMK AO2 SLP157 T02560233 10256 20233 51014
JFK,2012-08-03 12:51,-73.7622,40.6386,80.06,75.02,84.64,200.00,6.00,0.00,30.00,1016.00,5.00,M,FEW,SCT,SCT,M,900.00,16000.00,27000.00,M,HZ,M,M,M,M,M,M,85.01,KJFK 031251Z 20006KT 5SM HZ FEW009 SCT160 SCT270 27/24 A3000 RMK AO2 SLP160 VIS SE-S 2 1/2 T02670239
JFK,2012-08-03 13:13,-73.7622,40.6386,78.80,73.40,83.55,200.00,8.00,0.00,30.01,M,2.00,M,BKN,BKN,BKN,BKN,600.00,1200.00,16000.00,27000.00,BR,M,M,M,M,M,M,78.80,KJFK 031313Z 20008KT 2SM BR BKN006 BKN012 BKN160 BKN270 26/23 A3001 RMK AO2 SFC VIS 4 VIS SE-S 1 3/4
JFK,2012-08-03 13:25,-73.7622,40.6386,78.80,73.40,83.55,200.00,8.00,0.00,30.01,M,2.00,M,BKN,BKN,BKN,M,400.00,16000.00,27000.00,M,BR,M,M,M,M,M,M,78.80,KJFK 031325Z 20008KT 2SM BR BKN004 BKN160 BKN270 26/23 A3001 RMK AO2 SFC VIS 3 VIS SE-S 1 1/2
JFK,2012-08-03 13:51,-73.7622,40.6386,78.08,73.94,87.12,220.00,6.00,0.00,30.02,1016.40,1.00,M,BKN,BKN,BKN,M,400.00,16000.00,27000.00,M,BR,M,M,M,M,M,M,78.08,KJFK 031351Z 22006KT 1SM BR BKN004 BKN160 BKN270 26/23 A3002 RMK AO2 SFC VIS 2 1/2 SLP164 VIS SE-S 1 1/2 T02560233
JFK,2012-08-03 14:10,-73.7622,40.6386,78.80,73.40,83.55,230.00,6.00,0.00,30.02,M,4.00,M,SCT,SCT,BKN,M,500.00,16000.00,27000.00,M,HZ,M,M,M,M,M,M,78.80,KJFK 031410Z 23006KT 4SM HZ SCT005 SCT160 BKN270 26/23 A3002 RMK AO2 VIS SE-SW 2 1/2
JFK,2012-08-03 14:51,-73.7622,40.6386,82.04,75.02,79.35,220.00,7.00,0.00,30.03,1016.70,5.00,M,FEW,SCT,SCT,BKN,800.00,3300.00,16000.00,27000.00,HZ,M,M,M,M,M,M,88.72,KJFK 031451Z 22007KT 5SM HZ FEW008 SCT033 SCT160 BKN270 28/24 A3003 RMK AO2 SLP167 T02780239 51011
JFK,2012-08-03 15:51,-73.7622,40.6386,86.00,75.02,69.85,200.00,9.00,0.00,30.03,1017.00,6.00,M,FEW,BKN,M,M,4000.00,27000.00,M,M,HZ,M,M,M,M,M,M,95.00,KJFK 031551Z 20009KT 6SM HZ FEW040 BKN270 30/24 A3003 RMK AO2 SLP170 T03000239
JFK,2012-08-03 16:51,-73.7622,40.6386,86.00,75.02,69.85,210.00,6.00,0.00,30.03,1017.00,7.00,M,FEW,BKN,M,M,4200.00,27000.00,M,M,M,M,M,M,M,M,M,95.00,KJFK 031651Z 21006KT 7SM FEW042 BKN270 30/24 A3003 RMK AO2 SLP170 TCU DSNT N AND DSNT E T03000239 $
JFK,2012-08-03 17:51,-73.7622,40.6386,84.02,75.02,74.43,190.00,10.00,0.00,30.04,1017.10,8.00,M,FEW,BKN,M,M,4500.00,27000.00,M,M,M,M,M,M,M,M,M,92.01,KJFK 031751Z 19010KT 8SM FEW045 BKN270 29/24 A3004 RMK AO2 SLP171 T02890239 10300 20250 51003
JFK,2012-08-03 18:51,-73.7622,40.6386,86.00,73.94,67.36,200.00,11.00,0.00,30.04,1017.20,10.00,26.00,FEW,BKN,M,M,4500.00,27000.00,M,M,M,M,M,M,26.00,200.00,2012-08-03 18:48,93.95,KJFK 031851Z 20011G26KT 10SM FEW045 BKN270 30/23 A3004 RMK AO2 PK WND 20026/1848 SLP172 TCU DSNT W T03000233
JFK,2012-08-03 19:51,-73.7622,40.6386,84.92,73.94,69.73,190.00,11.00,0.00,30.04,1017.10,10.00,M,FEW,SCT,BKN,M,4500.00,21000.00,27000.00,M,M,M,M,M,M,M,M,92.42,KJFK 031951Z 19011KT 10SM FEW045 SCT210 BKN270 29/23 A3004 RMK AO2 SLP171 T02940233
JFK,2012-08-03 20:51,-73.7622,40.6386,84.02,73.04,69.64,200.00,13.00,0.00,30.03,1017.00,10.00,20.00,FEW,BKN,M,M,4500.00,27000.00,M,M,M,M,M,M,M,M,M,90.40,KJFK 032051Z 20013G20KT 10SM FEW045 BKN270 29/23 A3003 RMK AO2 SLP170 T02890228 58001
JFK,2012-08-03 21:51,-73.7622,40.6386,82.04,73.04,74.25,190.00,15.00,0.00,30.04,1017.00,10.00,23.00,FEW,SCT,BKN,M,4500.00,15000.00,23000.00,M,M,M,M,M,M,M,M,87.48,KJFK 032151Z 19015G23KT 10SM FEW045 SCT150 BKN230 28/23 A3004 RMK AO2 SLP170 T02780228
JFK,2012-08-03 22:51,-73.7622,40.6386,80.06,73.94,81.63,190.00,14.00,0.00,30.04,1017.30,10.00,M,FEW,OVC,M,M,15000.00,23000.00,M,M,M,M,M,M,M,M,M,84.59,KJFK 032251Z 19014KT 10SM FEW150 OVC230 27/23 A3004 RMK AO2 SLP173 T02670233
JFK,2012-08-03 23:51,-73.7622,40.6386,78.98,75.92,90.37,190.00,10.00,0.00,30.06,1017.80,10.00,M,FEW,BKN,M,M,15000.00,23000.00,M,M,M,M,M,M,M,M,M,78.98,KJFK 032351Z 19010KT 10SM FEW150 BKN230 26/24 A3006 RMK AO2 SLP178 T02610244 10306 20261 53008
JFK,2012-08-04 00:51,-73.7622,40.6386,78.98,75.02,87.70,200.00,7.00,0.00,30.07,1018.10,10.00,M,FEW,BKN,M,M,15000.00,25000.00,M,M,M,M,M,M,M,M,M,78.98,KJFK 040051Z 20007KT 10SM FEW150 BKN250 26/24 A3007 RMK AO2 SLP181 T02610239
JFK,2012-08-04 01:51,-73.7622,40.6386,78.08,73.94,87.12,210.00,6.00,0.00,30.09,1018.70,10.00,M,FEW,BKN,M,M,15000.00,25000.00,M,M,M,M,M,M,M,M,M,78.08,KJFK 040151Z 21006KT 10SM FEW150 BKN250 26/23 A3009 RMK AO2 SLP187 T02560233
JFK,2012-08-04 02:51,-73.7622,40.6386,78.08,73.94,87.12,160.00,5.00,0.00,30.10,1019.10,10.00,M,SCT,OVC,M,M,15000.00,26000.00,M,M,M,M,M,M,M,M,M,78.08,KJFK 040251Z 16005KT 10SM SCT150 OVC260 26/23 A3010 RMK AO2 SLP191 T02560233 53013
JFK,2012-08-04 03:51,-73.7622,40.6386,77.00,73.04,87.60,200.00,5.00,0.00,30.11,1019.60,10.00,M,BKN,BKN,M,M,20000.00,27000.00,M,M,M,M,M,M,M,M,M,77.00,KJFK 040351Z 20005KT 10SM BKN200 BKN270 25/23 A3011 RMK AO2 SLP196 T02500228
JFK,2012-08-04 04:51,-73.7622,40.6386,77.00,73.04,87.60,200.00,5.00,0.00,30.12,1019.80,10.00,M,SCT,BKN,M,M,22000.00,28000.00,M,M,M,M,M,M,M,M,M,77.00,KJFK 040451Z 20005KT 10SM SCT220 BKN280 25/23 A3012 RMK AO2 SLP198 T02500228 403060233
JFK,2012-08-04 05:51,-73.7622,40.6386,75.92,71.96,87.55,220.00,5.00,0.00,30.12,1019.90,10.00,M,FEW,BKN,M,M,22000.00,28000.00,M,M,M,M,M,M,M,M,M,75.92,KJFK 040551Z 22005KT 10SM FEW220 BKN280 24/22 A3012 RMK AO2 SLP199 T02440222 10261 20239 51008
JFK,2012-08-04 06:51,-73.7622,40.6386,75.92,71.96,87.55,200.00,4.00,0.00,30.12,1020.10,10.00,M,FEW,BKN,M,M,22000.00,28000.00,M,M,M,M,M,M,M,M,M,75.92,KJFK 040651Z 20004KT 10SM FEW220 BKN280 24/22 A3012 RMK AO2 SLP201 T02440222
JFK,2012-08-04 07:51,-73.7622,40.6386,75.02,73.04,93.57,200.00,5.00,0.00,30.13,1020.30,10.00,M,FEW,SCT,M,M,17000.00,28000.00,M,M,M,M,M,M,M,M,M,75.02,KJFK 040751Z 20005KT 10SM FEW170 SCT280 24/23 A3013 RMK AO2 SLP203 T02390228
JFK,2012-08-04 08:51,-73.7622,40.6386,73.94,71.96,93.54,210.00,4.00,0.00,30.15,1020.90,10.00,M,FEW,SCT,M,M,17000.00,28000.00,M,M,M,M,M,M,M,M,M,73.94,KJFK 040851Z 21004KT 10SM FEW170 SCT280 23/22 A3015 RMK AO2 SLP209 T02330222 53010
JFK,2012-08-04 09:51,-73.7622,40.6386,75.02,71.96,90.22,190.00,4.00,0.00,30.16,1021.20,8.00,M,FEW,SCT,M,M,23000.00,28000.00,M,M,M,M,M,M,M,M,M,75.02,KJFK 040951Z 19004KT 8SM FEW230 SCT280 24/22 A3016 RMK AO2 SLP212 T02390222
JFK,2012-08-04 10:46,-73.7622,40.6386,75.20,73.40,94.14,200.00,6.00,0.00,30.18,M,6.00,M,FEW,SCT,BKN,M,700.00,15000.00,25000.00,M,BR,M,M,M,M,M,M,75.20,KJFK 041046Z 20006KT 6SM BR FEW007 SCT150 BKN250 24/23 A3018 RMK AO2
JFK,2012-08-04 10:51,-73.7622,40.6386,75.92,73.04,90.80,200.00,7.00,0.00,30.18,1021.90,6.00,M,FEW,SCT,BKN,M,700.00,15000.00,25000.00,M,BR,M,M,M,M,M,M,75.92,KJFK 041051Z 20007KT 100V210 6SM BR FEW007 SCT150 BKN250 24/23 A3018 RMK AO2 SLP219 T02440228
JFK,2012-08-04 11:51,-73.7622,40.6386,78.08,73.94,87.12,200.00,4.00,0.00,30.19,1022.30,9.00,M,FEW,SCT,M,M,900.00,25000.00,M,M,M,M,M,M,M,M,M,78.08,KJFK 041151Z 20004KT 9SM FEW009 SCT250 26/23 A3019 RMK AO2 SLP223 T02560233 10256 20233 51011 $
JFK,2012-08-04 12:51,-73.7622,40.6386,80.06,73.94,81.63,210.00,7.00,0.00,30.20,1022.70,10.00,M,SCT,BKN,M,M,900.00,25000.00,M,M,M,M,M,M,M,M,M,84.59,KJFK 041251Z 21007KT 10SM SCT009 BKN250 27/23 A3020 RMK AO2 SLP227 T02670233 $
JFK,2012-08-04 13:51,-73.7622,40.6386,80.96,73.94,79.27,180.00,9.00,0.00,30.21,1023.00,10.00,M,SCT,SCT,M,M,1100.00,25000.00,M,M,M,M,M,M,M,M,M,86.20,KJFK 041351Z 18009KT 10SM SCT011 SCT250 27/23 A3021 RMK AO2 SLP230 T02720233 $
JFK,2012-08-04 14:51,-73.7622,40.6386,82.04,73.04,74.25,210.00,8.00,0.00,30.21,1022.90,10.00,M,FEW,M,M,M,2000.00,M,M,M,M,M,M,M,M,M,M,87.48,KJFK 041451Z 21008KT 10SM FEW020 28/23 A3021 RMK AO2 SLP229 T02780228 50006 $
JFK,2012-08-04 15:51,-73.7622,40.6386,84.02,73.04,69.64,180.00,8.00,0.00,30.21,1023.10,10.00,M,SCT,M,M,M,2500.00,M,M,M,M,M,M,M,M,M,M,90.40,KJFK 041551Z 18008KT 10SM SCT025 29/23 A3021 RMK AO2 SLP231 T02890228 $
JFK,2012-08-04 16:51,-73.7622,40.6386,86.00,71.06,61.12,170.00,11.00,0.00,30.22,1023.10,10.00,M,SCT,M,M,M,4000.00,M,M,M,M,M,M,M,M,M,M,91.50,KJFK 041651Z 17011KT 10SM SCT040TCU 30/22 A3022 RMK AO2 SLP231 TCU NW T03000217 $
JFK,2012-08-04 17:51,-73.7622,40.6386,86.00,71.96,63.01,180.00,10.00,0.00,30.20,1022.80,10.00,M,SCT,SCT,M,M,3500.00,25000.00,M,M,M,M,M,M,M,M,M,92.21,KJFK 041751Z 18010KT 10SM SCT035TCU SCT250 30/22 A3020 RMK AO2 SLP228 TCU SW-NW T03000222 10311 20256 58002 $
JFK,2012-08-04 18:51,-73.7622,40.6386,86.00,73.04,65.35,160.00,13.00,0.00,30.20,1022.60,10.00,M,FEW,SCT,SCT,M,1600.00,3500.00,25000.00,M,M,M,M,M,M,M,M,93.13,KJFK 041851Z 16013KT 10SM FEW016 SCT035 SCT250 30/23 A3020 RMK AO2 SLP226 TCU DSNT W T03000228 $
JFK,2012-08-04 19:51,-73.7622,40.6386,84.02,73.94,71.78,170.00,11.00,0.00,30.19,1022.20,10.00,M,FEW,SCT,SCT,M,1600.00,3500.00,25000.00,M,M,M,M,M,M,M,M,91.10,KJFK 041951Z 17011KT 10SM FEW016 SCT035 SCT250 29/23 A3019 RMK AO2 SLP222 CB DSNT SW T02890233 $
JFK,2012-08-04 20:51,-73.7622,40.6386,82.94,73.04,72.11,180.00,14.00,0.00,30.18,1022.00,10.00,M,FEW,SCT,SCT,M,1600.00,3500.00,25000.00,M,M,M,M,M,M,M,M,88.84,KJFK 042051Z 18014KT 10SM FEW016 SCT035 SCT250 28/23 A3018 RMK AO2 SLP220 CB DSNT SW T02830228 57008 $
JFK,2012-08-04 21:51,-73.7622,40.6386,80.96,75.02,82.19,170.00,11.00,0.00,30.18,1021.90,10.00,M,SCT,SCT,SCT,BKN,1200.00,3500.00,14000.00,25000.00,M,M,M,M,M,M,M,86.76,KJFK 042151Z 17011KT 10SM SCT012 SCT035 SCT140 BKN250 27/24 A3018 RMK AO2 SLP219 T02720239 $
JFK,2012-08-04 22:51,-73.7622,40.6386,80.06,75.02,84.64,160.00,13.00,0.00,30.18,1021.90,10.00,M,SCT,SCT,BKN,M,1200.00,14000.00,25000.00,M,M,M,M,M,M,M,M,85.01,KJFK 042251Z 16013KT 10SM SCT012 SCT140 BKN250 27/24 A3018 RMK AO2 SLP219 SCT012 V BKN T02670239 $
JFK,2012-08-04 23:25,-73.7622,40.6386,80.60,75.20,83.66,160.00,8.00,0.00,30.18,M,10.00,M,BKN,BKN,BKN,M,1200.00,14000.00,25000.00,M,M,M,M,M,M,M,M,86.17,KJFK 042325Z 16008KT 10SM BKN012 BKN140 BKN250 27/24 A3018 RMK AO2 $
JFK,2012-08-04 23:51,-73.7622,40.6386,80.06,75.02,84.64,160.00,10.00,0.00,30.17,1021.70,10.00,M,BKN,BKN,BKN,M,1200.00,14000.00,25000.00,M,M,M,M,M,M,M,M,85.01,KJFK 042351Z 16010KT 10SM BKN012 BKN140 BKN250 27/24 A3017 RMK AO2 SLP217 T02670239 10300 20267 58003 $
JFK,2012-08-05 00:51,-73.7622,40.6386,78.98,75.02,87.70,160.00,10.00,0.00,30.19,1022.30,10.00,M,BKN,BKN,BKN,M,1200.00,14000.00,25000.00,M,M,M,M,M,M,M,M,78.98,KJFK 050051Z 16010KT 10SM BKN012 BKN140 BKN250 26/24 A3019 RMK AO2 SLP223 BKN012 V SCT T02610239 $
JFK,2012-08-05 01:05,-73.7622,40.6386,78.80,75.20,88.75,160.00,8.00,0.00,30.19,M,10.00,M,SCT,SCT,BKN,M,1200.00,14000.00,25000.00,M,M,M,M,M,M,M,M,78.80,KJFK 050105Z 16008KT 10SM SCT012 SCT140 BKN250 26/24 A3019 RMK AO2 $
JFK,2012-08-05 01:51,-73.7622,40.6386,78.98,75.92,90.37,170.00,9.00,0.00,30.21,1022.80,10.00,M,SCT,SCT,BKN,M,1200.00,14000.00,25000.00,M,M,M,M,M,M,M,M,78.98,KJFK 050151Z 17009KT 10SM SCT012 SCT140 BKN250 26/24 A3021 RMK AO2 SLP228 T02610244 $
JFK,2012-08-05 02:51,-73.7622,40.6386,78.98,75.92,90.37,190.00,7.00,0.00,30.22,1023.20,9.00,M,SCT,BKN,M,M,1300.00,23000.00,M,M,M,M,M,M,M,M,M,78.98,KJFK 050251Z 19007KT 9SM SCT013 BKN230 26/24 A3022 RMK AO2 SLP232 T02610244 51015 $
JFK,2012-08-05 03:21,-73.7622,40.6386,78.80,75.20,88.75,190.00,8.00,0.00,30.21,M,9.00,M,FEW,BKN,OVC,M,900.00,1400.00,23000.00,M,M,M,M,M,M,M,M,78.80,KJFK 050321Z 19008KT 9SM FEW009 BKN014 OVC230 26/24 A3021 RMK AO2 $
JFK,2012-08-05 03:51,-73.7622,40.6386,78.98,75.92,90.37,190.00,8.00,0.00,30.21,1023.10,9.00,M,FEW,BKN,BKN,M,900.00,1400.00,23000.00,M,M,M,M,M,M,M,M,78.98,KJFK 050351Z 19008KT 9SM FEW009 BKN014 BKN230 26/24 A3021 RMK AO2 SLP231 T02610244 $
JFK,2012-08-05 04:51,-73.7622,40.6386,78.08,75.02,90.33,190.00,9.00,0.00,30.20,1022.60,9.00,M,FEW,SCT,BKN,M,900.00,1600.00,15000.00,M,M,M,M,M,M,M,M,78.08,KJFK 050451Z 19009KT 9SM FEW009 SCT016 BKN150 26/24 A3020 RMK AO2 SLP226 T02560239 403110233 $
JFK,2012-08-05 05:51,-73.7622,40.6386,78.08,75.02,90.33,190.00,9.00,0.00,30.20,1022.50,9.00,M,FEW,SCT,M,M,1300.00,15000.00,M,M,M,M,M,M,M,M,M,78.08,KJFK 050551Z 19009KT 9SM FEW013 SCT150 26/24 A3020 RMK AO2 SLP225 T02560239 10267 20256 58007 $
JFK,2012-08-05 06:49,-73.7622,40.6386,78.80,75.20,88.75,200.00,8.00,0.00,30.19,M,9.00,M,SCT,BKN,M,M,700.00,1800.00,M,M,M,M,M,M,M,M,M,78.80,KJFK 050649Z 20008KT 9SM SCT007 BKN018 26/24 A3019 RMK AO2 $
JFK,2012-08-05 06:51,-73.7622,40.6386,78.08,75.92,93.09,190.00,9.00,0.00,30.19,1022.30,9.00,M,SCT,BKN,M,M,700.00,1800.00,M,M,M,M,M,M,M,M,M,78.08,KJFK 050651Z 19009KT 9SM SCT007 BKN018 26/24 A3019 RMK AO2 SLP223 T02560244 $
JFK,2012-08-05 07:51,-73.7622,40.6386,78.08,75.92,93.09,200.00,7.00,0.00,30.18,1021.90,9.00,M,FEW,BKN,OVC,M,700.00,1800.00,3400.00,M,M,M,M,M,M,M,M,78.08,KJFK 050751Z 20007KT 9SM FEW007 BKN018 OVC034 26/24 A3018 RMK AO2 SLP219 T02560244 $
JFK,2012-08-05 08:51,-73.7622,40.6386,78.08,75.02,90.33,180.00,8.00,0.00,30.15,1021.00,10.00,M,BKN,BKN,BKN,M,1800.00,4100.00,5500.00,M,M,M,M,M,M,M,M,78.08,KJFK 050851Z 18008KT 10SM BKN018 BKN041 BKN055 26/24 A3015 RMK AO2 SLP210 T02560239 58015 $
JFK,2012-08-05 09:51,-73.7622,40.6386,78.08,75.02,90.33,200.00,11.00,0.00,30.16,1021.20,9.00,M,FEW,BKN,OVC,M,700.00,1500.00,4100.00,M,M,M,M,M,M,M,M,78.08,KJFK 050951Z 20011KT 9SM FEW007 BKN015 OVC041 26/24 A3016 RMK AO2 SLP212 T02560239 $
JFK,2012-08-05 10:41,-73.7622,40.6386,78.80,75.20,88.75,210.00,10.00,0.00,30.16,M,9.00,M,FEW,BKN,BKN,M,700.00,1300.00,4000.00,M,M,M,M,M,M,M,M,78.80,KJFK 051041Z 21010KT 9SM FEW007 BKN013 BKN040 26/24 A3016 RMK AO2 $
JFK,2012-08-05 10:51,-73.7622,40.6386,78.08,75.02,90.33,210.00,9.00,0.00,30.16,1021.30,9.00,M,FEW,BKN,BKN,M,700.00,1300.00,4000.00,M,M,M,M,M,M,M,M,78.08,KJFK 051051Z 21009KT 9SM FEW007 BKN013 BKN040 26/24 A3016 RMK AO2 SLP213 T02560239 $
JFK,2012-08-05 11:51,-73.7622,40.6386,80.06,75.02,84.64,210.00,8.00,0.00,30.16,1021.20,10.00,M,FEW,BKN,BKN,M,700.00,1100.00,4000.00,M,M,M,M,M,M,M,M,85.01,KJFK 051151Z 21008KT 10SM FEW007 BKN011 BKN040 27/24 A3016 RMK AO2 SLP212 T02670239 10267 20250 50002 $
JFK,2012-08-05 12:51,-73.7622,40.6386,80.96,75.92,84.69,210.00,11.00,0.00,30.15,1020.90,10.00,M,FEW,BKN,BKN,BKN,700.00,1500.00,2000.00,25000.00,M,M,M,M,M,M,M,87.26,KJFK 051251Z 21011KT 10SM FEW007 BKN015 BKN020 BKN250 27/24 A3015 RMK AO2 SLP209 T02720244 $
JFK,2012-08-05 13:51,-73.7622,40.6386,84.02,75.92,76.70,190.00,9.00,0.00,30.14,1020.50,10.00,M,BKN,BKN,BKN,M,1900.00,4000.00,25000.00,M,M,M,M,M,M,M,M,92.81,KJFK 051351Z 19009KT 10SM BKN019 BKN040 BKN250 29/24 A3014 RMK AO2 SLP205 BKN019 V SCT T02890244 $
JFK,2012-08-05 14:01,-73.7622,40.6386,84.20,75.20,74.44,190.00,11.00,0.00,30.13,M,10.00,M,SCT,BKN,BKN,M,1900.00,4000.00,25000.00,M,M,M,M,M,M,M,M,92.45,KJFK 051401Z 19011KT 10SM SCT019 BKN040 BKN250 29/24 A3013 RMK AO2 $
JFK,2012-08-05 14:51,-73.7622,40.6386,86.00,75.92,71.98,200.00,13.00,0.00,30.13,1020.10,10.00,M,FEW,SCT,BKN,BKN,2000.00,4000.00,15000.00,18000.00,M,M,M,M,M,M,M,95.94,KJFK 051451Z 20013KT 10SM FEW020 SCT040 BKN150 BKN180 BKN250 30/24 A3013 RMK AO2 SLP201 T03000244 58012 $
JFK,2012-08-05 15:51,-73.7622,40.6386,86.00,75.02,69.85,190.00,17.00,0.00,30.12,1019.80,10.00,M,FEW,SCT,BKN,BKN,2500.00,4000.00,14000.00,22000.00,M,M,M,M,M,M,M,95.00,KJFK 051551Z 19017KT 10SM FEW025 SCT040 BKN140 BKN220 BKN250 30/24 A3012 RMK AO2 SLP198 T03000239 $
JFK,2012-08-05 16:51,-73.7622,40.6386,84.92,75.92,74.51,180.00,14.00,0.00,30.09,1019.00,10.00,M,FEW,SCT,BKN,BKN,3000.00,4500.00,13000.00,22000.00,M,M,M,M,M,M,M,94.27,KJFK 051651Z 18014KT 10SM FEW030 SCT045 BKN130 BKN220 BKN250 29/24 A3009 RMK AO2 SLP190 T02940244 $
JFK,2012-08-05 17:51,-73.7622,40.6386,86.00,75.92,71.98,180.00,17.00,0.00,30.07,1018.20,10.00,25.00,FEW,SCT,BKN,BKN,3000.00,5000.00,15000.00,25000.00,M,M,M,M,M,M,M,95.94,KJFK 051751Z 18017G25KT 10SM FEW030 SCT050 BKN150 BKN250 30/24 A3007 RMK AO2 SLP182 T03000244 10306 20261 58019 $
JFK,2012-08-05 18:51,-73.7622,40.6386,87.08,75.02,67.48,190.00,22.00,0.00,30.05,1017.40,10.00,27.00,FEW,SCT,BKN,BKN,3000.00,5000.00,15000.00,25000.00,M,M,M,M,M,M,M,96.55,KJFK 051851Z 19022G27KT 10SM FEW030TCU SCT050 BKN150 BKN250 31/24 A3005 RMK AO2 PK WND 19027/1851 SLP174 TCU N T03060239 $
JFK,2012-08-05 19:51,-73.7622,40.6386,86.00,75.02,69.85,190.00,23.00,0.00,30.01,1016.30,10.00,27.00,FEW,SCT,BKN,BKN,3000.00,7000.00,17000.00,25000.00,M,M,M,M,M,M,M,95.00,KJFK 051951Z 19023G27KT 10SM FEW030 SCT070 BKN170 BKN250 30/24 A3001 RMK AO2 PK WND 20029/1933 SLP163 CB DSNT N T03000239 $
JFK,2012-08-05 20:51,-73.7622,40.6386,84.02,75.02,74.43,190.00,22.00,0.00,29.99,1015.40,10.00,29.00,FEW,SCT,BKN,BKN,3000.00,7500.00,17000.00,25000.00,M,M,M,M,M,M,M,92.01,KJFK 052051Z 19022G29KT 10SM FEW030 SCT075 BKN170 BKN250 29/24 A2999 RMK AO2 PK WND 19030/2033 SLP154 T02890239 58028 $
JFK,2012-08-05 21:51,-73.7622,40.6386,84.02,75.02,74.43,190.00,22.00,0.00,29.99,1015.30,10.00,31.00,FEW,SCT,BKN,BKN,3000.00,6500.00,18000.00,25000.00,M,M,M,M,32.00,190.00,2012-08-05 21:10,92.01,KJFK 052151Z 19022G31KT 10SM FEW030 SCT065 BKN180 BKN250 29/24 A2999 RMK AO2 PK WND 19032/2110 SLP153 TCU DSNT N T02890239 $
JFK,2012-08-05 22:51,-73.7622,40.6386,80.96,75.02,82.19,190.00,20.00,0.00,29.98,1015.20,10.00,28.00,FEW,SCT,BKN,BKN,3000.00,6000.00,15000.00,25000.00,M,M,M,M,31.00,190.00,2012-08-05 21:54,86.76,KJFK 052251Z 19020G28KT 10SM FEW030CB SCT060 BKN150 BKN250 27/24 A2998 RMK AO2 PK WND 19031/2154 SLP152 CB W-NW MOV E TCU N T02720239 $
JFK,2012-08-05 23:44,-73.7622,40.6386,80.60,75.20,83.66,190.00,22.00,0.00,29.97,M,10.00,28.00,SCT,SCT,BKN,BKN,3000.00,6000.00,15000.00,25000.00,TS,M,M,M,M,M,M,86.17,KJFK 052344Z 19022G28KT 10SM TS SCT030CB SCT060 BKN150 BKN250 27/24 A2997 RMK AO2 PK WND 19029/2321 TSB44 FRQ LTGICCG W-NW TS W-NW MOV E $
JFK,2012-08-05 23:51,-73.7622,40.6386,80.96,75.02,82.19,190.00,24.00,0.00,29.97,1014.70,10.00,30.00,FEW,SCT,SCT,BKN,1500.00,2500.00,6000.00,15000.00,TS,M,M,M,M,M,M,86.76,KJFK 052351Z 19024G30KT 10SM TS FEW015 SCT025CB SCT060 BKN150 BKN250 27/24 A2997 RMK AO2 PK WND 19030/2351 TSB44 SLP147 FRQ LTGICCG SW-N TS SW-N MOV E T02720239 10306 20272 58007 $
JFK,2012-08-05 23:58,-73.7622,40.6386,80.60,75.20,83.66,220.00,21.00,0.00,29.99,M,10.00,30.00,SCT,BKN,BKN,OVC,1500.00,2500.00,6000.00,15000.00,TS,M,M,M,27.00,230.00,2012-08-05 23:57,86.17,KJFK 052358Z 22021G30KT 10SM TS SCT015 BKN025CB BKN060 OVC150 27/24 A2999 RMK AO2 PK WND 23027/2357 PRESRR FRQ LTGICCGCC OHD TS OHD MOV E $
JFK,2012-08-06 00:05,-73.7622,40.6386,80.60,71.60,74.11,270.00,21.00,0.00,30.01,M,2.00,33.00,SCT,BKN,BKN,OVC,1500.00,2500.00,5000.00,15000.00,+TSRA,M,M,M,33.00,280.00,2012-08-06 00:02,84.57,KJFK 060005Z 27021G33KT 2SM +TSRA SCT015 BKN025CB BKN050 OVC150 27/22 A3001 RMK AO2 PK WND 28033/0002 WSHFT 2351 RAB02 PRESRR FRQ LTGICCC OHD TS OHD MOV E P0000 $
JFK,2012-08-06 00:21,-73.7622,40.6386,75.20,71.60,88.59,240.00,22.00,0.13,30.01,M,2.00,25.00,SCT,BKN,OVC,M,1500.00,3000.00,5000.00,M,TSRA BR,M,M,M,33.00,280.00,2012-08-06 00:02,75.20,KJFK 060021Z 24022G25KT 2SM TSRA BR SCT015 BKN030CB OVC050 24/22 A3001 RMK AO2 PK WND 28033/0002 WSHFT 2351 RAB02 OCNL LTGICCGCC OHD TS OHD MOV E P0013 $
JFK,2012-08-06 00:32,-73.7622,40.6386,73.40,71.60,94.10,230.00,16.00,0.14,30.02,M,7.00,25.00,FEW,SCT,BKN,OVC,1500.00,3000.00,5000.00,13000.00,-TSRA,M,M,M,33.00,280.00,2012-08-06 00:02,73.40,KJFK 060032Z 23016G25KT 7SM -TSRA FEW015 SCT030CB BKN050 OVC130 23/22 A3002 RMK AO2 PK WND 28033/0002 WSHFT 2351 RAB02 OCNL LTGICCGCC NE-S TS NE-S MOV E P0014 $
JFK,2012-08-06 00:51,-73.7622,40.6386,73.04,71.06,93.52,230.00,15.00,0.15,30.03,1016.90,6.00,M,FEW,SCT,BKN,OVC,1500.00,3000.00,7500.00,13000.00,TSRA BR,M,M,M,33.00,280.00,2012-08-06 00:02,73.04,KJFK 060051Z 23015KT 6SM TSRA BR FEW015 SCT030CB BKN075 OVC130 23/22 A3003 RMK AO2 PK WND 28033/0002 WSHFT 2351 RAB02 SLP169 OCNL LTGICCGCC SE TS SE MOV E P0015 T02280217 $
JFK,2012-08-06 01:11,-73.7622,40.6386,73.40,71.60,94.10,230.00,14.00,0.02,30.05,M,9.00,M,FEW,SCT,SCT,OVC,1500.00,3000.00,6000.00,13000.00,-RA,M,M,M,M,M,M,73.40,KJFK 060111Z 23014KT 9SM -RA FEW015 SCT030 SCT060 OVC130 23/22 A3005 RMK AO2 TSE11 P0002 $
JFK,2012-08-06 01:51,-73.7622,40.6386,75.02,71.06,87.50,230.00,13.00,0.03,30.04,1017.10,10.00,M,FEW,SCT,OVC,M,1500.00,11000.00,15000.00,M,-RA,M,M,M,M,M,M,75.02,KJFK 060151Z 23013KT 10SM -RA FEW015 SCT110 OVC150 24/22 A3004 RMK AO2 TSE11 SLP171 P0003 T02390217 $
JFK,2012-08-06 02:51,-73.7622,40.6386,75.02,69.98,84.34,230.00,9.00,0.00,30.02,1016.40,10.00,M,OVC,M,M,M,11000.00,M,M,M,M,M,M,M,M,M,M,75.02,KJFK 060251Z 23009KT 10SM OVC110 24/21 A3002 RMK AO2 RAE00B30E48 SLP164 P0000 60018 T02390211 50017 $
JFK,2012-08-06 03:51,-73.7622,40.6386,75.02,71.96,90.22,220.00,20.00,0.00,30.04,1017.20,10.00,26.00,FEW,SCT,OVC,M,1300.00,4200.00,10000.00,M,M,M,M,M,26.00,210.00,2012-08-06 03:51,75.02,KJFK 060351Z 22020G26KT 10SM FEW013 SCT042 OVC100 24/22 A3004 RMK AO2 PK WND 21026/0351 SLP172 FRQ LTGICCC DSNT SE-S CB DSNT SE-S T02390222 $
JFK,2012-08-06 04:18,-73.7622,40.6386,73.40,71.60,94.10,210.00,14.00,0.00,30.02,M,10.00,M,FEW,BKN,OVC,M,700.00,5000.00,11000.00,M,M,M,M,M,M,M,M,73.40,KJFK 060418Z 21014KT 10SM FEW007 BKN050 OVC110 23/22 A3002 RMK AO2 RAB0352E18 OCNL LTGICCC DSNT E CB DSNT E P0000 $
JFK,2012-08-06 04:51,-73.7622,40.6386,75.02,71.96,90.22,220.00,13.00,0.00,30.01,1016.20,10.00,M,FEW,SCT,OVC,M,900.00,5500.00,11000.00,M,M,M,M,M,M,M,M,75.02,KJFK 060451Z 22013KT 10SM FEW009 SCT055 OVC110 24/22 A3001 RMK AO2 RAB0352E18 SLP162 P0000 T02390222 403060228 $
JFK,2012-08-06 05:51,-73.7622,40.6386,75.02,73.04,93.57,240.00,13.00,0.21,30.00,1015.90,5.00,M,FEW,OVC,M,M,900.00,4200.00,M,M,+RA BR,M,M,M,M,M,M,75.02,KJFK 060551Z 24013KT 5SM +RA BR FEW009 OVC042 24/23 A3000 RMK AO2 RAB15 SLP159 P0021 60039 T02390228 10272 20228 58005 $
JFK,2012-08-06 06:51,-73.7622,40.6386,75.02,73.04,93.57,230.00,11.00,0.02,29.99,1015.40,10.00,M,FEW,BKN,OVC,M,900.00,3700.00,9000.00,M,-RA,M,M,M,M,M,M,75.02,KJFK 060651Z 23011KT 10SM -RA FEW009 BKN037 OVC090 24/23 A2999 RMK AO2 SLP154 P0002 T02390228 $
JFK,2012-08-06 07:51,-73.7622,40.6386,75.92,73.04,90.80,250.00,9.00,0.00,29.98,1015.10,10.00,M,SCT,BKN,OVC,M,1100.00,4500.00,8500.00,M,M,M,M,M,M,M,M,75.92,KJFK 060751Z 25009KT 10SM SCT011 BKN045 OVC085 24/23 A2998 RMK AO2 RAE0652 SLP151 T02440228 $
JFK,2012-08-06 08:36,-73.7622,40.6386,75.20,73.40,94.14,270.00,7.00,0.00,29.98,M,10.00,M,BKN,OVC,M,M,1100.00,4900.00,M,M,M,M,M,M,M,M,M,75.20,KJFK 060836Z 27007KT 10SM BKN011 OVC049 24/23 A2998 RMK AO2 $
JFK,2012-08-06 08:51,-73.7622,40.6386,75.02,73.04,93.57,270.00,8.00,0.00,29.98,1015.20,10.00,M,OVC,M,M,M,1100.00,M,M,M,M,M,M,M,M,M,M,75.02,KJFK 060851Z 27008KT 10SM OVC011 24/23 A2998 RMK AO2 SLP152 60002 T02390228 55007 $
JFK,2012-08-06 09:38,-73.7622,40.6386,75.20,73.40,94.14,270.00,8.00,0.00,29.99,M,10.00,M,SCT,OVC,M,M,1100.00,10000.00,M,M,M,M,M,M,M,M,M,75.20,KJFK 060938Z 27008KT 10SM SCT011 OVC100 24/23 A2999 RMK AO2 $
JFK,2012-08-06 09:51,-73.7622,40.6386,75.92,73.04,90.80,280.00,7.00,0.00,29.99,1015.50,10.00,M,FEW,OVC,M,M,1100.00,9500.00,M,M,M,M,M,M,M,M,M,75.92,KJFK 060951Z 28007KT 10SM FEW011 OVC095 24/23 A2999 RMK AO2 SLP155 T02440228 $
JFK,2012-08-06 10:51,-73.7622,40.6386,75.92,71.96,87.55,280.00,6.00,0.00,29.99,1015.60,9.00,M,FEW,SCT,BKN,BKN,1100.00,8000.00,12000.00,25000.00,M,M,M,M,M,M,M,75.92,KJFK 061051Z 28006KT 9SM FEW011 SCT080 BKN120 BKN250 24/22 A2999 RMK AO2 SLP156 T02440222 $
JFK,2012-08-06 11:51,-73.7622,40.6386,78.98,71.06,76.74,330.00,8.00,0.00,30.01,1016.20,10.00,M,FEW,SCT,SCT,M,2000.00,12000.00,25000.00,M,M,M,M,M,M,M,M,78.98,KJFK 061151Z 33008KT 10SM FEW020 SCT120 SCT250 26/22 A3001 RMK AO2 SLP162 60002 70041 T02610217 10261 20239 53010 $
JFK,2012-08-06 12:51,-73.7622,40.6386,80.96,68.00,64.77,350.00,12.00,0.00,30.02,1016.50,10.00,M,FEW,SCT,BKN,BKN,2700.00,8000.00,12000.00,25000.00,M,M,M,M,M,M,M,83.72,KJFK 061251Z 35012KT 10SM FEW027 SCT080 BKN120 BKN250 27/20 A3002 RMK AO2 SLP165 T02720200 $
JFK,2012-08-06 13:51,-73.7622,40.6386,82.04,69.08,64.90,360.00,7.00,0.00,30.02,1016.40,10.00,M,FEW,SCT,SCT,BKN,3300.00,8500.00,13000.00,25000.00,M,M,M,M,M,M,M,85.43,KJFK 061351Z 36007KT 10SM FEW033 SCT085 SCT130 BKN250 28/21 A3002 RMK AO2 SLP164 T02780206
JFK,2012-08-06 14:51,-73.7622,40.6386,84.02,69.08,60.87,20.00,7.00,0.00,30.02,1016.60,10.00,M,SCT,SCT,BKN,M,4000.00,8500.00,13000.00,M,M,M,M,M,M,M,M,87.79,KJFK 061451Z 02007KT 10SM SCT040 SCT085 BKN130 29/21 A3002 RMK AO2 SLP166 T02890206 51005
JFK,2012-08-06 15:51,-73.7622,40.6386,84.92,64.04,49.66,350.00,10.00,0.00,30.02,1016.60,10.00,M,SCT,BKN,BKN,M,4200.00,13000.00,25000.00,M,M,M,M,M,M,M,M,86.27,KJFK 061551Z 35010KT 10SM SCT042 BKN130 BKN250 29/18 A3002 RMK AO2 SLP166 SCT V BKN T02940178
JFK,2012-08-06 16:51,-73.7622,40.6386,84.92,62.06,46.32,290.00,6.00,0.00,30.01,1016.30,10.00,M,SCT,SCT,BKN,BKN,5000.00,8000.00,13000.00,25000.00,M,M,M,M,M,M,M,85.50,KJFK 061651Z 29006KT 10SM SCT050 SCT080 BKN130 BKN250 29/17 A3001 RMK AO2 SLP163 T02940167
JFK,2012-08-06 17:51,-73.7622,40.6386,84.02,66.02,54.77,200.00,9.00,0.00,30.00,1015.70,10.00,M,SCT,BKN,BKN,M,5500.00,13000.00,25000.00,M,M,M,M,M,M,M,M,86.23,KJFK 061751Z 20009KT 10SM SCT055 BKN130 BKN250 29/19 A3000 RMK AO2 SLP157 T02890189 10306 20261 58009
JFK,2012-08-06 18:51,-73.7622,40.6386,87.08,57.02,36.12,320.00,10.00,0.00,29.98,1015.20,10.00,M,SCT,BKN,BKN,M,6000.00,13000.00,25000.00,M,M,M,M,M,M,M,M,87.08,KJFK 061851Z 32010KT 10SM SCT060 BKN130 BKN250 31/14 A2998 RMK AO2 SLP152 T03060139
JFK,2012-08-06 19:51,-73.7622,40.6386,87.08,55.94,34.73,290.00,10.00,0.00,29.97,1014.80,10.00,M,FEW,SCT,BKN,M,6500.00,8000.00,25000.00,M,M,M,M,M,M,M,M,87.08,KJFK 061951Z 29010KT 10SM FEW065 SCT080 BKN250 31/13 A2997 RMK AO2 SLP148 T03060133
JFK,2012-08-06 20:51,-73.7622,40.6386,89.06,57.02,33.92,320.00,11.00,0.00,29.96,1014.40,10.00,19.00,FEW,SCT,BKN,M,6500.00,8000.00,25000.00,M,M,M,M,M,M,M,M,89.06,KJFK 062051Z 32011G19KT 10SM FEW065 SCT080 BKN250 32/14 A2996 RMK AO2 SLP144 T03170139 56013
JFK,2012-08-06 21:51,-73.7622,40.6386,84.92,55.94,37.21,320.00,9.00,0.00,29.94,1014.00,10.00,M,FEW,SCT,BKN,M,7000.00,14000.00,25000.00,M,M,M,M,M,M,M,M,84.92,KJFK 062151Z 32009KT 10SM FEW070 SCT140 BKN250 29/13 A2994 RMK AO2 SLP140 T02940133
JFK,2012-08-06 22:51,-73.7622,40.6386,84.92,55.94,37.21,330.00,12.00,0.00,29.96,1014.30,10.00,M,FEW,BKN,M,M,7000.00,25000.00,M,M,M,M,M,M,M,M,M,84.92,KJFK 062251Z 33012KT 10SM FEW070 BKN250 29/13 A2996 RMK AO2 SLP143 T02940133
JFK,2012-08-06 23:51,-73.7622,40.6386,82.04,55.04,39.53,350.00,11.00,0.00,29.98,1015.00,10.00,M,FEW,BKN,M,M,7000.00,25000.00,M,M,M,M,M,M,M,M,M,82.04,KJFK 062351Z 35011KT 10SM FEW070 BKN250 28/13 A2998 RMK AO2 SLP150 T02780128 10322 20278 53006
JFK,2012-08-07 00:51,-73.7622,40.6386,78.98,55.94,45.14,360.00,7.00,0.00,29.99,1015.50,10.00,M,FEW,BKN,M,M,7000.00,25000.00,M,M,M,M,M,M,M,M,M,78.98,KJFK 070051Z 36007KT 10SM FEW070 BKN250 26/13 A2999 RMK AO2 SLP155 FU PLUME NW T02610133
JFK,2012-08-07 01:51,-73.7622,40.6386,78.08,55.04,45.00,350.00,9.00,0.00,30.00,1015.80,10.00,M,BKN,M,M,M,25000.00,M,M,M,M,M,M,M,M,M,M,78.08,KJFK 070151Z 35009KT 10SM BKN250 26/13 A3000 RMK AO2 SLP158 T02560128
JFK,2012-08-07 02:51,-73.7622,40.6386,75.92,53.96,46.47,350.00,5.00,0.00,30.00,1016.00,10.00,M,SCT,M,M,M,25000.00,M,M,M,M,M,M,M,M,M,M,75.92,KJFK 070251Z 35005KT 10SM SCT250 24/12 A3000 RMK AO2 SLP160 T02440122 51009 $
JFK,2012-08-07 03:51,-73.7622,40.6386,75.92,55.04,48.34,10.00,5.00,0.00,30.00,1016.00,10.00,M,SCT,M,M,M,25000.00,M,M,M,M,M,M,M,M,M,M,75.92,KJFK 070351Z 01005KT 10SM SCT250 24/13 A3000 RMK AO2 SLP160 T02440128
JFK,2012-08-07 04:51,-73.7622,40.6386,73.04,55.94,55.01,30.00,3.00,0.00,30.01,1016.00,10.00,M,SCT,M,M,M,25000.00,M,M,M,M,M,M,M,M,M,M,73.04,KJFK 070451Z 03003KT 10SM SCT250 23/13 A3001 RMK AO2 SLP160 T02280133 403220228
JFK,2012-08-07 05:51,-73.7622,40.6386,71.96,57.02,59.32,360.00,3.00,0.00,30.01,1016.10,10.00,M,BKN,M,M,M,25000.00,M,M,M,M,M,M,M,M,M,M,71.96,KJFK 070551Z 36003KT 10SM BKN250 22/14 A3001 RMK AO2 SLP161 T02220139 10272 20217 52001
JFK,2012-08-07 06:51,-73.7622,40.6386,69.98,60.98,73.11,0.00,0.00,0.00,30.00,1015.80,10.00,M,SCT,M,M,M,25000.00,M,M,M,M,M,M,M,M,M,M,69.98,KJFK 070651Z 00000KT 10SM SCT250 21/16 A3000 RMK AO2 SLP158 T02110161
JFK,2012-08-07 07:51,-73.7622,40.6386,69.08,59.00,70.26,360.00,6.00,0.00,30.00,1015.70,10.00,M,SCT,M,M,M,25000.00,M,M,M,M,M,M,M,M,M,M,69.08,KJFK 070751Z 36006KT 10SM SCT250 21/15 A3000 RMK AO2 SLP157 T02060150
JFK,2012-08-07 08:51,-73.7622,40.6386,68.00,59.00,72.92,360.00,4.00,0.00,30.01,1016.10,10.00,M,BKN,M,M,M,25000.00,M,M,M,M,M,M,M,M,M,M,68.00,KJFK 070851Z 36004KT 10SM BKN250 20/15 A3001 RMK AO2 SLP161 T02000150 55000
JFK,2012-08-07 09:51,-73.7622,40.6386,68.00,60.08,75.78,20.00,3.00,0.00,30.01,1016.30,10.00,M,BKN,M,M,M,25000.00,M,M,M,M,M,M,M,M,M,M,68.00,KJFK 070951Z 02003KT 10SM BKN250 20/16 A3001 RMK AO2 SLP163 T02000156
JFK,2012-08-07 10:51,-73.7622,40.6386,69.98,60.08,70.81,40.00,5.00,0.00,30.02,1016.40,10.00,M,FEW,BKN,M,M,18000.00,27000.00,M,M,M,M,M,M,M,M,M,69.98,KJFK 071051Z 04005KT 10SM FEW180 BKN270 21/16 A3002 RMK AO2 SLP164 T02110156
JFK,2012-08-07 11:51,-73.7622,40.6386,73.04,60.98,65.90,60.00,4.00,0.00,30.03,1016.70,10.00,M,BKN,M,M,M,27000.00,M,M,M,M,M,M,M,M,M,M,73.04,KJFK 071151Z 06004KT 10SM BKN270 23/16 A3003 RMK AO2 SLP167 T02280161 10228 20200 52006
JFK,2012-08-07 12:51,-73.7622,40.6386,75.92,59.00,55.77,40.00,3.00,0.00,30.02,1016.60,10.00,M,BKN,M,M,M,27000.00,M,M,M,M,M,M,M,M,M,M,75.92,KJFK 071251Z 04003KT 10SM BKN270 24/15 A3002 RMK AO2 SLP166 T02440150
JFK,2012-08-07 13:51,-73.7622,40.6386,78.08,57.02,48.35,0.00,0.00,0.00,30.02,1016.60,10.00,M,BKN,M,M,M,27000.00,M,M,M,M,M,M,M,M,M,M,78.08,KJFK 071351Z 00000KT 10SM BKN270 26/14 A3002 RMK AO2 SLP166 T02560139 $
JFK,2012-08-07 14:51,-73.7622,40.6386,80.06,57.92,46.79,190.00,5.00,0.00,30.03,1016.70,10.00,M,BKN,M,M,M,27000.00,M,M,M,M,M,M,M,M,M,M,80.56,KJFK 071451Z 19005KT 10SM BKN270 27/14 A3003 RMK AO2 SLP167 T02670144 53000 $
JFK,2012-08-07 15:51,-73.7622,40.6386,78.98,59.00,50.39,180.00,6.00,0.00,30.03,1016.80,10.00,M,FEW,BKN,M,M,16000.00,27000.00,M,M,M,M,M,M,M,M,M,78.98,KJFK 071551Z 18006KT 10SM FEW160 BKN270 26/15 A3003 RMK AO2 SLP168 T02610150 $
JFK,2012-08-07 16:51,-73.7622,40.6386,78.98,55.94,45.14,200.00,10.00,0.00,30.02,1016.50,10.00,M,FEW,BKN,M,M,16000.00,27000.00,M,M,M,M,M,M,M,M,M,78.98,KJFK 071651Z 20010KT 10SM FEW160 BKN270 26/13 A3002 RMK AO2 SLP165 T02610133 $
JFK,2012-08-07 17:51,-73.7622,40.6386,78.98,60.08,52.37,170.00,8.00,0.00,30.01,1016.20,10.00,M,FEW,BKN,M,M,16000.00,27000.00,M,M,M,M,M,M,M,M,M,78.98,KJFK 071751Z 17008KT 10SM FEW160 BKN270 26/16 A3001 RMK AO2 SLP162 T02610156 10272 20228 58005 $
JFK,2012-08-07 18:51,-73.7622,40.6386,78.98,60.08,52.37,170.00,8.00,0.00,30.00,1016.00,10.00,M,FEW,SCT,BKN,M,4000.00,16000.00,27000.00,M,M,M,M,M,M,M,M,78.98,KJFK 071851Z 17008KT 10SM FEW040 SCT160 BKN270 26/16 A3000 RMK AO2 SLP160 T02610156 $
JFK,2012-08-07 19:51,-73.7622,40.6386,78.98,60.98,54.08,160.00,8.00,0.00,29.99,1015.40,10.00,M,FEW,SCT,BKN,M,4500.00,16000.00,27000.00,M,M,M,M,M,M,M,M,78.98,KJFK 071951Z 16008KT 10SM FEW045 SCT160 BKN270 26/16 A2999 RMK AO2 SLP154 T02610161 $
JFK,2012-08-07 20:51,-73.7622,40.6386,78.08,60.98,55.70,180.00,9.00,0.00,29.99,1015.50,10.00,M,FEW,SCT,BKN,M,4500.00,16000.00,27000.00,M,M,M,M,M,M,M,M,78.08,KJFK 072051Z 18009KT 10SM FEW045 SCT160 BKN270 26/16 A2999 RMK AO2 SLP155 T02560161 55008 $
JFK,2012-08-07 21:51,-73.7622,40.6386,78.08,64.04,62.05,190.00,8.00,0.00,29.98,1015.20,10.00,M,FEW,SCT,BKN,M,4500.00,16000.00,27000.00,M,M,M,M,M,M,M,M,78.08,KJFK 072151Z 19008KT 10SM FEW045 SCT160 BKN270 26/18 A2998 RMK AO2 SLP152 T02560178 $
JFK,2012-08-07 22:51,-73.7622,40.6386,78.08,62.96,59.74,170.00,8.00,0.00,29.98,1015.00,10.00,M,FEW,BKN,M,M,4500.00,27000.00,M,M,M,M,M,M,M,M,M,78.08,KJFK 072251Z 17008KT 10SM FEW045 BKN270 26/17 A2998 RMK AO2 SLP150 T02560172 $
JFK,2012-08-07 23:51,-73.7622,40.6386,75.92,64.94,68.78,190.00,5.00,0.00,29.98,1015.10,10.00,M,FEW,BKN,M,M,4500.00,27000.00,M,M,M,M,M,M,M,M,M,75.92,KJFK 072351Z 19005KT 10SM FEW045 BKN270 24/18 A2998 RMK AO2 SLP151 T02440183 10267 20244 55003 $
JFK,2012-08-08 00:51,-73.7622,40.6386,75.02,66.02,73.59,190.00,3.00,0.00,29.99,1015.30,10.00,M,BKN,M,M,M,27000.00,M,M,M,M,M,M,M,M,M,M,75.02,KJFK 080051Z 19003KT 10SM BKN270 24/19 A2999 RMK AO2 SLP153 T02390189 $
JFK,2012-08-08 01:51,-73.7622,40.6386,75.92,66.92,73.68,200.00,10.00,0.00,29.99,1015.60,10.00,M,BKN,M,M,M,27000.00,M,M,M,M,M,M,M,M,M,M,75.92,KJFK 080151Z 20010KT 10SM BKN270 24/19 A2999 RMK AO2 SLP156 T02440194 $
JFK,2012-08-08 02:51,-73.7622,40.6386,75.02,66.92,75.93,190.00,7.00,0.00,29.99,1015.60,10.00,M,BKN,M,M,M,25000.00,M,M,M,M,M,M,M,M,M,M,75.02,KJFK 080251Z 19007KT 10SM BKN250 24/19 A2999 RMK AO2 SLP156 T02390194 51005 $
JFK,2012-08-08 03:51,-73.7622,40.6386,75.02,68.00,78.81,190.00,5.00,0.00,29.99,1015.50,10.00,M,BKN,M,M,M,25000.00,M,M,M,M,M,M,M,M,M,M,75.02,KJFK 080351Z 19005KT 10SM BKN250 24/20 A2999 RMK AO2 SLP155 T02390200 $
JFK,2012-08-08 04:51,-73.7622,40.6386,75.02,69.08,81.79,0.00,0.00,0.00,30.00,1015.80,10.00,M,BKN,M,M,M,25000.00,M,M,M,M,M,M,M,M,M,M,75.02,KJFK 080451Z 00000KT 10SM BKN250 24/21 A3000 RMK AO2 SLP158 T02390206 402720200 $
JFK,2012-08-08 05:51,-73.7622,40.6386,73.94,69.08,84.80,0.00,0.00,0.00,29.99,1015.60,10.00,M,BKN,M,M,M,25000.00,M,M,M,M,M,M,M,M,M,M,73.94,KJFK 080551Z 00000KT 10SM BKN250 23/21 A2999 RMK AO2 SLP156 T02330206 10244 20233 58001 $
JFK,2012-08-08 06:51,-73.7622,40.6386,73.04,68.00,84.22,0.00,0.00,0.00,29.98,1015.30,10.00,M,SCT,BKN,M,M,1200.00,25000.00,M,M,M,M,M,M,M,M,M,73.04,KJFK 080651Z 00000KT 10SM SCT012 BKN250 23/20 A2998 RMK AO2 SLP153 T02280200 $
JFK,2012-08-08 07:51,-73.7622,40.6386,73.04,69.08,87.41,0.00,0.00,0.00,29.98,1015.20,10.00,M,FEW,BKN,M,M,1200.00,25000.00,M,M,M,M,M,M,M,M,M,73.04,KJFK 080751Z 00000KT 10SM FEW012 BKN250 23/21 A2998 RMK AO2 SLP152 T02280206 $
JFK,2012-08-08 08:32,-73.7622,40.6386,71.60,69.80,94.06,0.00,0.00,0.00,29.98,M,10.00,M,BKN,OVC,M,M,1500.00,25000.00,M,M,M,M,M,M,M,M,M,71.60,KJFK 080832Z 00000KT 10SM BKN015 OVC250 22/21 A2998 RMK AO2 $
JFK,2012-08-08 08:51,-73.7622,40.6386,71.96,69.08,90.66,0.00,0.00,0.00,29.98,1015.20,10.00,M,BKN,OVC,M,M,1500.00,25000.00,M,M,M,M,M,M,M,M,M,71.96,KJFK 080851Z 00000KT 10SM BKN015 OVC250 22/21 A2998 RMK AO2 SLP152 T02220206 56004 $
JFK,2012-08-08 09:15,-73.7622,40.6386,71.60,69.80,94.06,0.00,0.00,0.00,29.98,M,10.00,M,SCT,BKN,M,M,1300.00,25000.00,M,M,M,M,M,M,M,M,M,71.60,KJFK 080915Z 00000KT 10SM SCT013 BKN250 22/21 A2998 RMK AO2 $
JFK,2012-08-08 09:51,-73.7622,40.6386,73.04,69.98,90.14,0.00,0.00,0.00,29.98,1015.30,10.00,M,SCT,BKN,M,M,1300.00,25000.00,M,M,M,M,M,M,M,M,M,73.04,KJFK 080951Z 00000KT 10SM SCT013 BKN250 23/21 A2998 RMK AO2 SLP153 T02280211 $
JFK,2012-08-08 10:51,-73.7622,40.6386,73.94,71.06,90.73,0.00,0.00,0.00,29.99,1015.50,7.00,M,FEW,SCT,BKN,M,1100.00,18000.00,26000.00,M,M,M,M,M,M,M,M,73.94,KJFK 081051Z 00000KT 7SM FEW011 SCT180 BKN260 23/22 A2999 RMK AO2 SLP155 T02330217 $
JFK,2012-08-08 11:51,-73.7622,40.6386,75.92,71.96,87.55,0.00,0.00,0.00,30.00,1015.70,9.00,M,FEW,SCT,BKN,M,1100.00,18000.00,26000.00,M,M,M,M,M,M,M,M,75.92,KJFK 081151Z 00000KT 9SM R04R/4000VP6000FT FEW011 SCT180 BKN260 24/22 A3000 RMK AO2 SLP157 T02440222 10244 20217 53006 $
JFK,2012-08-08 12:51,-73.7622,40.6386,78.98,71.96,79.12,0.00,0.00,0.00,30.00,1015.90,10.00,M,FEW,BKN,M,M,1500.00,26000.00,M,M,M,M,M,M,M,M,M,78.98,KJFK 081251Z 00000KT 10SM R04R/2800V6000FT FEW015 BKN260 26/22 A3000 RMK AO2 SLP159 T02610222 $
JFK,2012-08-08 13:51,-73.7622,40.6386,80.96,69.98,69.32,210.00,3.00,0.00,30.00,1015.90,10.00,M,SCT,BKN,M,M,1900.00,26000.00,M,M,M,M,M,M,M,M,M,84.44,KJFK 081351Z 21003KT 10SM R04R/2800VP6000FT SCT019 BKN260 27/21 A3000 RMK AO2 SLP159 T02720211 $
JFK,2012-08-08 14:51,-73.7622,40.6386,80.96,69.98,69.32,200.00,5.00,0.00,30.00,1015.90,10.00,M,SCT,BKN,M,M,2000.00,26000.00,M,M,M,M,M,M,M,M,M,84.44,KJFK 081451Z 20005KT 10SM SCT020 BKN260 27/21 A3000 RMK AO2 SLP159 T02720211 51002 $
JFK,2012-08-08 15:51,-73.7622,40.6386,84.02,68.00,58.65,210.00,5.00,0.00,30.00,1015.70,10.00,M,FEW,BKN,M,M,2800.00,26000.00,M,M,M,M,M,M,M,M,M,87.20,KJFK 081551Z 21005KT 10SM FEW028 BKN260 29/20 A3000 RMK AO2 SLP157 T02890200
JFK,2012-08-08 16:51,-73.7622,40.6386,84.02,66.02,54.77,170.00,9.00,0.00,29.99,1015.60,10.00,M,FEW,SCT,BKN,BKN,3000.00,5000.00,20000.00,26000.00,M,M,M,M,M,M,M,86.23,KJFK 081651Z 17009KT 10SM FEW030 SCT050 BKN200 BKN260 29/19 A2999 RMK AO2 SLP156 T02890189
JFK,2012-08-08 17:51,-73.7622,40.6386,84.02,68.00,58.65,160.00,8.00,0.00,29.98,1015.20,10.00,M,FEW,SCT,BKN,BKN,3000.00,7000.00,20000.00,26000.00,M,M,M,M,M,M,M,87.20,KJFK 081751Z 16008KT 10SM FEW030 SCT070 BKN200 BKN260 29/20 A2998 RMK AO2 SLP152 T02890200 10300 20244 58007
JFK,2012-08-08 18:51,-73.7622,40.6386,84.02,66.92,56.51,160.00,8.00,0.00,29.97,1014.70,10.00,M,FEW,SCT,SCT,BKN,3000.00,6000.00,21000.00,26000.00,M,M,M,M,M,M,M,86.66,KJFK 081851Z 16008KT 10SM FEW030 SCT060 SCT210 BKN260 29/19 A2997 RMK AO2 SLP147 T02890194
JFK,2012-08-08 19:51,-73.7622,40.6386,82.94,66.92,58.51,190.00,8.00,0.00,29.95,1014.20,10.00,M,FEW,OVC,M,M,3500.00,26000.00,M,M,M,M,M,M,M,M,M,85.50,KJFK 081951Z 19008KT 10SM FEW035 OVC260 28/19 A2995 RMK AO2 SLP142 T02830194
JFK,2012-08-08 20:51,-73.7622,40.6386,82.04,71.06,69.43,180.00,9.00,0.00,29.95,1014.10,10.00,M,FEW,SCT,BKN,M,3500.00,21000.00,26000.00,M,M,M,M,M,M,M,M,86.39,KJFK 082051Z 18009KT 10SM FEW035 SCT210 BKN260 28/22 A2995 RMK AO2 SLP141 T02780217 56012
JFK,2012-08-08 21:51,-73.7622,40.6386,80.96,73.04,76.90,170.00,9.00,0.00,29.94,1014.00,10.00,M,FEW,SCT,BKN,M,3500.00,21000.00,26000.00,M,M,M,M,M,M,M,M,85.76,KJFK 082151Z 17009KT 10SM FEW035 SCT210 BKN260 27/23 A2994 RMK AO2 SLP140 T02720228
JFK,2012-08-08 22:51,-73.7622,40.6386,78.98,71.96,79.12,210.00,8.00,0.00,29.95,1014.10,10.00,M,FEW,SCT,BKN,M,1300.00,3500.00,26000.00,M,M,M,M,M,M,M,M,78.98,KJFK 082251Z 21008KT 10SM FEW013 SCT035 BKN260 26/22 A2995 RMK AO2 SLP141 T02610222
JFK,2012-08-08 23:51,-73.7622,40.6386,78.98,73.04,82.06,180.00,7.00,0.00,29.96,1014.60,10.00,M,FEW,SCT,BKN,M,1300.00,3500.00,25000.00,M,M,M,M,M,M,M,M,78.98,KJFK 082351Z 18007KT 10SM FEW013 SCT035 BKN250 26/23 A2996 RMK AO2 SLP146 T02610228 10294 20261 53005 $
JFK,2012-08-09 00:51,-73.7622,40.6386,77.00,73.04,87.60,180.00,6.00,0.00,29.97,1014.70,10.00,M,FEW,BKN,M,M,1200.00,26000.00,M,M,M,M,M,M,M,M,M,77.00,KJFK 090051Z 18006KT 10SM FEW012 BKN260 25/23 A2997 RMK AO2 SLP147 T02500228 $
JFK,2012-08-09 01:51,-73.7622,40.6386,77.00,73.94,90.29,160.00,4.00,0.00,29.97,1014.80,10.00,M,FEW,BKN,M,M,1200.00,26000.00,M,M,M,M,M,M,M,M,M,77.00,KJFK 090151Z 16004KT 10SM FEW012 BKN260 25/23 A2997 RMK AO2 SLP148 T02500233 $
JFK,2012-08-09 02:45,-73.7622,40.6386,77.00,73.40,88.67,190.00,7.00,0.00,29.97,M,10.00,M,BKN,BKN,M,M,1500.00,25000.00,M,M,M,M,M,M,M,M,M,77.00,KJFK 090245Z 19007KT 10SM BKN015 BKN250 25/23 A2997 RMK AO2 $
JFK,2012-08-09 02:51,-73.7622,40.6386,77.00,73.94,90.29,190.00,8.00,0.00,29.97,1014.80,10.00,M,BKN,BKN,M,M,1600.00,25000.00,M,M,M,M,M,M,M,M,M,77.00,KJFK 090251Z 19008KT 10SM BKN016 BKN250 25/23 A2997 RMK AO2 SLP148 T02500233 51003 $
JFK,2012-08-09 03:20,-73.7622,40.6386,77.00,73.40,88.67,190.00,7.00,0.00,29.97,M,10.00,M,SCT,BKN,M,M,1800.00,25000.00,M,M,M,M,M,M,M,M,M,77.00,KJFK 090320Z 19007KT 10SM SCT018 BKN250 25/23 A2997 RMK AO2 $
JFK,2012-08-09 03:51,-73.7622,40.6386,77.00,73.94,90.29,190.00,8.00,0.00,29.97,1014.80,10.00,M,FEW,SCT,M,M,1800.00,25000.00,M,M,M,M,M,M,M,M,M,77.00,KJFK 090351Z 19008KT 10SM FEW018 SCT250 25/23 A2997 RMK AO2 SLP148 T02500233 $
JFK,2012-08-09 04:51,-73.7622,40.6386,75.92,73.04,90.80,210.00,7.00,0.00,29.96,1014.50,10.00,M,FEW,BKN,M,M,1800.00,25000.00,M,M,M,M,M,M,M,M,M,75.92,KJFK 090451Z 21007KT 10SM FEW018 BKN250 24/23 A2996 RMK AO2 SLP145 T02440228 403000217 $
JFK,2012-08-09 05:51,-73.7622,40.6386,75.92,73.04,90.80,220.00,7.00,0.00,29.96,1014.40,10.00,M,FEW,BKN,M,M,1600.00,25000.00,M,M,M,M,M,M,M,M,M,75.92,KJFK 090551Z 22007KT 10SM FEW016 BKN250 24/23 A2996 RMK AO2 SLP144 T02440228 10256 20244 58005 $
JFK,2012-08-09 06:33,-73.7622,40.6386,75.20,73.40,94.14,220.00,7.00,0.00,29.95,M,10.00,M,FEW,SCT,M,M,900.00,25000.00,M,M,M,M,M,M,M,M,M,75.20,KJFK 090633Z 22007KT 10SM FEW009 SCT250 24/23 A2995 RMK AO2 $
JFK,2012-08-09 06:51,-73.7622,40.6386,75.02,73.04,93.57,220.00,7.00,0.00,29.95,1014.20,10.00,M,SCT,SCT,M,M,900.00,25000.00,M,M,M,M,M,M,M,M,M,75.02,KJFK 090651Z 22007KT 10SM SCT009 SCT250 24/23 A2995 RMK AO2 SLP142 T02390228 $
JFK,2012-08-09 07:51,-73.7622,40.6386,73.94,71.96,93.54,220.00,5.00,0.00,29.94,1013.80,10.00,M,FEW,SCT,M,M,800.00,25000.00,M,M,M,M,M,M,M,M,M,73.94,KJFK 090751Z 22005KT 10SM FEW008 SCT250 23/22 A2994 RMK AO2 SLP138 T02330222 $
JFK,2012-08-09 08:51,-73.7622,40.6386,73.04,71.06,93.52,220.00,4.00,0.00,29.94,1013.80,10.00,M,FEW,SCT,M,M,800.00,25000.00,M,M,M,M,M,M,M,M,M,73.04,KJFK 090851Z 22004KT 10SM FEW008 SCT250 23/22 A2994 RMK AO2 SLP138 T02280217 56006 $
JFK,2012-08-09 09:51,-73.7622,40.6386,73.94,71.96,93.54,220.00,4.00,0.00,29.95,1014.30,10.00,M,FEW,SCT,M,M,800.00,25000.00,M,M,M,M,M,M,M,M,M,73.94,KJFK 090951Z 22004KT 10SM FEW008 SCT250 23/22 A2995 RMK AO2 SLP143 T02330222 $
JFK,2012-08-09 10:51,-73.7622,40.6386,73.94,71.96,93.54,210.00,5.00,0.00,29.96,1014.50,10.00,M,FEW,SCT,M,M,900.00,25000.00,M,M,M,M,M,M,M,M,M,73.94,KJFK 091051Z 21005KT 10SM FEW009 SCT250 23/22 A2996 RMK AO2 SLP145 T02330222 $
JFK,2012-08-09 11:51,-73.7622,40.6386,75.92,73.04,90.80,240.00,4.00,0.00,29.97,1015.00,10.00,M,SCT,BKN,M,M,700.00,25000.00,M,M,M,M,M,M,M,M,M,75.92,KJFK 091151Z 24004KT 10SM SCT007 BKN250 24/23 A2997 RMK AO2 SLP150 SCT007 V BKN T02440228 10244 20228 52012 $
JFK,2012-08-09 12:51,-73.7622,40.6386,78.08,71.96,81.50,210.00,5.00,0.00,29.98,1015.10,10.00,M,FEW,SCT,M,M,900.00,25000.00,M,M,M,M,M,M,M,M,M,78.08,KJFK 091251Z 21005KT 10SM FEW009 SCT250 26/22 A2998 RMK AO2 SLP151 T02560222 $
JFK,2012-08-09 13:51,-73.7622,40.6386,80.06,71.96,76.36,190.00,7.00,0.00,29.97,1014.90,10.00,M,FEW,SCT,M,M,1500.00,25000.00,M,M,M,M,M,M,M,M,M,83.87,KJFK 091351Z 19007KT 10SM FEW015 SCT250 27/22 A2997 RMK AO2 PK WND 26039/1316 SLP149 T02670222
JFK,2012-08-09 14:51,-73.7622,40.6386,82.04,69.08,64.90,200.00,5.00,0.00,29.96,1014.60,10.00,M,FEW,SCT,M,M,2500.00,25000.00,M,M,M,M,M,M,M,M,M,85.43,KJFK 091451Z 20005KT 10SM FEW025TCU SCT250 28/21 A2996 RMK AO2 SLP146 TCU N T02780206 58004
JFK,2012-08-09 15:51,-73.7622,40.6386,84.02,69.08,60.87,170.00,8.00,0.00,29.96,1014.60,10.00,M,FEW,SCT,M,M,3500.00,25000.00,M,M,M,M,M,M,M,M,M,87.79,KJFK 091551Z 17008KT 10SM FEW035TCU SCT250 29/21 A2996 RMK AO2 SLP146 TCU NE T02890206
JFK,2012-08-09 16:51,-73.7622,40.6386,84.92,69.08,59.13,180.00,11.00,0.00,29.96,1014.40,10.00,M,FEW,M,M,M,4000.00,M,M,M,M,M,M,M,M,M,M,88.84,KJFK 091651Z 18011KT 10SM FEW040 29/21 A2996 RMK AO2 SLP144 T02940206
JFK,2012-08-09 17:51,-73.7622,40.6386,84.02,71.96,67.15,170.00,11.00,0.00,29.94,1014.00,10.00,M,FEW,M,M,M,4000.00,M,M,M,M,M,M,M,M,M,M,89.62,KJFK 091751Z 17011KT 10SM FEW040 29/22 A2994 RMK AO2 SLP140 T02890222 10294 20244 58006
JFK,2012-08-09 18:51,-73.7622,40.6386,84.02,73.04,69.64,160.00,15.00,0.00,29.93,1013.50,10.00,M,FEW,SCT,SCT,M,1700.00,4000.00,25000.00,M,M,M,M,M,M,M,M,90.40,KJFK 091851Z 16015KT 10SM FEW017 SCT040 SCT250 29/23 A2993 RMK AO2 SLP135 T02890228
JFK,2012-08-09 19:51,-73.7622,40.6386,84.02,71.96,67.15,180.00,15.00,0.00,29.91,1012.80,10.00,M,FEW,SCT,SCT,M,1700.00,3500.00,25000.00,M,M,M,M,M,M,M,M,89.62,KJFK 091951Z 18015KT 10SM FEW017 SCT035 SCT250 29/22 A2991 RMK AO2 SLP128 T02890222
JFK,2012-08-09 20:51,-73.7622,40.6386,82.04,71.96,71.59,170.00,15.00,0.00,29.91,1012.90,10.00,M,FEW,SCT,BKN,M,1700.00,3500.00,25000.00,M,M,M,M,M,M,M,M,86.87,KJFK 092051Z 17015KT 10SM FEW017 SCT035 BKN250 28/22 A2991 RMK AO2 SLP129 T02780222 55011
JFK,2012-08-09 21:51,-73.7622,40.6386,80.06,71.96,76.36,190.00,14.00,0.00,29.91,1012.90,10.00,M,FEW,SCT,BKN,M,1700.00,3500.00,25000.00,M,M,M,M,M,M,M,M,83.87,KJFK 092151Z 19014KT 10SM FEW017 SCT035 BKN250 27/22 A2991 RMK AO2 SLP129 CB DSNT SW-W T02670222
JFK,2012-08-09 22:51,-73.7622,40.6386,78.98,71.96,79.12,190.00,10.00,0.00,29.90,1012.50,10.00,M,FEW,SCT,BKN,M,1400.00,4600.00,25000.00,M,M,M,M,M,M,M,M,78.98,KJFK 092251Z 19010KT 10SM FEW014 SCT046 BKN250 26/22 A2990 RMK AO2 SLP125 VCSH SW T02610222
JFK,2012-08-09 23:51,-73.7622,40.6386,78.98,73.04,82.06,170.00,10.00,0.00,29.89,1012.20,10.00,M,FEW,SCT,SCT,BKN,1400.00,4600.00,14000.00,25000.00,M,M,M,M,M,M,M,78.98,KJFK 092351Z 17010KT 10SM FEW014 SCT046 SCT140 BKN250 26/23 A2989 RMK AO2 SLP122 T02610228 10300 20261 58007
JFK,2012-08-10 00:51,-73.7622,40.6386,78.08,73.94,87.12,190.00,7.00,0.00,29.91,1012.70,10.00,M,FEW,SCT,BKN,M,1200.00,14000.00,25000.00,M,M,M,M,M,M,M,M,78.08,KJFK 100051Z 19007KT 10SM FEW012 SCT140 BKN250 26/23 A2991 RMK AO2 SLP127 T02560233
JFK,2012-08-10 01:51,-73.7622,40.6386,78.08,73.94,87.12,190.00,10.00,0.00,29.92,1013.30,10.00,M,FEW,BKN,M,M,1200.00,25000.00,M,M,M,M,M,M,M,M,M,78.08,KJFK 100151Z 19010KT 10SM FEW012 BKN250 26/23 A2992 RMK AO2 SLP133 T02560233
JFK,2012-08-10 02:51,-73.7622,40.6386,77.00,75.02,93.62,190.00,8.00,0.00,29.92,1013.10,10.00,M,FEW,SCT,SCT,M,1200.00,5500.00,25000.00,M,M,M,M,M,M,M,M,77.00,KJFK 100251Z 19008KT 10SM FEW012 SCT055 SCT250 25/24 A2992 RMK AO2 SLP131 T02500239 50009
JFK,2012-08-10 03:51,-73.7622,40.6386,77.00,75.02,93.62,190.00,6.00,0.00,29.91,1013.00,9.00,M,FEW,SCT,SCT,M,1000.00,6000.00,25000.00,M,M,M,M,M,M,M,M,77.00,KJFK 100351Z 19006KT 9SM FEW010 SCT060 SCT250 25/24 A2991 RMK AO2 SLP130 T02500239
JFK,2012-08-10 04:51,-73.7622,40.6386,77.00,75.02,93.62,190.00,6.00,0.00,29.90,1012.60,8.00,M,FEW,BKN,BKN,M,800.00,9000.00,25000.00,M,M,M,M,M,M,M,M,77.00,KJFK 100451Z 19006KT 8SM FEW008 BKN090 BKN250 25/24 A2990 RMK AO2 SLP126 T02500239 403000228
JFK,2012-08-10 05:30,-73.7622,40.6386,78.80,75.20,88.75,180.00,11.00,0.00,29.90,M,8.00,M,BKN,BKN,OVC,M,800.00,8000.00,25000.00,M,M,M,M,M,M,M,M,78.80,KJFK 100530Z 18011KT 8SM BKN008 BKN080 OVC250 26/24 A2990 RMK AO2
JFK,2012-08-10 05:51,-73.7622,40.6386,78.08,75.02,90.33,190.00,9.00,0.00,29.89,1012.20,8.00,M,SCT,SCT,BKN,M,800.00,8000.00,25000.00,M,M,M,M,M,M,M,M,78.08,KJFK 100551Z 19009KT 8SM SCT008 SCT080 BKN250 26/24 A2989 RMK AO2 SLP122 SCT008 V BKN T02560239 10261 20250 58009
JFK,2012-08-10 06:51,-73.7622,40.6386,77.00,75.02,93.62,190.00,9.00,0.00,29.88,1011.80,8.00,M,SCT,OVC,M,M,800.00,22000.00,M,M,M,M,M,M,M,M,M,77.00,KJFK 100651Z 19009KT 8SM SCT008 OVC220 25/24 A2988 RMK AO2 SLP118 T02500239
JFK,2012-08-10 07:33,-73.7622,40.6386,78.80,75.20,88.75,180.00,9.00,0.00,29.88,M,10.00,M,BKN,BKN,OVC,M,800.00,5500.00,22000.00,M,M,M,M,M,M,M,M,78.80,KJFK 100733Z 18009KT 10SM BKN008 BKN055 OVC220 26/24 A2988 RMK AO2
JFK,2012-08-10 07:51,-73.7622,40.6386,78.08,75.02,90.33,180.00,12.00,0.00,29.87,1011.40,10.00,M,BKN,OVC,M,M,800.00,5500.00,M,M,M,M,M,M,M,M,M,78.08,KJFK 100751Z 18012KT 10SM BKN008 OVC055 26/24 A2987 RMK AO2 SLP114 T02560239
JFK,2012-08-10 08:08,-73.7622,40.6386,78.80,73.40,83.55,180.00,11.00,0.00,29.86,M,10.00,M,SCT,OVC,M,M,800.00,25000.00,M,M,M,M,M,M,M,M,M,78.80,KJFK 100808Z 18011KT 10SM SCT008 OVC250 26/23 A2986 RMK AO2
JFK,2012-08-10 08:51,-73.7622,40.6386,77.00,73.94,90.29,180.00,10.00,0.00,29.86,1011.20,9.00,M,SCT,OVC,M,M,800.00,25000.00,M,M,M,M,M,M,M,M,M,77.00,KJFK 100851Z 18010KT 9SM SCT008 OVC250 25/23 A2986 RMK AO2 SLP112 T02500233 56010
JFK,2012-08-10 09:51,-73.7622,40.6386,78.08,73.94,87.12,190.00,12.00,0.00,29.87,1011.40,10.00,M,SCT,BKN,BKN,OVC,1500.00,4100.00,14000.00,22000.00,M,M,M,M,M,M,M,78.08,KJFK 100951Z 19012KT 10SM SCT015 BKN041 BKN140 OVC220 26/23 A2987 RMK AO2 SLP114 T02560233
JFK,2012-08-10 10:22,-73.7622,40.6386,78.80,75.20,88.75,180.00,13.00,0.00,29.87,M,7.00,M,FEW,BKN,BKN,BKN,1100.00,2000.00,4200.00,14000.00,M,M,M,M,M,M,M,78.80,KJFK 101022Z 18013KT 7SM FEW011 BKN020 BKN042 BKN140 OVC220 26/24 A2987 RMK AO2
JFK,2012-08-10 10:51,-73.7622,40.6386,78.08,75.02,90.33,190.00,12.00,0.00,29.87,1011.30,6.00,M,FEW,SCT,BKN,BKN,1000.00,2000.00,4200.00,14000.00,HZ,M,M,M,M,M,M,78.08,KJFK 101051Z 19012KT 6SM HZ FEW010 SCT020 BKN042 BKN140 BKN220 26/24 A2987 RMK AO2 SLP113 T02560239
JFK,2012-08-10 11:51,-73.7622,40.6386,78.98,75.02,87.70,180.00,12.00,0.00,29.86,1011.10,6.00,M,FEW,SCT,SCT,BKN,1000.00,2000.00,4900.00,14000.00,BR,M,M,M,M,M,M,78.98,KJFK 101151Z 18012KT 6SM BR FEW010 SCT020 SCT049TCU BKN140 BKN230 26/24 A2986 RMK AO2 SLP111 TCU N AND E-SE ACC DSNT S T02610239 10261 20250 58001
JFK,2012-08-10 12:26,-73.7622,40.6386,80.60,73.40,78.76,190.00,11.00,0.00,29.86,M,8.00,M,BKN,BKN,BKN,OVC,1400.00,4900.00,14000.00,23000.00,M,M,M,M,M,M,M,85.32,KJFK 101226Z 19011KT 8SM BKN014 BKN049 BKN140 OVC230 27/23 A2986 RMK AO2 BKN014 V FEW TCU DSNT SE
JFK,2012-08-10 12:51,-73.7622,40.6386,80.96,73.94,79.27,180.00,11.00,0.00,29.86,1011.20,10.00,M,FEW,SCT,BKN,BKN,1200.00,1600.00,4900.00,14000.00,M,M,M,M,M,M,M,86.20,KJFK 101251Z 18011KT 10SM FEW012 SCT016 BKN049 BKN140 OVC230 27/23 A2986 RMK AO2 SLP112 SCT V BKN TCU DSNT SE T02720233
JFK,2012-08-10 13:51,-73.7622,40.6386,80.96,73.94,79.27,170.00,13.00,0.00,29.86,1011.00,10.00,M,SCT,SCT,SCT,BKN,1300.00,5500.00,14000.00,20000.00,M,M,M,M,M,M,M,86.20,KJFK 101351Z 17013KT 10SM SCT013 SCT055 SCT140 BKN200 OVC270 27/23 A2986 RMK AO2 SLP110 T02720233
JFK,2012-08-10 14:51,-73.7622,40.6386,80.96,73.94,79.27,160.00,13.00,0.00,29.84,1010.50,10.00,M,SCT,SCT,BKN,OVC,1400.00,14000.00,18000.00,27000.00,M,M,M,M,M,M,M,86.20,KJFK 101451Z 16013KT 10SM SCT014TCU SCT140 BKN180 OVC270 27/23 A2984 RMK AO2 SLP105 TCU E T02720233 58006
JFK,2012-08-10 15:51,-73.7622,40.6386,78.98,75.02,87.70,140.00,9.00,0.00,29.83,1010.10,7.00,M,BKN,BKN,OVC,M,1600.00,4500.00,10000.00,M,-RA,M,M,M,M,M,M,78.98,KJFK 101551Z 14009KT 7SM -RA BKN016TCU BKN045 OVC100 26/24 A2983 RMK AO2 RAB40 SLP101 VIS LWR SW TCU S-OHD-W P0000 T02610239
JFK,2012-08-10 16:16,-73.7622,40.6386,78.80,75.20,88.75,120.00,9.00,0.07,29.82,M,2.50,M,SCT,BKN,OVC,M,1600.00,7500.00,11000.00,M,+TSRA BR,M,M,M,M,M,M,78.80,KJFK 101616Z 12009KT 2 1/2SM R04R/4000VP6000FT +TSRA BR SCT016CB BKN075 OVC110 26/24 A2982 RMK AO2 TSB15 OCNL LTGIC OVD TS OHD MOV NE P0007
JFK,2012-08-10 16:33,-73.7622,40.6386,71.60,69.80,94.06,180.00,8.00,0.38,29.83,M,0.50,M,SCT,BKN,OVC,M,1600.00,7500.00,11000.00,M,+TSRA FG,M,M,M,M,M,M,71.60,KJFK 101633Z 18008KT 1/2SM R04R/1600VP6000FT +TSRA FG SCT016CB BKN075 OVC110 22/21 A2983 RMK AO2 TSB15 OCNL LTGCC OVD-S TS OHD-S MOV NE P0038
JFK,2012-08-10 16:36,-73.7622,40.6386,71.60,69.80,94.06,210.00,5.00,0.54,29.83,M,0.25,M,FEW,BKN,OVC,M,800.00,1600.00,7500.00,M,+TSRA FG,M,M,M,M,M,M,71.60,KJFK 101636Z 21005KT 1/4SM R04R/1600V2800FT +TSRA FG FEW008 BKN016CB OVC075 22/21 A2983 RMK AO2 TWR VIS 1/2 TSB15 OCNL LTGCC OVD-S TS OHD-S MOV NE P0054
JFK,2012-08-10 16:48,-73.7622,40.6386,71.60,69.80,94.06,250.00,11.00,1.05,29.84,M,0.12,M,SCT,BKN,OVC,M,400.00,1100.00,2200.00,M,+TSRA FG,M,M,M,M,M,M,71.60,KJFK 101648Z 25011KT 1/8SM R04R/1600V4000FT +TSRA FG SCT004 BKN011CB OVC022 22/21 A2984 RMK AO2 TSB15 FRQ LTGCGCC ALQDS TS ALQDS MOV N P0105
JFK,2012-08-10 16:51,-73.7622,40.6386,71.06,69.08,93.47,260.00,9.00,1.26,29.85,1010.60,0.12,M,SCT,BKN,OVC,M,400.00,1100.00,2200.00,M,+TSRA FG,M,M,M,M,M,M,71.06,KJFK 101651Z 26009KT 1/8SM R04R/1600V3000FT +TSRA FG SCT004 BKN011CB OVC022 22/21 A2985 RMK AO2 TSB15 SLP106 FRQ LTGCGCC ALQDS TS ALQDS MOV N P0126 T02170206
JFK,2012-08-10 17:08,-73.7622,40.6386,71.60,69.80,94.06,0.00,0.00,0.70,29.81,M,3.00,M,FEW,SCT,OVC,M,400.00,1100.00,2200.00,M,+TSRA BR,M,M,M,M,M,M,71.60,KJFK 101708Z 00000KT 3SM R04R/3000VP6000FT +TSRA BR FEW004 SCT011CB OVC022 22/21 A2981 RMK AO2 OCNL LTGCG VC NE TS VC NE MOV NE P0070
JFK,2012-08-10 17:25,-73.7622,40.6386,71.60,69.80,94.06,140.00,4.00,0.75,29.81,M,4.00,M,FEW,SCT,OVC,M,400.00,1100.00,2200.00,M,RA BR,M,M,M,M,M,M,71.60,KJFK 101725Z 14004KT 4SM RA BR FEW004 SCT011CB OVC022 22/21 A2981 RMK AO2 TSE24 OCNL LTGIC DSNT NE CB DSNT NE P0075
JFK,2012-08-10 17:51,-73.7622,40.6386,71.96,69.98,93.49,110.00,4.00,0.84,29.80,1009.10,6.00,M,SCT,SCT,BKN,BKN,1100.00,4000.00,8500.00,14000.00,RA BR,M,M,M,M,M,M,71.96,KJFK 101751Z 11004KT 6SM RA BR SCT011 SCT040 BKN085 BKN140 BKN200 22/21 A2980 RMK AO2 TSE24 SLP091 VIS LWR NE-SE P0084 60210 T02220211 10278 20211 58014
JFK,2012-08-10 18:18,-73.7622,40.6386,73.40,71.60,94.10,140.00,3.00,0.02,29.80,M,10.00,M,FEW,BKN,BKN,BKN,700.00,3500.00,9500.00,15000.00,M,M,M,M,M,M,M,73.40,KJFK 101818Z 14003KT 10SM FEW007 BKN035 BKN095 BKN150 BKN200 23/22 A2980 RMK AO2 RAE12 P0002
JFK,2012-08-10 18:51,-73.7622,40.6386,78.08,71.06,79.05,180.00,7.00,0.02,29.79,1008.70,10.00,M,FEW,SCT,BKN,BKN,700.00,2000.00,3000.00,15000.00,M,M,M,M,M,M,M,78.08,KJFK 101851Z 18007KT 150V210 10SM FEW007 SCT020 BKN030 BKN150 BKN200 26/22 A2979 RMK AO2 RAE12 SLP087 P0002 T02560217
JFK,2012-08-10 19:51,-73.7622,40.6386,78.08,69.08,73.88,190.00,5.00,0.00,29.77,1008.00,10.00,M,FEW,SCT,BKN,BKN,900.00,2000.00,10000.00,25000.00,M,M,M,M,M,M,M,78.08,KJFK 101951Z 19005KT 10SM FEW009 SCT020 BKN100 BKN250 26/21 A2977 RMK AO2 SLP080 CB DSNT SW T02560206
JFK,2012-08-10 20:51,-73.7622,40.6386,78.08,69.98,76.19,210.00,7.00,0.00,29.78,1008.40,10.00,M,FEW,SCT,BKN,BKN,900.00,1700.00,10000.00,16000.00,M,M,M,M,M,M,M,78.08,KJFK 102051Z 21007KT 10SM FEW009 SCT017CB BKN100 BKN160 BKN200 26/21 A2978 RMK AO2 SLP084 CB S MOV NE 60002 T02560211 55007
JFK,2012-08-10 21:51,-73.7622,40.6386,78.08,71.06,79.05,190.00,7.00,0.00,29.78,1008.30,10.00,M,FEW,SCT,SCT,BKN,1000.00,2300.00,7500.00,15000.00,M,M,M,M,M,M,M,78.08,KJFK 102151Z 19007KT 10SM FEW010 SCT023CB SCT075 BKN150 BKN250 26/22 A2978 RMK AO2 SLP083 CB SE-SW MOV NE T02560217
JFK,2012-08-10 22:51,-73.7622,40.6386,77.00,71.96,84.46,200.00,9.00,0.00,29.78,1008.30,10.00,M,FEW,SCT,BKN,BKN,1100.00,2500.00,8000.00,15000.00,M,M,M,M,M,M,M,77.00,KJFK 102251Z 20009KT 10SM FEW011 SCT025 BKN080 BKN150 BKN250 25/22 A2978 RMK AO2 SLP083 T02500222
JFK,2012-08-10 23:51,-73.7622,40.6386,78.08,73.94,87.12,200.00,10.00,0.00,29.79,1008.70,10.00,M,FEW,SCT,SCT,BKN,1000.00,2500.00,7000.00,15000.00,M,M,M,M,M,M,M,78.08,KJFK 102351Z 20010KT 10SM FEW010 SCT025 SCT070 BKN150 BKN250 26/23 A2979 RMK AO2 SLP087 60002 T02560233 10261 20222 53004
JFK,2012-08-11 00:51,-73.7622,40.6386,78.08,73.04,84.53,200.00,12.00,0.00,29.80,1009.10,10.00,M,SCT,BKN,BKN,BKN,3200.00,4800.00,15000.00,25000.00,M,M,M,M,M,M,M,78.08,KJFK 110051Z 20012KT 10SM SCT032 BKN048 BKN150 BKN250 26/23 A2980 RMK AO2 SLP091 T02560228
JFK,2012-08-11 01:51,-73.7622,40.6386,77.00,73.04,87.60,200.00,8.00,0.00,29.81,1009.40,10.00,M,FEW,SCT,SCT,M,4600.00,7500.00,25000.00,M,M,M,M,M,M,M,M,77.00,KJFK 110151Z 20008KT 10SM FEW046 SCT075 SCT250 25/23 A2981 RMK AO2 SLP094 T02500228
JFK,2012-08-11 02:51,-73.7622,40.6386,75.92,73.94,93.59,220.00,7.00,0.00,29.81,1009.50,10.00,M,SCT,BKN,BKN,M,4400.00,14000.00,26000.00,M,M,M,M,M,M,M,M,75.92,KJFK 110251Z 22007KT 10SM SCT044 BKN140 BKN260 24/23 A2981 RMK AO2 SLP095 T02440233 51007
JFK,2012-08-11 03:51,-73.7622,40.6386,75.92,73.04,90.80,220.00,7.00,0.00,29.81,1009.40,10.00,M,SCT,BKN,M,M,4200.00,26000.00,M,M,M,M,M,M,M,M,M,75.92,KJFK 110351Z 22007KT 10SM SCT042 BKN260 24/23 A2981 RMK AO2 SLP094 T02440228
JFK,2012-08-11 04:51,-73.7622,40.6386,77.00,73.04,87.60,240.00,8.00,0.00,29.82,1009.60,10.00,M,FEW,SCT,BKN,M,4500.00,7000.00,27000.00,M,M,M,M,M,M,M,M,77.00,KJFK 110451Z 24008KT 10SM FEW045 SCT070 BKN270 25/23 A2982 RMK AO2 SLP096 T02500228 402780211
JFK,2012-08-11 05:51,-73.7622,40.6386,77.00,73.04,87.60,220.00,8.00,0.00,29.82,1009.80,10.00,M,FEW,BKN,BKN,BKN,3000.00,3700.00,7000.00,27000.00,M,M,M,M,M,M,M,77.00,KJFK 110551Z 22008KT 10SM FEW030 BKN037 BKN070 BKN270 25/23 A2982 RMK AO2 SLP098 T02500228 10256 20244 53003
JFK,2012-08-11 06:51,-73.7622,40.6386,75.92,73.04,90.80,220.00,5.00,0.00,29.82,1009.60,10.00,M,FEW,BKN,M,M,6500.00,27000.00,M,M,M,M,M,M,M,M,M,75.92,KJFK 110651Z 22005KT 10SM FEW065 BKN270 24/23 A2982 RMK AO2 SLP096 T02440228
JFK,2012-08-11 07:51,-73.7622,40.6386,75.92,73.04,90.80,210.00,6.00,0.00,29.82,1009.70,10.00,M,FEW,BKN,M,M,6500.00,27000.00,M,M,M,M,M,M,M,M,M,75.92,KJFK 110751Z 21006KT 10SM FEW065 BKN270 24/23 A2982 RMK AO2 SLP097 T02440228
JFK,2012-08-11 08:51,-73.7622,40.6386,75.02,73.04,93.57,200.00,6.00,0.00,29.81,1009.40,10.00,M,BKN,M,M,M,26000.00,M,M,M,M,M,M,M,M,M,M,75.02,KJFK 110851Z 20006KT 10SM BKN260 24/23 A2981 RMK AO2 SLP094 T02390228 58003
JFK,2012-08-11 09:51,-73.7622,40.6386,75.02,71.96,90.22,200.00,4.00,0.00,29.83,1010.20,9.00,M,FEW,BKN,M,M,4600.00,26000.00,M,M,M,M,M,M,M,M,M,75.02,KJFK 110951Z 20004KT 9SM FEW046 BKN260 24/22 A2983 RMK AO2 SLP102 T02390222
JFK,2012-08-11 10:51,-73.7622,40.6386,75.92,73.04,90.80,190.00,3.00,0.00,29.84,1010.60,7.00,M,FEW,BKN,M,M,1500.00,25000.00,M,M,M,M,M,M,M,M,M,75.92,KJFK 111051Z 19003KT 7SM FEW015 BKN250 24/23 A2984 RMK AO2 SLP106 T02440228
JFK,2012-08-11 11:51,-73.7622,40.6386,77.00,73.04,87.60,190.00,4.00,0.00,29.85,1010.80,8.00,M,FEW,SCT,BKN,M,1500.00,18000.00,25000.00,M,M,M,M,M,M,M,M,77.00,KJFK 111151Z 19004KT 8SM FEW015 SCT180 BKN250 25/23 A2985 RMK AO2 SLP108 70212 T02500228 10250 20239 51014
JFK,2012-08-11 12:51,-73.7622,40.6386,78.98,73.94,84.58,190.00,7.00,0.00,29.86,1011.00,9.00,M,SCT,BKN,BKN,M,900.00,18000.00,25000.00,M,M,M,M,M,M,M,M,78.98,KJFK 111251Z 19007KT 9SM SCT009 BKN180 BKN250 26/23 A2986 RMK AO2 SLP110 T02610233
JFK,2012-08-11 13:06,-73.7622,40.6386,78.80,73.40,83.55,190.00,8.00,0.00,29.86,M,10.00,M,BKN,BKN,BKN,BKN,900.00,2000.00,18000.00,25000.00,M,M,M,M,M,M,M,78.80,KJFK 111306Z 19008KT 10SM BKN009 BKN020 BKN180 BKN250 26/23 A2986 RMK AO2
JFK,2012-08-11 13:51,-73.7622,40.6386,78.98,73.94,84.58,210.00,9.00,0.00,29.87,1011.50,10.00,M,SCT,BKN,BKN,BKN,900.00,2700.00,15000.00,23000.00,M,M,M,M,M,M,M,78.98,KJFK 111351Z 21009KT 10SM SCT009 BKN027 BKN150 BKN230 26/23 A2987 RMK AO2 SLP115 T02610233
JFK,2012-08-11 14:35,-73.7622,40.6386,78.80,73.40,83.55,190.00,6.00,0.00,29.88,M,10.00,M,FEW,SCT,BKN,BKN,1000.00,2700.00,18000.00,25000.00,M,M,M,M,M,M,M,78.80,KJFK 111435Z 19006KT 10SM FEW010 SCT027 BKN180 BKN250 26/23 A2988 RMK AO2
JFK,2012-08-11 14:51,-73.7622,40.6386,80.96,73.94,79.27,190.00,7.00,0.00,29.87,1011.40,10.00,M,FEW,SCT,BKN,BKN,1200.00,3000.00,18000.00,25000.00,M,M,M,M,M,M,M,86.20,KJFK 111451Z 19007KT 10SM FEW012 SCT030 BKN180 BKN250 27/23 A2987 RMK AO2 SLP114 T02720233 50006
JFK,2012-08-11 15:51,-73.7622,40.6386,82.04,73.94,76.53,190.00,8.00,0.00,29.87,1011.40,10.00,M,FEW,SCT,SCT,BKN,1300.00,2500.00,15000.00,22000.00,M,M,M,M,M,M,M,88.02,KJFK 111551Z 19008KT 10SM FEW013 SCT025 SCT150 BKN220 28/23 A2987 RMK AO2 SLP114 T02780233
JFK,2012-08-11 16:51,-73.7622,40.6386,84.92,73.94,69.73,180.00,12.00,0.00,29.87,1011.40,10.00,M,FEW,SCT,SCT,BKN,1500.00,2500.00,7500.00,15000.00,M,M,M,M,M,M,M,92.42,KJFK 111651Z 18012KT 10SM FEW015 SCT025CB SCT075 BKN150 BKN250 29/23 A2987 RMK AO2 SLP114 CB S MOV NE T02940233
JFK,2012-08-11 17:25,-73.7622,40.6386,84.20,73.40,70.08,300.00,21.00,0.00,29.87,M,10.00,25.00,CLR,M,M,M,M,M,M,M,M,M,M,M,41.00,320.00,2012-08-11 17:12,90.94,KJFK 111725Z 30021G25KT 10SM R04R/2200VP6000FT CLR 29/23 A2987 RMK AO2 PK WND 32041/1712 WSHFT 1711
JFK,2012-08-11 17:51,-73.7622,40.6386,84.02,73.94,71.78,180.00,12.00,0.00,29.86,1011.10,10.00,M,FEW,SCT,BKN,BKN,3000.00,5000.00,15000.00,25000.00,M,M,M,M,M,M,M,91.10,KJFK 111751Z 18012KT 10SM FEW030 SCT050 BKN150 BKN250 29/23 A2986 RMK AO2 SLP111 T02890233 10294 20250 58003 $
JFK,2012-08-11 18:51,-73.7622,40.6386,80.96,73.94,79.27,190.00,16.00,0.00,29.87,1011.30,10.00,M,FEW,SCT,BKN,BKN,2500.00,4700.00,19000.00,25000.00,M,M,M,M,M,M,M,86.20,KJFK 111851Z 19016KT 10SM FEW025 SCT047 BKN190 BKN250 27/23 A2987 RMK AO2 SLP113 T02720233 $
JFK,2012-08-11 19:51,-73.7622,40.6386,82.04,75.02,79.35,190.00,16.00,0.00,29.86,1011.10,10.00,M,FEW,SCT,BKN,BKN,3200.00,4200.00,17000.00,25000.00,M,M,M,M,M,M,M,88.72,KJFK 111951Z 19016KT 10SM FEW032 SCT042 BKN170 BKN250 28/24 A2986 RMK AO2 RAB06E33 SLP111 P0000 T02780239 $
JFK,2012-08-11 20:51,-73.7622,40.6386,80.96,75.02,82.19,200.00,17.00,0.00,29.87,1011.30,9.00,M,FEW,SCT,BKN,BKN,2500.00,3500.00,15000.00,19000.00,M,M,M,M,M,M,M,86.76,KJFK 112051Z 20017KT 9SM FEW025 SCT035 BKN150 BKN190 27/24 A2987 RMK AO2 SLP113 60000 T02720239 52002 $
JFK,2012-08-11 21:51,-73.7622,40.6386,80.06,73.94,81.63,190.00,16.00,0.00,29.87,1011.50,9.00,25.00,FEW,SCT,SCT,BKN,2500.00,3500.00,14000.00,20000.00,M,M,M,M,26.00,190.00,2012-08-11 21:40,84.59,KJFK 112151Z 19016G25KT 9SM FEW025 SCT035 SCT140 BKN200 27/23 A2987 RMK AO2 PK WND 19026/2140 SLP115 T02670233 $
JFK,2012-08-11 22:51,-73.7622,40.6386,78.98,71.96,79.12,200.00,13.00,0.00,29.88,1011.80,10.00,M,FEW,BKN,BKN,M,3500.00,15000.00,24000.00,M,M,M,M,M,M,M,M,78.98,KJFK 112251Z 20013KT 10SM FEW035 BKN150 BKN240 26/22 A2988 RMK AO2 SLP118 T02610222 $
JFK,2012-08-11 23:51,-73.7622,40.6386,77.00,69.98,78.96,200.00,12.00,0.00,29.90,1012.50,10.00,M,FEW,SCT,BKN,BKN,2000.00,3500.00,11000.00,17000.00,M,M,M,M,M,M,M,77.00,KJFK 112351Z 20012KT 10SM FEW020 SCT035 BKN110 BKN170 25/21 A2990 RMK AO2 SLP125 60000 T02500211 10294 20250 53012 $
JFK,2012-08-12 00:51,-73.7622,40.6386,75.92,71.96,87.55,210.00,11.00,0.00,29.91,1012.70,10.00,M,FEW,BKN,BKN,M,3500.00,13000.00,22000.00,M,M,M,M,M,M,M,M,75.92,KJFK 120051Z 21011KT 10SM FEW035 BKN130 BKN220 24/22 A2991 RMK AO2 SLP127 T02440222 $
JFK,2012-08-12 01:51,-73.7622,40.6386,75.92,71.06,84.92,200.00,13.00,0.00,29.93,1013.30,10.00,M,SCT,BKN,M,M,17000.00,23000.00,M,M,M,M,M,M,M,M,M,75.92,KJFK 120151Z 20013KT 10SM SCT170 BKN230 24/22 A2993 RMK AO2 SLP133 T02440217 $
JFK,2012-08-12 02:51,-73.7622,40.6386,75.92,71.06,84.92,200.00,12.00,0.00,29.92,1013.20,10.00,M,FEW,BKN,BKN,M,2100.00,11000.00,21000.00,M,M,M,M,M,M,M,M,75.92,KJFK 120251Z 20012KT 10SM FEW021 BKN110 BKN210 24/22 A2992 RMK AO2 RAB07E17 SLP132 P0000 60000 T02440217 50008 $
JFK,2012-08-12 03:51,-73.7622,40.6386,75.02,71.06,87.50,200.00,10.00,0.00,29.91,1012.90,10.00,M,FEW,SCT,BKN,OVC,2000.00,11000.00,18000.00,24000.00,M,M,M,M,M,M,M,75.02,KJFK 120351Z 20010KT 10SM FEW020 SCT110 BKN180 OVC240 24/22 A2991 RMK AO2 SLP129 T02390217 $
JFK,2012-08-12 04:51,-73.7622,40.6386,75.02,71.06,87.50,210.00,11.00,0.00,29.92,1013.10,10.00,M,FEW,SCT,BKN,BKN,2500.00,4800.00,18000.00,26000.00,M,M,M,M,M,M,M,75.02,KJFK 120451Z 21011KT 10SM FEW025 SCT048 BKN180 BKN260 24/22 A2992 RMK AO2 SLP131 T02390217 402940239 $
JFK,2012-08-12 05:51,-73.7622,40.6386,75.02,71.06,87.50,220.00,9.00,0.00,29.91,1012.70,10.00,M,FEW,BKN,BKN,OVC,1200.00,2300.00,5500.00,24000.00,M,M,M,M,M,M,M,75.02,KJFK 120551Z 22009KT 10SM FEW012 BKN023 BKN055 OVC240 24/22 A2991 RMK AO2 SLP127 60000 T02390217 10250 20233 58005 $
JFK,2012-08-12 06:51,-73.7622,40.6386,73.94,69.98,87.45,230.00,5.00,0.00,29.89,1012.10,10.00,M,SCT,SCT,OVC,M,2300.00,5500.00,15000.00,M,M,M,M,M,M,M,M,73.94,KJFK 120651Z 23005KT 10SM SCT023 SCT055 OVC150 23/21 A2989 RMK AO2 SLP121 T02330211 $
JFK,2012-08-12 07:51,-73.7622,40.6386,75.02,71.06,87.50,220.00,6.00,0.00,29.90,1012.40,10.00,M,BKN,BKN,OVC,M,1900.00,5500.00,15000.00,M,M,M,M,M,M,M,M,75.02,KJFK 120751Z 22006KT 10SM BKN019 BKN055 OVC150 24/22 A2990 RMK AO2 SLP124 BKN019 V SCT T02390217 $
JFK,2012-08-12 08:51,-73.7622,40.6386,75.02,69.98,84.34,250.00,7.00,0.00,29.91,1012.60,10.00,M,SCT,BKN,OVC,M,1400.00,2100.00,5000.00,M,M,M,M,M,M,M,M,75.02,KJFK 120851Z 25007KT 10SM SCT014 BKN021 OVC050 24/21 A2991 RMK AO2 SLP126 T02390211 55000 $
JFK,2012-08-12 09:51,-73.7622,40.6386,75.92,69.08,79.37,290.00,8.00,0.00,29.91,1012.80,9.00,M,BKN,BKN,OVC,M,1500.00,2700.00,3700.00,M,M,M,M,M,M,M,M,75.92,KJFK 120951Z 29008KT 9SM BKN015 BKN027 OVC037 24/21 A2991 RMK AO2 SLP128 T02440206 $
JFK,2012-08-12 10:16,-73.7622,40.6386,75.20,69.80,83.32,280.00,6.00,0.00,29.92,M,10.00,M,SCT,BKN,M,M,3300.00,22000.00,M,M,M,M,M,M,M,M,M,75.20,KJFK 121016Z 28006KT 10SM SCT033 BKN220 24/21 A2992 RMK AO2 $
JFK,2012-08-12 10:51,-73.7622,40.6386,75.02,69.98,84.34,270.00,3.00,0.00,29.92,1013.30,10.00,M,FEW,SCT,SCT,BKN,2000.00,3300.00,15000.00,23000.00,M,M,M,M,M,M,M,75.02,KJFK 121051Z 27003KT 10SM FEW020 SCT033 SCT150 BKN230 24/21 A2992 RMK AO2 SLP133 T02390211 $
JFK,2012-08-12 11:51,-73.7622,40.6386,78.98,66.92,66.58,320.00,4.00,0.00,29.94,1013.70,10.00,M,FEW,SCT,BKN,M,3500.00,15000.00,22000.00,M,M,M,M,M,29.00,80.00,2012-08-12 11:40,78.98,KJFK 121151Z 32004KT 10SM FEW035 SCT150 BKN220 26/19 A2994 RMK AO2 PK WND 08029/1140 SLP137 T02610194 10261 20233 53011 $
JFK,2012-08-12 12:51,-73.7622,40.6386,80.06,60.08,50.55,320.00,4.00,0.00,29.94,1013.90,10.00,M,FEW,SCT,BKN,M,3500.00,15000.00,25000.00,M,M,M,M,M,M,M,M,80.91,KJFK 121251Z 32004KT 10SM FEW035 SCT150 BKN250 27/16 A2994 RMK AO2 SLP139 T02670156 $
JFK,2012-08-12 13:51,-73.7622,40.6386,82.04,57.92,43.87,330.00,5.00,0.00,29.93,1013.60,10.00,M,FEW,SCT,M,M,15000.00,25000.00,M,M,M,M,M,M,M,M,M,81.96,KJFK 121351Z 33005KT 10SM FEW150 SCT250 28/14 A2993 RMK AO2 SLP136 T02780144 $
JFK,2012-08-12 14:51,-73.7622,40.6386,82.04,62.96,52.47,230.00,7.00,0.00,29.92,1013.30,10.00,M,FEW,SCT,SCT,M,4000.00,15000.00,25000.00,M,M,M,M,M,M,M,M,83.19,KJFK 121451Z 23007KT 10SM FEW040 SCT150 SCT250 28/17 A2992 RMK AO2 SLP133 T02780172 58004 $
JFK,2012-08-12 15:51,-73.7622,40.6386,82.94,60.98,47.52,240.00,9.00,0.00,29.92,1013.20,10.00,M,FEW,SCT,SCT,M,4000.00,15000.00,25000.00,M,M,M,M,M,M,M,M,83.40,KJFK 121551Z 24009KT 10SM FEW040 SCT150 SCT250 28/16 A2992 RMK AO2 SLP132 T02830161 $
JFK,2012-08-12 16:51,-73.7622,40.6386,84.92,64.94,51.25,220.00,12.00,0.00,29.92,1013.30,10.00,M,FEW,SCT,M,M,4000.00,25000.00,M,M,M,M,M,M,M,M,M,86.66,KJFK 121651Z 22012KT 10SM FEW040 SCT250 29/18 A2992 RMK AO2 SLP133 T02940183 $
JFK,2012-08-12 17:51,-73.7622,40.6386,84.02,62.06,47.68,200.00,11.00,0.00,29.92,1013.20,10.00,M,FEW,SCT,SCT,M,4000.00,11000.00,20000.00,M,M,M,M,M,M,M,M,84.68,KJFK 121751Z 20011KT 10SM FEW040 SCT110 SCT200 29/17 A2992 RMK AO2 SLP132 T02890167 10294 20250 56001 $
JFK,2012-08-12 18:51,-73.7622,40.6386,84.92,62.96,47.82,230.00,12.00,0.00,29.91,1012.90,10.00,M,FEW,SCT,M,M,4000.00,27000.00,M,M,M,M,M,M,M,M,M,85.83,KJFK 121851Z 23012KT 10SM FEW040 SCT270 29/17 A2991 RMK AO2 SLP129 T02940172 $
JFK,2012-08-12 19:51,-73.7622,40.6386,82.94,66.92,58.51,190.00,10.00,0.00,29.90,1012.50,10.00,M,FEW,SCT,SCT,M,5000.00,11000.00,27000.00,M,M,M,M,M,M,M,M,85.50,KJFK 121951Z 19010KT 10SM FEW050 SCT110 SCT270 28/19 A2990 RMK AO2 SLP125 T02830194 $
JFK,2012-08-12 20:51,-73.7622,40.6386,80.96,69.98,69.32,190.00,13.00,0.00,29.91,1012.80,10.00,19.00,FEW,SCT,SCT,M,5000.00,11000.00,27000.00,M,M,M,M,M,39.00,320.00,2012-08-12 20:31,84.44,KJFK 122051Z 19013G19KT 180V250 10SM FEW050 SCT110 SCT270 27/21 A2991 RMK AO2 PK WND 32039/2031 SLP128 T02720211 55004 $
JFK,2012-08-12 21:51,-73.7622,40.6386,80.06,71.06,74.07,190.00,11.00,0.00,29.91,1012.80,10.00,M,FEW,SCT,M,M,5000.00,27000.00,M,M,M,M,M,M,M,M,M,83.56,KJFK 122151Z 19011KT 10SM FEW050 SCT270 27/22 A2991 RMK AO2 SLP128 T02670217 $
JFK,2012-08-12 22:51,-73.7622,40.6386,82.94,57.92,42.60,250.00,14.00,0.00,29.91,1012.80,10.00,M,FEW,SCT,M,M,6000.00,27000.00,M,M,M,M,M,M,M,M,M,82.64,KJFK 122251Z 25014KT 10SM FEW060 SCT270 28/14 A2991 RMK AO2 SLP128 T02830144 $
JFK,2012-08-12 23:51,-73.7622,40.6386,80.96,60.08,49.09,250.00,9.00,0.00,29.93,1013.30,10.00,M,FEW,BKN,M,M,5500.00,27000.00,M,M,M,M,M,M,M,M,M,81.59,KJFK 122351Z 25009KT 10SM FEW055 BKN270 27/16 A2993 RMK AO2 SLP133 T02720156 10294 20267 53005 $
JFK,2012-08-13 00:51,-73.7622,40.6386,80.06,59.00,48.64,260.00,10.00,0.00,29.94,1013.80,10.00,M,FEW,SCT,M,M,5500.00,27000.00,M,M,M,M,M,M,M,M,M,80.73,KJFK 130051Z 26010KT 10SM FEW055 SCT270 27/15 A2994 RMK AO2 SLP138 T02670150 $
JFK,2012-08-13 01:51,-73.7622,40.6386,80.06,59.00,48.64,290.00,8.00,0.00,29.95,1014.10,10.00,M,FEW,M,M,M,27000.00,M,M,M,M,M,M,M,M,M,M,80.73,KJFK 130151Z 29008KT 10SM FEW270 27/15 A2995 RMK AO2 SLP141 T02670150 $
JFK,2012-08-13 02:51,-73.7622,40.6386,78.08,59.00,51.91,280.00,6.00,0.00,29.95,1014.20,10.00,M,FEW,M,M,M,25000.00,M,M,M,M,M,M,M,M,M,M,78.08,KJFK 130251Z 28006KT 10SM FEW250 26/15 A2995 RMK AO2 SLP142 T02560150 51008 $
JFK,2012-08-13 03:51,-73.7622,40.6386,78.08,59.00,51.91,290.00,7.00,0.00,29.95,1014.30,10.00,M,FEW,M,M,M,25000.00,M,M,M,M,M,M,M,M,M,M,78.08,KJFK 130351Z 29007KT 10SM FEW250 26/15 A2995 RMK AO2 SLP143 T02560150 $
JFK,2012-08-13 04:51,-73.7622,40.6386,75.92,60.98,59.84,260.00,6.00,0.00,29.96,1014.60,10.00,M,FEW,M,M,M,25000.00,M,M,M,M,M,M,M,M,M,M,75.92,KJFK 130451Z 26006KT 10SM FEW250 24/16 A2996 RMK AO2 SLP146 T02440161 402940233 $
JFK,2012-08-13 05:51,-73.7622,40.6386,75.02,60.08,59.72,270.00,9.00,0.00,29.96,1014.60,10.00,M,CLR,M,M,M,M,M,M,M,M,M,M,M,M,M,M,75.02,KJFK 130551Z 27009KT 10SM CLR 24/16 A2996 RMK AO2 SLP146 T02390156 10278 20233 51004 $
JFK,2012-08-13 06:51,-73.7622,40.6386,73.94,60.08,61.92,280.00,8.00,0.00,29.96,1014.60,10.00,M,CLR,M,M,M,M,M,M,M,M,M,M,M,M,M,M,73.94,KJFK 130651Z 28008KT 10SM CLR 23/16 A2996 RMK AO2 SLP146 T02330156 $
JFK,2012-08-13 07:51,-73.7622,40.6386,73.04,59.00,61.41,280.00,8.00,0.00,29.97,1014.70,10.00,M,CLR,M,M,M,M,M,M,M,M,M,M,M,M,M,M,73.04,KJFK 130751Z 28008KT 10SM CLR 23/15 A2997 RMK AO2 SLP147 T02280150 $
JFK,2012-08-13 08:51,-73.7622,40.6386,71.96,60.08,66.20,280.00,9.00,0.00,29.98,1015.00,10.00,M,CLR,M,M,M,M,M,M,M,M,M,M,M,M,M,M,71.96,KJFK 130851Z 28009KT 10SM CLR 22/16 A2998 RMK AO2 SLP150 T02220156 53004 $
JFK,2012-08-13 09:51,-73.7622,40.6386,71.06,59.00,65.67,300.00,7.00,0.00,29.98,1015.30,10.00,M,FEW,M,M,M,10000.00,M,M,M,M,M,M,M,M,M,M,71.06,KJFK 130951Z 30007KT 10SM FEW100 22/15 A2998 RMK AO2 SLP153 T02170150 $
JFK,2012-08-13 10:51,-73.7622,40.6386,71.96,60.08,66.20,310.00,9.00,0.00,30.00,1015.80,10.00,M,FEW,SCT,M,M,10000.00,25000.00,M,M,M,M,M,M,M,M,M,71.96,KJFK 131051Z 31009KT 10SM FEW100 SCT250 22/16 A3000 RMK AO2 SLP158 T02220156 $
JFK,2012-08-13 11:51,-73.7622,40.6386,73.94,60.08,61.92,310.00,8.00,0.00,30.01,1016.30,10.00,M,FEW,M,M,M,25000.00,M,M,M,M,M,M,M,M,M,M,73.94,KJFK 131151Z 31008KT 10SM FEW250 23/16 A3001 RMK AO2 SLP163 T02330156 10239 20217 53013 $
JFK,2012-08-13 12:51,-73.7622,40.6386,75.92,60.08,57.96,310.00,9.00,0.00,30.01,1016.30,10.00,M,SCT,M,M,M,25000.00,M,M,M,M,M,M,M,M,M,M,75.92,KJFK 131251Z 31009KT 10SM SCT250 24/16 A3001 RMK AO2 SLP163 T02440156 $
JFK,2012-08-13 13:51,-73.7622,40.6386,78.98,60.98,54.08,290.00,6.00,0.00,30.01,1016.20,10.00,M,SCT,M,M,M,25000.00,M,M,M,M,M,M,M,M,M,M,78.98,KJFK 131351Z 29006KT 10SM SCT250 26/16 A3001 RMK AO2 SLP162 T02610161 $
JFK,2012-08-13 14:51,-73.7622,40.6386,80.06,59.00,48.64,300.00,10.00,0.00,30.00,1016.00,10.00,M,FEW,SCT,M,M,4300.00,25000.00,M,M,M,M,M,M,M,M,M,80.73,KJFK 131451Z 30010KT 10SM FEW043 SCT250 27/15 A3000 RMK AO2 SLP160 T02670150 58003 $
JFK,2012-08-13 15:51,-73.7622,40.6386,80.96,60.08,49.09,M,6.00,0.00,29.98,1015.30,10.00,15.00,SCT,BKN,M,M,4800.00,25000.00,M,M,M,M,M,M,M,M,M,81.59,KJFK 131551Z VRB06G15KT 10SM SCT048 BKN250 27/16 A2998 RMK AO2 SLP153 T02720156 $
JFK,2012-08-13 16:00,-73.7622,40.6386,82.40,59.00,45.07,290.00,9.00,0.00,29.98,M,10.00,M,SCT,BKN,M,M,4800.00,25000.00,M,M,M,M,M,M,M,M,M,82.46,KJFK 131600Z 29009KT 10SM SCT048 BKN250 28/15 A2998 RMK AO2 $
JFK,2012-08-13 16:51,-73.7622,40.6386,84.02,60.08,44.45,260.00,9.00,0.00,29.97,1014.70,10.00,15.00,FEW,BKN,M,M,5000.00,25000.00,M,M,M,M,M,M,M,M,M,84.06,KJFK 131651Z 26009G15KT 10SM FEW050 BKN250 29/16 A2997 RMK AO2 SLP147 T02890156 $
JFK,2012-08-13 17:51,-73.7622,40.6386,82.94,62.06,49.37,220.00,14.00,0.00,29.95,1014.20,10.00,M,SCT,BKN,M,M,6000.00,25000.00,M,M,M,M,M,M,M,M,M,83.72,KJFK 131751Z 22014KT 10SM SCT060 BKN250 28/17 A2995 RMK AO2 SLP142 T02830167 10289 20233 56017 $
JFK,2012-08-13 18:51,-73.7622,40.6386,84.92,59.00,41.55,210.00,14.00,0.00,29.94,1014.00,10.00,17.00,SCT,BKN,M,M,6000.00,25000.00,M,M,M,M,M,M,M,M,M,84.52,KJFK 131851Z 21014G17KT 10SM SCT060 BKN250 29/15 A2994 RMK AO2 SLP140 T02940150 $
JFK,2012-08-13 19:51,-73.7622,40.6386,84.02,53.96,35.64,240.00,9.00,0.00,29.94,1014.00,10.00,M,SCT,BKN,M,M,7000.00,25000.00,M,M,M,M,M,M,M,M,M,84.02,KJFK 131951Z 24009KT 10SM SCT070 BKN250 29/12 A2994 RMK AO2 SLP140 T02890122 $
JFK,2012-08-13 20:51,-73.7622,40.6386,82.04,57.02,42.47,230.00,13.00,0.00,29.95,1014.00,10.00,M,SCT,BKN,M,M,7000.00,25000.00,M,M,M,M,M,M,M,M,M,81.78,KJFK 132051Z 23013KT 10SM SCT070 BKN250 28/14 A2995 RMK AO2 SLP140 T02780139 55002 $
JFK,2012-08-13 21:51,-73.7622,40.6386,84.02,57.92,41.15,230.00,15.00,0.00,29.94,1013.80,10.00,M,SCT,BKN,M,M,7000.00,25000.00,M,M,M,M,M,M,M,M,M,83.49,KJFK 132151Z 23015KT 10SM SCT070 BKN250 29/14 A2994 RMK AO2 SLP138 T02890144 $
JFK,2012-08-13 22:51,-73.7622,40.6386,84.02,53.06,34.49,310.00,7.00,0.00,29.94,1013.80,10.00,17.00,FEW,SCT,M,M,7000.00,25000.00,M,M,M,M,M,M,M,M,M,84.02,KJFK 132251Z 31007G17KT 10SM FEW070 SCT250 29/12 A2994 RMK AO2 SLP138 T02890117 $
JFK,2012-08-13 23:51,-73.7622,40.6386,82.04,53.06,36.77,290.00,9.00,0.00,29.94,1013.90,10.00,M,FEW,SCT,M,M,7500.00,25000.00,M,M,M,M,M,M,M,M,M,82.04,KJFK 132351Z 29009KT 10SM FEW075 SCT250 28/12 A2994 RMK AO2 SLP139 T02780117 10306 20278 55001 $
JFK,2012-08-14 00:51,-73.7622,40.6386,80.96,55.94,42.30,270.00,10.00,0.00,29.96,1014.40,10.00,M,FEW,SCT,M,M,7500.00,25000.00,M,M,M,M,M,M,M,M,M,80.85,KJFK 140051Z 27010KT 10SM FEW075 SCT250 27/13 A2996 RMK AO2 SLP144 T02720133 $
JFK,2012-08-14 01:51,-73.7622,40.6386,80.06,57.02,45.30,260.00,8.00,0.00,29.98,1015.00,10.00,M,FEW,SCT,M,M,7500.00,25000.00,M,M,M,M,M,M,M,M,M,80.42,KJFK 140151Z 26008KT 10SM FEW075 SCT250 27/14 A2998 RMK AO2 SLP150 T02670139 $
JFK,2012-08-14 02:51,-73.7622,40.6386,78.98,57.92,48.48,270.00,7.00,0.00,29.98,1015.10,10.00,M,FEW,M,M,M,25000.00,M,M,M,M,M,M,M,M,M,M,78.98,KJFK 140251Z 27007KT 10SM FEW250 26/14 A2998 RMK AO2 SLP151 T02610144 51012 $
JFK,2012-08-14 03:51,-73.7622,40.6386,77.00,59.00,53.80,260.00,5.00,0.00,29.97,1014.90,10.00,M,CLR,M,M,M,M,M,M,M,M,M,M,M,M,M,M,77.00,KJFK 140351Z 26005KT 10SM CLR 25/15 A2997 RMK AO2 SLP149 T02500150 $
JFK,2012-08-14 04:51,-73.7622,40.6386,73.04,62.06,68.47,230.00,7.00,0.00,29.97,1014.90,10.00,M,CLR,M,M,M,M,M,M,M,M,M,M,M,M,M,M,73.04,KJFK 140451Z 23007KT 10SM CLR 23/17 A2997 RMK AO2 SLP149 T02280167 403060217 $
JFK,2012-08-14 05:51,-73.7622,40.6386,73.90,66.00,76.36,220.00,7.00,0.00,29.97,1014.80,10.00,M,CLR,M,M,M,M,M,M,M,M,M,M,M,M,M,M,73.90,KJFK 140551Z 22007KT 10SM CLR 23/19 A2997 RMK AO2 SLP148 T02330189 10278 20222 56003 $
JFK,2012-08-14 06:51,-73.7622,40.6386,73.00,64.00,73.40,270.00,5.00,0.00,29.97,1014.70,10.00,M,CLR,M,M,M,M,M,M,M,M,M,M,M,M,M,M,73.00,KJFK 140651Z 27005KT 10SM CLR 23/18 A2997 RMK AO2 SLP147 T02280178 $
JFK,2012-08-14 07:51,-73.7622,40.6386,73.00,64.90,75.75,250.00,7.00,0.00,29.96,1014.60,10.00,M,FEW,M,M,M,25000.00,M,M,M,M,M,M,M,M,M,M,73.00,KJFK 140751Z 25007KT 10SM FEW250 23/18 A2996 RMK AO2 SLP146 T02280183 $
JFK,2012-08-14 08:51,-73.7622,40.6386,72.00,64.00,75.92,270.00,4.00,0.00,29.96,1014.60,10.00,M,SCT,M,M,M,25000.00,M,M,M,M,M,M,M,M,M,M,72.00,KJFK 140851Z 27004KT 10SM SCT250 22/18 A2996 RMK AO2 SLP146 T02220178 55002 $
JFK,2012-08-14 09:51,-73.7622,40.6386,70.00,63.00,78.46,0.00,0.00,0.00,29.97,1014.70,10.00,M,SCT,BKN,M,M,15000.00,25000.00,M,M,M,M,M,M,M,M,M,70.00,KJFK 140951Z 00000KT 10SM SCT150 BKN250 21/17 A2997 RMK AO2 SLP147 T02110172 $
JFK,2012-08-14 10:51,-73.7622,40.6386,73.90,66.00,76.36,0.00,0.00,0.00,29.97,1014.80,10.00,M,SCT,BKN,M,M,16000.00,27000.00,M,M,M,M,M,M,M,M,M,73.90,KJFK 141051Z 00000KT 10SM SCT160 BKN270 23/19 A2997 RMK AO2 SLP148 T02330189 $
JFK,2012-08-14 11:51,-73.7622,40.6386,75.90,66.00,71.41,0.00,0.00,0.00,29.97,1014.80,10.00,M,FEW,SCT,BKN,M,12000.00,16000.00,27000.00,M,M,M,M,M,M,M,M,75.90,KJFK 141151Z 00000KT 10SM FEW120 SCT160 BKN270 24/19 A2997 RMK AO2 SLP148 T02440189 10244 20211 51002 $
JFK,2012-08-14 12:51,-73.7622,40.6386,78.10,66.90,68.49,110.00,3.00,0.00,29.97,1014.70,9.00,M,FEW,SCT,BKN,M,12000.00,16000.00,27000.00,M,M,M,M,M,M,M,M,78.10,KJFK 141251Z 11003KT 9SM FEW120 SCT160 BKN270 26/19 A2997 RMK AO2 SLP147 T02560194 $
JFK,2012-08-14 13:51,-73.7622,40.6386,79.00,64.90,62.03,0.00,0.00,0.00,29.97,1014.90,10.00,M,FEW,SCT,BKN,BKN,3200.00,12000.00,19000.00,27000.00,M,M,M,M,M,M,M,79.00,KJFK 141351Z 00000KT 10SM FEW032 SCT120 BKN190 BKN270 26/18 A2997 RMK AO2 SLP149 T02610183
JFK,2012-08-14 14:51,-73.7622,40.6386,79.00,66.90,66.49,190.00,6.00,0.00,29.98,1015.20,10.00,M,FEW,SCT,BKN,OVC,3500.00,7500.00,16000.00,27000.00,M,M,M,M,M,M,M,79.00,KJFK 141451Z 19006KT 10SM FEW035 SCT075 BKN160 OVC270 26/19 A2998 RMK AO2 SLP152 T02610194 53003
JFK,2012-08-14 15:51,-73.7622,40.6386,80.10,68.00,66.62,200.00,5.00,0.00,29.97,1014.80,10.00,M,FEW,SCT,BKN,OVC,3800.00,7500.00,15000.00,27000.00,M,M,M,M,M,M,M,82.70,KJFK 141551Z 20005KT 10SM FEW038 SCT075 BKN150 OVC270 27/20 A2997 RMK AO2 SLP148 T02670200
JFK,2012-08-14 16:51,-73.7622,40.6386,80.10,69.10,69.18,200.00,8.00,0.00,29.96,1014.50,10.00,M,FEW,SCT,SCT,BKN,4000.00,7000.00,15000.00,27000.00,M,M,M,M,M,M,M,83.01,KJFK 141651Z 20008KT 10SM FEW040 SCT070 SCT150 BKN270 27/21 A2996 RMK AO2 SLP145 T02670206
JFK,2012-08-14 17:51,-73.7622,40.6386,77.00,70.00,79.02,190.00,9.00,0.00,29.96,1014.40,10.00,M,FEW,BKN,BKN,M,4600.00,13000.00,27000.00,M,-RA,M,M,M,M,M,M,77.00,KJFK 141751Z 19009KT 10SM -RA FEW046 BKN130 BKN270 25/21 A2996 RMK AO2 RAB48 SLP144 P0000 60000 T02500211 10272 20244 56008
JFK,2012-08-14 18:51,-73.7622,40.6386,75.00,68.00,78.86,200.00,7.00,0.00,29.95,1014.30,9.00,M,FEW,SCT,BKN,BKN,1600.00,4600.00,11000.00,27000.00,-RA,M,M,M,M,M,M,75.00,KJFK 141851Z 20007KT 9SM -RA FEW016 SCT046 BKN110 BKN270 24/20 A2995 RMK AO2 SLP143 P0000 T02390200
JFK,2012-08-14 19:51,-73.7622,40.6386,78.10,66.90,68.49,190.00,5.00,0.00,29.93,1013.30,10.00,M,FEW,SCT,BKN,BKN,2200.00,4600.00,9000.00,13000.00,M,M,M,M,M,M,M,78.10,KJFK 141951Z 19005KT 10SM FEW022 SCT046 BKN090 BKN130 BKN270 26/19 A2993 RMK AO2 RAE12 SLP133 P0000 T02560194
JFK,2012-08-14 20:51,-73.7622,40.6386,77.00,66.90,71.03,150.00,5.00,0.00,29.93,1013.30,10.00,M,SCT,BKN,BKN,OVC,2200.00,9000.00,13000.00,25000.00,M,M,M,M,M,M,M,77.00,KJFK 142051Z 15005KT 10SM SCT022 BKN090 BKN130 OVC250 25/19 A2993 RMK AO2 RAB1959E08 SLP133 P0000 60000 T02500194 56010
JFK,2012-08-14 21:51,-73.7622,40.6386,79.00,70.00,73.97,160.00,11.00,0.00,29.90,1012.60,10.00,M,SCT,BKN,BKN,BKN,2300.00,7500.00,13000.00,25000.00,M,M,M,M,M,M,M,79.00,KJFK 142151Z 16011KT 10SM SCT023 BKN075 BKN130 BKN250 26/21 A2990 RMK AO2 SLP126 T02610211
JFK,2012-08-14 22:51,-73.7622,40.6386,78.10,69.10,73.88,170.00,11.00,0.00,29.91,1012.70,10.00,M,SCT,SCT,SCT,BKN,2400.00,3000.00,7500.00,13000.00,M,M,M,M,M,M,M,78.10,KJFK 142251Z 17011KT 10SM SCT024 SCT030 SCT075 BKN130 BKN250 26/21 A2991 RMK AO2 SLP127 T02560206
JFK,2012-08-14 23:51,-73.7622,40.6386,77.00,69.10,76.62,170.00,7.00,0.00,29.90,1012.50,10.00,M,FEW,SCT,BKN,M,2400.00,15000.00,25000.00,M,M,M,M,M,M,M,M,77.00,KJFK 142351Z 17007KT 10SM FEW024 SCT150 BKN250 25/21 A2990 RMK AO2 SLP125 60000 T02500206 10261 20239 56009
JFK,2012-08-15 00:51,-73.7622,40.6386,77.00,71.10,82.03,170.00,5.00,0.00,29.89,1012.30,10.00,M,FEW,SCT,SCT,BKN,2000.00,3100.00,15000.00,25000.00,M,M,M,M,M,M,M,77.00,KJFK 150051Z 17005KT 10SM FEW020 SCT031 SCT150 BKN250 25/22 A2989 RMK AO2 SLP123 T02500217
JFK,2012-08-15 01:16,-73.7622,40.6386,77.00,71.60,83.44,160.00,7.00,0.00,29.90,M,10.00,M,BKN,BKN,BKN,M,2000.00,2400.00,25000.00,M,M,M,M,M,M,M,M,77.00,KJFK 150116Z 16007KT 10SM BKN020 BKN024 BKN250 25/22 A2990 RMK AO2
JFK,2012-08-15 01:51,-73.7622,40.6386,77.00,72.00,84.58,170.00,5.00,0.00,29.90,1012.50,10.00,M,SCT,SCT,BKN,M,1900.00,2400.00,25000.00,M,M,M,M,M,M,M,M,77.00,KJFK 150151Z 17005KT 10SM SCT019 SCT024 BKN250 25/22 A2990 RMK AO2 SLP125 T02500222
JFK,2012-08-15 02:51,-73.7622,40.6386,77.00,73.00,87.48,170.00,3.00,0.00,29.90,1012.40,10.00,M,SCT,SCT,BKN,M,1700.00,4000.00,25000.00,M,M,M,M,M,M,M,M,77.00,KJFK 150251Z 17003KT 10SM SCT017 SCT040 BKN250 25/23 A2990 RMK AO2 SLP124 T02500228 55000
JFK,2012-08-15 03:51,-73.7622,40.6386,75.90,73.00,90.74,220.00,6.00,0.00,29.91,1012.90,10.00,M,SCT,BKN,BKN,M,1400.00,2700.00,25000.00,M,M,M,M,M,M,M,M,75.90,KJFK 150351Z 22006KT 10SM SCT014 BKN027 BKN250 24/23 A2991 RMK AO2 SLP129 T02440228
JFK,2012-08-15 04:51,-73.7622,40.6386,75.00,71.10,87.68,200.00,4.00,0.00,29.89,1012.30,10.00,M,SCT,BKN,BKN,M,2100.00,4200.00,17000.00,M,M,M,M,M,M,M,M,75.00,KJFK 150451Z 20004KT 10SM SCT021 BKN042 BKN170 24/22 A2989 RMK AO2 SLP123 FRQ LTGIC DSNT NE CB DSNT NE T02390217 402720211
JFK,2012-08-15 05:51,-73.7622,40.6386,75.02,71.06,87.50,0.00,0.00,0.00,29.88,1011.80,10.00,M,BKN,BKN,BKN,M,1500.00,4200.00,16000.00,M,M,M,M,M,M,M,M,75.02,KJFK 150551Z 00000KT 10SM BKN015 BKN042 BKN160 24/22 A2988 RMK AO2 RAB26E36 SLP118 P0000 60000 T02390217 10250 20233 58006
JFK,2012-08-15 06:51,-73.7622,40.6386,75.02,73.04,93.57,200.00,4.00,0.00,29.85,1010.90,10.00,M,SCT,OVC,M,M,1500.00,8500.00,M,M,M,M,M,M,M,M,M,75.02,KJFK 150651Z 20004KT 10SM SCT015 OVC085 24/23 A2985 RMK AO2 SLP109 T02390228
JFK,2012-08-15 07:38,-73.7622,40.6386,75.20,73.40,94.14,190.00,5.00,0.00,29.84,M,10.00,M,BKN,BKN,BKN,M,700.00,4000.00,8500.00,M,M,M,M,M,M,M,M,75.20,KJFK 150738Z 19005KT 10SM BKN007 BKN040 BKN085 24/23 A2984 RMK AO2 OCNL LTGIC DSNT NE CB DSNT NE
JFK,2012-08-15 07:51,-73.7622,40.6386,75.02,73.94,96.45,190.00,8.00,0.00,29.84,1010.30,10.00,M,BKN,BKN,BKN,M,900.00,4000.00,8500.00,M,M,M,M,M,M,M,M,75.02,KJFK 150751Z 19008KT 10SM BKN009 BKN040 BKN085 24/23 A2984 RMK AO2 SLP103 OCNL LTGIC DSNT NE CB DSNT NE BKN009 V SCT T02390233
JFK,2012-08-15 08:51,-73.7622,40.6386,75.02,71.96,90.22,200.00,4.00,0.00,29.84,1010.50,9.00,M,BKN,BKN,BKN,M,800.00,4000.00,8500.00,M,M,M,M,M,M,M,M,75.02,KJFK 150851Z 20004KT 9SM BKN008 BKN040 BKN085 24/22 A2984 RMK AO2 SLP105 T02390222 55013
JFK,2012-08-15 08:58,-73.7622,40.6386,75.20,73.40,94.14,210.00,4.00,0.00,29.85,M,7.00,M,SCT,SCT,BKN,M,1000.00,9000.00,11000.00,M,-RA,M,M,M,M,M,M,75.20,KJFK 150858Z 21004KT 7SM -RA SCT010 SCT090 BKN110 24/23 A2985 RMK AO2 RAB52 CIG 009 W P0000
JFK,2012-08-15 09:51,-73.7622,40.6386,73.94,71.96,93.54,220.00,4.00,0.00,29.85,1010.90,7.00,M,FEW,SCT,M,M,1000.00,11000.00,M,M,M,M,M,M,M,M,M,73.94,KJFK 150951Z 22004KT 7SM FEW010 SCT110 23/22 A2985 RMK AO2 RAB0852E04 SLP109 P0000 T02330222
JFK,2012-08-15 10:51,-73.7622,40.6386,73.94,71.96,93.54,0.00,0.00,0.00,29.85,1010.90,7.00,M,FEW,SCT,SCT,BKN,1100.00,4200.00,11000.00,16000.00,M,M,M,M,M,M,M,73.94,KJFK 151051Z 00000KT 7SM FEW011 SCT042TCU SCT110 BKN160 23/22 A2985 RMK AO2 SLP109 TCU E-SE ACC SW T02330222 $
JFK,2012-08-15 11:51,-73.7622,40.6386,75.92,73.04,90.80,0.00,0.00,0.00,29.87,1011.40,6.00,M,FEW,SCT,BKN,BKN,1400.00,4400.00,7000.00,16000.00,BR,M,M,M,M,M,M,75.92,KJFK 151151Z 00000KT 6SM BR FEW014 SCT044 BKN070 BKN160 24/23 A2987 RMK AO2 SLP114 60000 T02440228 10244 20228 52008 $
JFK,2012-08-15 12:51,-73.7622,40.6386,78.08,71.96,81.50,100.00,4.00,0.00,29.87,1011.40,7.00,M,SCT,BKN,BKN,M,1300.00,4400.00,9000.00,M,M,M,M,M,M,M,M,78.08,KJFK 151251Z 10004KT 7SM SCT013 BKN044 BKN090 26/22 A2987 RMK AO2 SLP114 SCT V BKN T02560222 $
JFK,2012-08-15 13:51,-73.7622,40.6386,80.06,71.96,76.36,M,3.00,0.00,29.87,1011.50,9.00,M,FEW,SCT,BKN,BKN,1500.00,2400.00,8500.00,14000.00,M,M,M,M,M,M,M,83.87,KJFK 151351Z VRB03KT 9SM FEW015 SCT024 BKN085 BKN140 27/22 A2987 RMK AO2 SLP115 SCT V BKN T02670222
JFK,2012-08-15 14:07,-73.7622,40.6386,82.40,71.60,69.90,130.00,5.00,0.00,29.88,M,10.00,M,BKN,BKN,M,M,1800.00,8500.00,M,M,M,M,M,M,M,M,M,87.18,KJFK 151407Z 13005KT 10SM BKN018 BKN085 28/22 A2988 RMK AO2
JFK,2012-08-15 14:41,-73.7622,40.6386,82.40,71.60,69.90,140.00,8.00,0.00,29.88,M,10.00,M,SCT,SCT,BKN,M,2200.00,7000.00,25000.00,M,M,M,M,M,M,M,M,87.18,KJFK 151441Z 14008KT 10SM SCT022TCU SCT070 BKN250 28/22 A2988 RMK AO2 TCU NE VCSH NE
JFK,2012-08-15 14:51,-73.7622,40.6386,82.04,71.06,69.43,160.00,9.00,0.00,29.88,1011.60,10.00,M,SCT,BKN,BKN,M,2000.00,7000.00,25000.00,M,M,M,M,M,M,M,M,86.39,KJFK 151451Z 16009KT 10SM SCT020TCU BKN070 BKN250 28/22 A2988 RMK AO2 SLP116 TCU NE-E VCSH NE-E T02780217 53003
JFK,2012-08-15 15:51,-73.7622,40.6386,82.04,71.96,71.59,110.00,10.00,0.00,29.88,1011.70,10.00,M,FEW,SCT,SCT,SCT,1800.00,2500.00,7500.00,25000.00,M,M,M,M,M,M,M,86.87,KJFK 151551Z 11010KT 10SM FEW018 SCT025CB SCT075 SCT250 28/22 A2988 RMK AO2 SLP117 CB NE-E MOV E TCU N AND DSNT SE T02780222
JFK,2012-08-15 16:34,-73.7622,40.6386,80.60,71.60,74.11,80.00,9.00,0.00,29.87,M,10.00,M,FEW,BKN,BKN,M,1800.00,2800.00,25000.00,M,M,M,M,M,M,M,M,84.57,KJFK 151634Z 08009KT 10SM FEW018 BKN028TCU BKN250 27/22 A2987 RMK AO2 TCU N-NE AND W
JFK,2012-08-15 16:51,-73.7622,40.6386,80.96,66.92,62.40,70.00,9.00,0.00,29.86,1011.20,10.00,M,BKN,BKN,BKN,BKN,2200.00,2800.00,11000.00,25000.00,M,M,M,M,M,M,M,83.36,KJFK 151651Z 07009KT 10SM BKN022 BKN028TCU BKN110 BKN250 27/19 A2986 RMK AO2 SLP112 TCU W-N VCSH N AND W T02720194
JFK,2012-08-15 17:02,-73.7622,40.6386,80.60,68.00,65.54,70.00,8.00,0.00,29.86,M,10.00,M,BKN,BKN,BKN,M,2200.00,2800.00,25000.00,M,TS,M,M,M,M,M,M,83.29,KJFK 151702Z 07008KT 10SM TS BKN022 BKN028CB BKN250 27/20 A2986 RMK AO2 TSB02 OCNL LTGIC NW-N TS NW-N MOV E VCSH W-NE
JFK,2012-08-15 17:51,-73.7622,40.6386,82.04,69.98,66.93,M,4.00,0.00,29.88,1011.80,8.00,M,FEW,BKN,BKN,BKN,2400.00,2900.00,8000.00,25000.00,-TSRA,M,M,M,M,M,M,85.85,KJFK 151751Z VRB04KT 8SM -TSRA FEW024 BKN029CB BKN080 BKN250 28/21 A2988 RMK AO2 TSB02RAB47 SLP118 VIS NW-N 3 FRQ LTGICCG OHD AND W-NE TS OHD AND W-NE MOV E CBMAM OHD MOV E P0000 60000 T02780211 10283 20244 53001
JFK,2012-08-15 18:13,-73.7622,40.6386,77.00,66.20,69.33,30.00,10.00,0.00,29.88,M,8.00,M,BKN,BKN,OVC,M,2400.00,2900.00,8000.00,M,-TSRA,M,M,M,M,M,M,77.00,KJFK 151813Z 03010KT 8SM -TSRA BKN024 BKN029 OVC080 25/19 A2988 RMK AO2 WSHFT 1753 P0000
JFK,2012-08-15 18:51,-73.7622,40.6386,80.06,62.96,55.97,30.00,6.00,0.00,29.85,1010.70,10.00,M,BKN,BKN,BKN,BKN,2900.00,6000.00,13000.00,23000.00,TS,M,M,M,M,M,M,81.45,KJFK 151851Z 03006KT 10SM TS BKN029CB BKN060 BKN130 BKN230 27/17 A2985 RMK AO2 WSHFT 1753 RAE18 SLP107 OCNL LTGIC NE TS NE MOV E BKN029 V SCT TCU DSNT N P0000 T02670172
JFK,2012-08-15 19:06,-73.7622,40.6386,78.80,64.40,61.36,50.00,4.00,0.00,29.86,M,10.00,M,SCT,SCT,BKN,BKN,2900.00,6000.00,13000.00,23000.00,TS,M,M,M,M,M,M,78.80,KJFK 151906Z 05004KT 10SM TS SCT029CB SCT060 BKN130 BKN230 26/18 A2986 RMK AO2 OCNL LTGIC W TS W MOV NE TCU NE CB DSNT S
JFK,2012-08-15 19:51,-73.7622,40.6386,73.94,69.08,84.80,210.00,6.00,0.04,29.88,1011.80,4.00,M,BKN,BKN,OVC,M,2800.00,6500.00,11000.00,M,+TSRA,M,M,M,M,M,M,73.94,KJFK 151951Z 21006KT 4SM R04R/5500VP6000FT +TSRA BKN028CB BKN065 OVC110 23/21 A2988 RMK AO2 RAB29 SLP118 FRQ LTGICCG OHD AND SE-NW TS OHD AND SE-NW MOV NE P0004 T02330206 $
JFK,2012-08-15 20:02,-73.7622,40.6386,71.60,68.00,88.43,230.00,18.00,0.06,29.88,M,2.00,22.00,FEW,BKN,OVC,M,1300.00,2800.00,8500.00,M,+TSRA BR,M,M,M,M,M,M,71.60,KJFK 152002Z 23018G22KT 2SM R04R/3500VP6000FT +TSRA BR FEW013 BKN028CB OVC085 22/20 A2988 RMK AO2 SFC VIS 2 1/2 FRQ LTGICCG OHD AND SE-NW TS OHD AND SE-NW MOV NE P0006
JFK,2012-08-15 20:31,-73.7622,40.6386,71.60,66.20,83.09,290.00,6.00,0.21,29.87,M,6.00,M,FEW,BKN,OVC,M,1600.00,2800.00,7000.00,M,+TSRA,M,M,M,M,M,M,71.60,KJFK 152031Z 29006KT 6SM +TSRA FEW016 BKN028CB OVC070 22/19 A2987 RMK AO2 OCNL LTGICCG S AND NW-NE TS S AND NW-NE MOV NE P0021
JFK,2012-08-15 20:47,-73.7622,40.6386,69.80,66.20,88.34,270.00,4.00,0.24,29.86,M,6.00,M,FEW,SCT,BKN,OVC,1300.00,2800.00,5500.00,13000.00,-TSRA BR,M,M,M,M,M,M,69.80,KJFK 152047Z 27004KT 6SM -TSRA BR FEW013 SCT028CB BKN055 OVC130 21/19 A2986 RMK AO2 OCNL LTGIC NW-E TS NW-E MOV NE P0024
JFK,2012-08-15 20:51,-73.7622,40.6386,69.98,64.94,84.04,260.00,9.00,0.24,29.85,1010.90,6.00,M,FEW,SCT,BKN,OVC,1300.00,2800.00,5500.00,13000.00,TSRA,M,M,M,M,M,M,69.98,KJFK 152051Z 26009KT 6SM TSRA FEW013 SCT028CB BKN055 OVC130 21/18 A2985 RMK AO2 SLP109 OCNL LTGIC NW-E TS NW-E MOV NE P0024 60028 T02110183 50001
JFK,2012-08-15 21:24,-73.7622,40.6386,71.60,66.20,83.09,0.00,0.00,0.02,29.84,M,10.00,M,FEW,SCT,BKN,BKN,1300.00,2800.00,11000.00,25000.00,-RA,M,M,M,M,M,M,71.60,KJFK 152124Z 00000KT 10SM -RA FEW013 SCT028 BKN110 BKN250 22/19 A2984 RMK AO2 TSE23 CB DSNT N P0002
JFK,2012-08-15 21:51,-73.7622,40.6386,71.06,66.92,86.77,350.00,11.00,0.02,29.86,1011.10,10.00,M,FEW,SCT,BKN,BKN,1300.00,2800.00,9000.00,25000.00,M,M,M,M,M,M,M,71.06,KJFK 152151Z 35011KT 10SM FEW013 SCT028 BKN090 BKN250 22/19 A2986 RMK AO2 TSE23RAE50 PRESRR SLP111 TCU DSNT NE P0002 T02170194
JFK,2012-08-15 22:48,-73.7622,40.6386,73.40,68.00,83.21,340.00,4.00,0.00,29.85,M,10.00,M,FEW,SCT,BKN,OVC,1300.00,2800.00,8000.00,13000.00,-TSRA,M,M,M,M,M,M,73.40,KJFK 152248Z 34004KT 10SM -TSRA FEW013 SCT028CB BKN080 OVC130 23/20 A2985 RMK AO2 TSB48RAB27 OCNL LTGIC SW-NW TS SW-NW MOV NE TCU DSNT SE VCSH SW-NW P0000
JFK,2012-08-15 22:51,-73.7622,40.6386,73.04,66.92,81.14,0.00,0.00,0.00,29.85,1010.80,10.00,M,FEW,SCT,BKN,OVC,1300.00,2800.00,8000.00,13000.00,-TSRA,M,M,M,M,M,M,73.04,KJFK 152251Z 00000KT 10SM -TSRA FEW013 SCT028CB BKN080 OVC130 23/19 A2985 RMK AO2 TSB48RAB27 SLP108 OCNL LTGIC SW-NW TS SW-NW MOV NE TCU DSNT SE P0000 T02280194
JFK,2012-08-15 23:51,-73.7622,40.6386,71.96,66.92,84.16,300.00,5.00,0.07,29.87,1011.50,7.00,M,SCT,SCT,OVC,M,2800.00,6500.00,9500.00,M,-TSRA,M,M,M,M,M,M,71.96,KJFK 152351Z 30005KT 7SM -TSRA SCT028CB SCT065 OVC095 22/19 A2987 RMK AO2 SLP115 OCNL LTGIC NE-E TS NE-E MOV NE P0007 60037 T02220194 10278 20206 53007
JFK,2012-08-15 23:59,-73.7622,40.6386,71.60,66.20,83.09,0.00,0.00,0.01,29.87,M,7.00,M,FEW,SCT,OVC,M,2800.00,6500.00,9500.00,M,RA,M,M,M,M,M,M,71.60,KJFK 152359Z 00000KT 7SM RA FEW028 SCT065 OVC095 22/19 A2987 RMK AO2 TSE59 P0001
JFK,2012-08-16 00:51,-73.7622,40.6386,69.98,64.94,84.04,360.00,6.00,0.07,29.86,1010.90,10.00,M,FEW,BKN,BKN,M,10000.00,13000.00,25000.00,M,M,M,M,M,M,M,M,69.98,KJFK 160051Z 36006KT 10SM FEW100 BKN130 BKN250 21/18 A2986 RMK AO2 TSE2359RAE45 SLP109 P0007 T02110183
JFK,2012-08-16 01:51,-73.7622,40.6386,69.98,66.02,87.26,330.00,7.00,0.00,29.86,1011.20,10.00,M,FEW,BKN,BKN,M,12000.00,15000.00,25000.00,M,M,M,M,M,M,M,M,69.98,KJFK 160151Z 33007KT 10SM FEW120 BKN150 BKN250 21/19 A2986 RMK AO2 SLP112 T02110189
JFK,2012-08-16 02:51,-73.7622,40.6386,71.06,66.02,84.10,350.00,7.00,0.00,29.86,1011.10,10.00,M,SCT,M,M,M,22000.00,M,M,M,M,M,M,M,M,M,M,71.06,KJFK 160251Z 35007KT 10SM SCT220 22/19 A2986 RMK AO2 SLP111 60007 T02170189 56004
JFK,2012-08-16 03:51,-73.7622,40.6386,69.08,66.92,92.83,90.00,3.00,0.00,29.87,1011.50,10.00,M,FEW,SCT,M,M,1000.00,22000.00,M,M,M,M,M,M,M,M,M,69.08,KJFK 160351Z 09003KT 10SM FEW010 SCT220 21/19 A2987 RMK AO2 SLP115 T02060194
JFK,2012-08-16 04:37,-73.7622,40.6386,69.80,68.00,94.01,0.00,0.00,0.00,29.88,M,7.00,M,SCT,BKN,M,M,800.00,2000.00,M,M,M,M,M,M,M,M,M,69.80,KJFK 160437Z 00000KT 7SM SCT008 BKN020 21/20 A2988 RMK AO2
JFK,2012-08-16 04:51,-73.7622,40.6386,69.08,68.00,96.36,350.00,4.00,0.00,29.87,1011.60,7.00,M,FEW,SCT,M,M,800.00,2000.00,M,M,M,M,M,M,M,M,M,69.08,KJFK 160451Z 35004KT 7SM FEW008 SCT020 21/20 A2987 RMK AO2 SLP116 T02060200 402830206
JFK,2012-08-16 05:51,-73.7622,40.6386,69.98,68.00,93.44,0.00,0.00,0.00,29.87,1011.50,5.00,M,FEW,M,M,M,800.00,M,M,M,BR,M,M,M,M,M,M,69.98,KJFK 160551Z 00000KT 5SM BR FEW008 21/20 A2987 RMK AO2 SLP115 60007 T02110200 10222 20206 50003
JFK,2012-08-16 06:51,-73.7622,40.6386,69.08,68.00,96.36,340.00,7.00,0.00,29.87,1011.50,4.00,M,FEW,SCT,M,M,400.00,2000.00,M,M,BR,M,M,M,M,M,M,69.08,KJFK 160651Z 34007KT 4SM BR FEW004 SCT020 21/20 A2987 RMK AO2 SLP115 T02060200
JFK,2012-08-16 07:51,-73.7622,40.6386,69.08,68.00,96.36,320.00,4.00,0.00,29.87,1011.40,6.00,M,CLR,M,M,M,M,M,M,M,BR,M,M,M,M,M,M,69.08,KJFK 160751Z 32004KT 6SM BR CLR 21/20 A2987 RMK AO2 SLP114 T02060200
JFK,2012-08-16 08:51,-73.7622,40.6386,69.98,66.92,90.02,280.00,4.00,0.00,29.87,1011.60,8.00,M,CLR,M,M,M,M,M,M,M,M,M,M,M,M,M,M,69.98,KJFK 160851Z 28004KT 8SM CLR 21/19 A2987 RMK AO2 SLP116 T02110194 53001
JFK,2012-08-16 09:51,-73.7622,40.6386,69.08,66.02,89.98,300.00,4.00,0.00,29.89,1012.10,10.00,M,FEW,M,M,M,5000.00,M,M,M,M,M,M,M,M,M,M,69.08,KJFK 160951Z 30004KT 10SM FEW050 21/19 A2989 RMK AO2 SLP121 T02060189
JFK,2012-08-16 10:51,-73.7622,40.6386,69.98,66.02,87.26,310.00,8.00,0.00,29.90,1012.30,10.00,M,FEW,M,M,M,5000.00,M,M,M,M,M,M,M,M,M,M,69.98,KJFK 161051Z 31008KT 10SM FEW050 21/19 A2990 RMK AO2 SLP123 T02110189
JFK,2012-08-16 11:51,-73.7622,40.6386,71.96,64.94,78.57,320.00,8.00,0.00,29.91,1012.80,10.00,M,FEW,SCT,M,M,5000.00,11000.00,M,M,M,M,M,M,M,M,M,71.96,KJFK 161151Z 32008KT 10SM FEW050 SCT110 22/18 A2991 RMK AO2 SLP128 70044 T02220183 10222 20206 52013
JFK,2012-08-16 12:51,-73.7622,40.6386,75.02,64.04,68.69,330.00,6.00,0.00,29.91,1013.00,10.00,M,CLR,M,M,M,M,M,M,M,M,M,M,M,M,M,M,75.02,KJFK 161251Z 33006KT 10SM CLR 24/18 A2991 RMK AO2 SLP130 T02390178
JFK,2012-08-16 13:51,-73.7622,40.6386,78.08,64.04,62.05,340.00,10.00,0.00,29.91,1012.90,10.00,M,FEW,M,M,M,25000.00,M,M,M,M,M,M,M,M,M,M,78.08,KJFK 161351Z 34010KT 10SM FEW250 26/18 A2991 RMK AO2 SLP129 T02560178
JFK,2012-08-16 14:51,-73.7622,40.6386,78.98,64.04,60.23,340.00,9.00,0.00,29.91,1012.90,10.00,M,FEW,M,M,M,4200.00,M,M,M,M,M,M,M,M,M,M,78.98,KJFK 161451Z 34009KT 10SM FEW042 26/18 A2991 RMK AO2 SLP129 T02610178 51001
JFK,2012-08-16 15:51,-73.7622,40.6386,82.04,62.06,50.84,360.00,10.00,0.00,29.90,1012.60,10.00,M,FEW,M,M,M,4000.00,M,M,M,M,M,M,M,M,M,M,82.94,KJFK 161551Z 36010KT 10SM FEW040 28/17 A2990 RMK AO2 SLP126 T02780167
JFK,2012-08-16 16:51,-73.7622,40.6386,82.94,62.06,49.37,10.00,8.00,0.00,29.89,1012.20,10.00,M,FEW,M,M,M,4300.00,M,M,M,M,M,M,M,M,M,M,83.72,KJFK 161651Z 01008KT 340V050 10SM FEW043 28/17 A2989 RMK AO2 SLP122 T02830167 $
JFK,2012-08-16 17:51,-73.7622,40.6386,84.02,60.08,44.45,330.00,9.00,0.00,29.88,1011.80,10.00,M,SCT,M,M,M,5000.00,M,M,M,M,M,M,M,M,M,M,84.06,KJFK 161751Z 33009KT 10SM SCT050 29/16 A2988 RMK AO2 SLP118 T02890156 10294 20222 58010
JFK,2012-08-16 18:51,-73.7622,40.6386,87.08,57.92,37.31,300.00,9.00,0.00,29.88,1011.80,10.00,M,SCT,M,M,M,5500.00,M,M,M,M,M,M,M,M,M,M,87.08,KJFK 161851Z 30009KT 10SM SCT055 31/14 A2988 RMK AO2 SLP118 T03060144 $
JFK,2012-08-16 19:51,-73.7622,40.6386,84.92,55.94,37.21,330.00,5.00,0.00,29.88,1011.70,10.00,M,SCT,M,M,M,6000.00,M,M,M,M,M,M,M,M,M,M,84.92,KJFK 161951Z 33005KT 10SM SCT060 29/13 A2988 RMK AO2 SLP117 T02940133 $
JFK,2012-08-16 20:51,-73.7622,40.6386,87.08,53.96,32.32,340.00,10.00,0.00,29.86,1011.20,10.00,14.00,SCT,M,M,M,6500.00,M,M,M,M,M,M,M,M,M,M,87.08,KJFK 162051Z 34010G14KT 10SM SCT065 31/12 A2986 RMK AO2 SLP112 T03060122 58006 $
JFK,2012-08-16 21:51,-73.7622,40.6386,86.00,55.94,35.95,270.00,15.00,0.00,29.86,1011.20,10.00,M,SCT,M,M,M,7000.00,M,M,M,M,M,M,M,M,M,M,86.00,KJFK 162151Z 27015KT 10SM SCT070 30/13 A2986 RMK AO2 SLP112 T03000133
JFK,2012-08-16 22:51,-73.7622,40.6386,84.02,51.98,33.14,290.00,9.00,0.00,29.87,1011.30,10.00,17.00,FEW,M,M,M,7000.00,M,M,M,M,M,M,M,M,M,M,84.02,KJFK 162251Z 29009G17KT 10SM FEW070 29/11 A2987 RMK AO2 SLP113 T02890111
JFK,2012-08-16 23:51,-73.7622,40.6386,80.96,53.96,39.36,310.00,8.00,0.00,29.86,1011.10,10.00,M,FEW,SCT,M,M,7000.00,25000.00,M,M,M,M,M,M,M,M,M,80.96,KJFK 162351Z 31008KT 10SM FEW070 SCT250 27/12 A2986 RMK AO2 SLP111 T02720122 10311 20272 58001
JFK,2012-08-17 00:51,-73.7622,40.6386,80.06,57.02,45.30,260.00,7.00,0.00,29.88,1011.70,10.00,M,FEW,M,M,M,25000.00,M,M,M,M,M,M,M,M,M,M,80.42,KJFK 170051Z 26007KT 10SM FEW250 27/14 A2988 RMK AO2 SLP117 T02670139
JFK,2012-08-17 01:51,-73.7622,40.6386,80.06,59.00,48.64,240.00,8.00,0.00,29.88,1011.80,10.00,M,FEW,M,M,M,25000.00,M,M,M,M,M,M,M,M,M,M,80.73,KJFK 170151Z 24008KT 10SM FEW250 27/15 A2988 RMK AO2 SLP118 T02670150
JFK,2012-08-17 02:51,-73.7622,40.6386,78.08,60.98,55.70,260.00,8.00,0.00,29.89,1012.20,10.00,M,FEW,M,M,M,25000.00,M,M,M,M,M,M,M,M,M,M,78.08,KJFK 170251Z 26008KT 10SM FEW250 26/16 A2989 RMK AO2 SLP122 T02560161 51011
JFK,2012-08-17 03:51,-73.7622,40.6386,75.02,60.98,61.66,250.00,7.00,0.00,29.90,1012.50,10.00,M,CLR,M,M,M,M,M,M,M,M,M,M,M,M,M,M,75.02,KJFK 170351Z 25007KT 10SM CLR 24/16 A2990 RMK AO2 SLP125 T02390161
JFK,2012-08-17 04:51,-73.7622,40.6386,73.04,62.06,68.47,240.00,5.00,0.00,29.90,1012.50,10.00,M,CLR,M,M,M,M,M,M,M,M,M,M,M,M,M,M,73.04,KJFK 170451Z 24005KT 10SM CLR 23/17 A2990 RMK AO2 SLP125 T02280167 403110206
JFK,2012-08-17 05:51,-73.7622,40.6386,73.04,60.98,65.90,260.00,6.00,0.00,29.89,1012.20,10.00,M,CLR,M,M,M,M,M,M,M,M,M,M,M,M,M,M,73.04,KJFK 170551Z 26006KT 10SM CLR 23/16 A2989 RMK AO2 SLP122 T02280161 10272 20217 50000
JFK,2012-08-17 06:51,-73.7622,40.6386,71.96,60.98,68.35,260.00,7.00,0.00,29.90,1012.30,10.00,M,CLR,M,M,M,M,M,M,M,M,M,M,M,M,M,M,71.96,KJFK 170651Z 26007KT 10SM CLR 22/16 A2990 RMK AO2 SLP123 T02220161
JFK,2012-08-17 07:51,-73.7622,40.6386,69.98,60.98,73.11,260.00,5.00,0.00,29.89,1012.10,10.00,M,CLR,M,M,M,M,M,M,M,M,M,M,M,M,M,M,69.98,KJFK 170751Z 26005KT 10SM CLR 21/16 A2989 RMK AO2 SLP121 T02110161
JFK,2012-08-17 08:51,-73.7622,40.6386,69.08,62.06,78.33,240.00,4.00,0.00,29.88,1011.70,10.00,M,CLR,M,M,M,M,M,M,M,M,M,M,M,M,M,M,69.08,KJFK 170851Z 24004KT 10SM CLR 21/17 A2988 RMK AO2 SLP117 T02060167 58005
JFK,2012-08-17 09:51,-73.7622,40.6386,69.08,60.98,75.40,230.00,4.00,0.00,29.87,1011.50,10.00,M,SCT,M,M,M,25000.00,M,M,M,M,M,M,M,M,M,M,69.08,KJFK 170951Z 23004KT 10SM SCT250 21/16 A2987 RMK AO2 SLP115 T02060161
JFK,2012-08-17 10:51,-73.7622,40.6386,69.98,64.04,81.44,210.00,5.00,0.00,29.88,1011.80,10.00,M,BKN,M,M,M,27000.00,M,M,M,M,M,M,M,M,M,M,69.98,KJFK 171051Z 21005KT 10SM BKN270 21/18 A2988 RMK AO2 SLP118 T02110178
JFK,2012-08-17 11:51,-73.7622,40.6386,73.94,64.94,73.49,220.00,3.00,0.00,29.88,1011.80,10.00,M,BKN,M,M,M,27000.00,M,M,M,M,M,M,M,M,M,M,73.94,KJFK 171151Z 22003KT 10SM BKN270 23/18 A2988 RMK AO2 SLP118 T02330183 10233 20206 53001
JFK,2012-08-17 12:51,-73.7622,40.6386,77.00,64.04,64.30,210.00,5.00,0.00,29.88,1011.70,10.00,M,SCT,M,M,M,27000.00,M,M,M,M,M,M,M,M,M,M,77.00,KJFK 171251Z 21005KT 10SM SCT270 25/18 A2988 RMK AO2 SLP117 T02500178
JFK,2012-08-17 13:51,-73.7622,40.6386,80.06,64.94,59.99,210.00,7.00,0.00,29.88,1011.70,10.00,M,FEW,M,M,M,27000.00,M,M,M,M,M,M,M,M,M,M,81.88,KJFK 171351Z 21007KT 10SM FEW270 27/18 A2988 RMK AO2 SLP117 T02670183
JFK,2012-08-17 14:51,-73.7622,40.6386,80.06,64.94,59.99,190.00,9.00,0.00,29.87,1011.30,10.00,M,FEW,M,M,M,27000.00,M,M,M,M,M,M,M,M,M,M,81.88,KJFK 171451Z 19009KT 10SM FEW270 27/18 A2987 RMK AO2 SLP113 T02670183 58005
JFK,2012-08-17 15:51,-73.7622,40.6386,82.04,68.00,62.53,200.00,8.00,0.00,29.87,1011.30,10.00,M,CLR,M,M,M,M,M,M,M,M,M,M,M,M,M,M,84.97,KJFK 171551Z 20008KT 10SM CLR 28/20 A2987 RMK AO2 SLP113 T02780200
JFK,2012-08-17 16:51,-73.7622,40.6386,82.94,69.08,63.03,190.00,9.00,0.00,29.85,1010.80,10.00,M,FEW,M,M,M,3500.00,M,M,M,M,M,M,M,M,M,M,86.52,KJFK 171651Z 19009KT 10SM FEW035 28/21 A2985 RMK AO2 SLP108 T02830206
JFK,2012-08-17 17:51,-73.7622,40.6386,84.92,68.00,56.98,190.00,11.00,0.00,29.84,1010.30,10.00,M,FEW,M,M,M,4200.00,M,M,M,M,M,M,M,M,M,M,88.21,KJFK 171751Z 19011KT 10SM FEW042 29/20 A2984 RMK AO2 SLP103 T02940200 10294 20233 58010
JFK,2012-08-17 18:51,-73.7622,40.6386,84.02,69.98,62.77,190.00,14.00,0.00,29.82,1009.80,10.00,M,FEW,SCT,M,M,5000.00,25000.00,M,M,M,M,M,M,M,M,M,88.32,KJFK 171851Z 19014KT 10SM FEW050 SCT250 29/21 A2982 RMK AO2 SLP098 T02890211
JFK,2012-08-17 19:51,-73.7622,40.6386,84.02,69.08,60.87,190.00,17.00,0.00,29.80,1009.20,10.00,M,FEW,SCT,SCT,M,5000.00,15000.00,25000.00,M,M,M,M,M,M,M,M,87.79,KJFK 171951Z 19017KT 10SM FEW050 SCT150 SCT250 29/21 A2980 RMK AO2 SLP092 T02890206
JFK,2012-08-17 20:51,-73.7622,40.6386,82.94,69.08,63.03,190.00,16.00,0.00,29.79,1008.80,10.00,21.00,FEW,SCT,SCT,M,5000.00,15000.00,25000.00,M,M,M,M,M,M,M,M,86.52,KJFK 172051Z 19016G21KT 10SM FEW050 SCT150 SCT250 28/21 A2979 RMK AO2 SLP088 T02830206 56015
JFK,2012-08-17 21:51,-73.7622,40.6386,80.96,71.06,71.92,190.00,15.00,0.00,29.79,1008.80,9.00,M,FEW,SCT,SCT,M,5000.00,15000.00,25000.00,M,M,M,M,M,M,M,M,84.88,KJFK 172151Z 19015KT 9SM FEW050 SCT150 SCT250 27/22 A2979 RMK AO2 SLP088 TCU DSNT W-NW T02720217
JFK,2012-08-17 22:51,-73.7622,40.6386,80.06,71.06,74.07,190.00,18.00,0.00,29.79,1008.90,9.00,M,FEW,BKN,BKN,M,6000.00,15000.00,25000.00,M,M,M,M,M,M,M,M,83.56,KJFK 172251Z 19018KT 9SM FEW060 BKN150 BKN250 27/22 A2979 RMK AO2 SLP089 TCU DSNT W-NW T02670217
JFK,2012-08-17 23:51,-73.7622,40.6386,78.98,71.06,76.74,200.00,16.00,0.00,29.80,1009.20,8.00,M,SCT,SCT,BKN,BKN,6000.00,9000.00,16000.00,25000.00,M,M,M,M,M,M,M,78.98,KJFK 172351Z 20016KT 8SM SCT060CB SCT090 BKN160 BKN250 26/22 A2980 RMK AO2 SLP092 OCNL LTGICCG NW CB NW MOV NE T02610217 10294 20261 53003
JFK,2012-08-18 00:47,-73.7622,40.6386,78.80,68.00,69.52,210.00,16.00,0.00,29.81,M,10.00,M,SCT,BKN,BKN,M,6000.00,18000.00,24000.00,M,TS,M,M,M,M,M,M,78.80,KJFK 180047Z 21016KT 10SM TS SCT060CB BKN180 BKN240 26/20 A2981 RMK AO2 TSB46 FRQ LTGICCG W-NW TS W-NW MOV NE
JFK,2012-08-18 00:51,-73.7622,40.6386,78.98,66.92,66.58,210.00,12.00,0.00,29.82,1009.70,10.00,M,SCT,BKN,BKN,M,6000.00,18000.00,24000.00,M,TS,M,M,M,M,M,M,78.98,KJFK 180051Z 21012KT 10SM TS SCT060CB BKN180 BKN240 26/19 A2982 RMK AO2 TSB46 SLP097 FRQ LTGICCG W-NW TS W-NW MOV NE T02610194
JFK,2012-08-18 01:16,-73.7622,40.6386,80.60,66.20,61.58,300.00,9.00,0.00,29.83,M,10.00,19.00,SCT,SCT,BKN,BKN,3500.00,6000.00,18000.00,24000.00,TS,M,M,M,M,M,M,82.75,KJFK 180116Z 30009G19KT 10SM TS SCT035 SCT060CB BKN180 BKN240 27/19 A2983 RMK AO2 WSHFT 0056 FRQ LTGIC NW-N TS NW-N MOV NE
JFK,2012-08-18 01:39,-73.7622,40.6386,77.00,66.20,69.33,340.00,7.00,0.00,29.84,M,10.00,M,FEW,SCT,BKN,M,3700.00,6000.00,21000.00,M,M,M,M,M,M,M,M,77.00,KJFK 180139Z 34007KT 10SM FEW037 SCT060 BKN210 25/19 A2984 RMK AO2 WSHFT 0056 TSE39 FRQ LTGIC DSNT N-NE CB DSNT N-NE
JFK,2012-08-18 01:51,-73.7622,40.6386,75.92,66.92,73.68,10.00,6.00,0.00,29.84,1010.40,10.00,M,FEW,SCT,BKN,M,3500.00,6000.00,21000.00,M,M,M,M,M,M,M,M,75.92,KJFK 180151Z 01006KT 10SM FEW035 SCT060 BKN210 24/19 A2984 RMK AO2 WSHFT 0056 TSE39 SLP104 OCNL LTGIC DSNT NE CB DSNT NE T02440194
JFK,2012-08-18 02:51,-73.7622,40.6386,78.08,64.94,64.03,M,3.00,0.00,29.84,1010.30,10.00,M,FEW,BKN,OVC,M,6000.00,16000.00,26000.00,M,M,M,M,M,M,M,M,78.08,KJFK 180251Z VRB03KT 10SM FEW060 BKN160 OVC260 26/18 A2984 RMK AO2 SLP103 T02560183 50008
JFK,2012-08-18 03:51,-73.7622,40.6386,75.92,66.02,71.42,40.00,4.00,0.00,29.84,1010.50,10.00,M,SCT,BKN,OVC,M,6000.00,10000.00,15000.00,M,-RA,M,M,M,M,M,M,75.92,KJFK 180351Z 04004KT 10SM -RA SCT060 BKN100 OVC150 24/19 A2984 RMK AO2 RAB45 SLP105 P0000 T02440189
JFK,2012-08-18 04:51,-73.7622,40.6386,75.02,66.02,73.59,320.00,7.00,0.00,29.87,1011.60,9.00,M,BKN,BKN,OVC,M,4000.00,6000.00,10000.00,M,-TSRA,M,M,M,M,M,M,75.02,KJFK 180451Z 32007KT 9SM -TSRA BKN040CB BKN060 OVC100 24/19 A2987 RMK AO2 TSB46RAE0357B25 PRESRR SLP116 FRQ LTGICCG OHD TS OHD MOV E P0000 T02390189 402940206
JFK,2012-08-18 05:27,-73.7622,40.6386,69.80,66.20,88.34,340.00,12.00,0.03,29.86,M,10.00,M,SCT,BKN,BKN,OVC,4100.00,7000.00,11000.00,16000.00,-RA,M,M,M,M,M,M,69.80,KJFK 180527Z 34012KT 10SM -RA SCT041CB BKN070 BKN110 OVC160 21/19 A2986 RMK AO2 TSE27 OCNL LTGICCCCG DSNT N-E CB DSNT N-E P0003 $
JFK,2012-08-18 05:51,-73.7622,40.6386,69.08,64.94,86.66,350.00,9.00,0.05,29.85,1010.70,10.00,M,SCT,BKN,BKN,OVC,3900.00,6500.00,11000.00,16000.00,M,M,M,M,M,M,M,69.08,KJFK 180551Z 35009KT 10SM SCT039 BKN065 BKN110 OVC160 21/18 A2985 RMK AO2 TSE27RAE38 SLP107 OCNL LTGICCC DSNT NE CB DSNT NE P0005 60005 T02060183 10272 20206 50004 $
JFK,2012-08-18 06:51,-73.7622,40.6386,68.00,64.94,89.94,330.00,10.00,0.02,29.85,1010.80,10.00,M,SCT,BKN,BKN,OVC,6000.00,7500.00,10000.00,17000.00,M,M,M,M,M,M,M,68.00,KJFK 180651Z 33010KT 10SM SCT060 BKN075 BKN100 OVC170 20/18 A2985 RMK AO2 SLP108 P0002 T02000183 $
JFK,2012-08-18 07:51,-73.7622,40.6386,68.00,64.94,89.94,340.00,5.00,0.00,29.85,1010.70,10.00,M,FEW,SCT,BKN,OVC,900.00,7500.00,9500.00,14000.00,M,M,M,M,M,M,M,68.00,KJFK 180751Z 34005KT 10SM FEW009 SCT075 BKN095 OVC140 20/18 A2985 RMK AO2 SLP107 T02000183 $
JFK,2012-08-18 08:27,-73.7622,40.6386,68.00,64.40,88.26,10.00,7.00,0.00,29.85,M,10.00,M,BKN,BKN,OVC,M,900.00,1500.00,7500.00,M,M,M,M,M,M,M,M,68.00,KJFK 180827Z 01007KT 10SM BKN009 BKN015 OVC075 20/18 A2985 RMK AO2 $
JFK,2012-08-18 08:51,-73.7622,40.6386,68.00,66.02,93.38,20.00,11.00,0.22,29.87,1011.40,8.00,15.00,BKN,BKN,OVC,M,900.00,1500.00,2500.00,M,-RA,M,M,M,M,M,M,68.00,KJFK 180851Z 02011G15KT 8SM -RA BKN009 BKN015 OVC025 20/19 A2987 RMK AO2 RAB31 SLP114 P0022 60024 T02000189 53007 $
JFK,2012-08-18 09:22,-73.7622,40.6386,64.40,62.60,93.88,20.00,10.00,0.00,29.87,M,10.00,M,SCT,SCT,BKN,OVC,900.00,1900.00,5000.00,13000.00,-RA,M,M,M,M,M,M,64.40,KJFK 180922Z 02010KT 10SM -RA SCT009 SCT019 BKN050 OVC130 18/17 A2987 RMK AO2 P0000 $
JFK,2012-08-18 09:51,-73.7622,40.6386,64.94,60.98,87.00,40.00,12.00,0.02,29.87,1011.40,10.00,M,FEW,BKN,OVC,M,1300.00,5000.00,13000.00,M,-RA,M,M,M,M,M,M,64.94,KJFK 180951Z 04012KT 10SM -RA FEW013 BKN050 OVC130 18/16 A2987 RMK AO2 SLP114 P0002 T01830161 $
JFK,2012-08-18 10:51,-73.7622,40.6386,64.94,62.06,90.39,30.00,8.00,0.01,29.89,1012.00,10.00,M,FEW,BKN,OVC,M,1300.00,4400.00,11000.00,M,-RA,M,M,M,M,M,M,64.94,KJFK 181051Z 03008KT 10SM -RA FEW013 BKN044 OVC110 18/17 A2989 RMK AO2 SLP120 P0001 T01830167 $
JFK,2012-08-18 11:51,-73.7622,40.6386,66.02,62.06,87.05,20.00,4.00,0.01,29.91,1012.60,10.00,M,FEW,BKN,OVC,M,1100.00,5000.00,8000.00,M,-RA,M,M,M,M,M,M,66.02,KJFK 181151Z 02004KT 10SM -RA FEW011 BKN050 OVC080 19/17 A2991 RMK AO2 SLP126 P0001 60028 70033 T01890167 10206 20178 53012 $
JFK,2012-08-18 12:51,-73.7622,40.6386,66.02,62.06,87.05,20.00,7.00,0.03,29.91,1012.70,10.00,M,FEW,SCT,OVC,M,1100.00,5500.00,8000.00,M,-RA,M,M,M,M,M,M,66.02,KJFK 181251Z 02007KT 10SM -RA FEW011 SCT055 OVC080 19/17 A2991 RMK AO2 SLP127 P0003 T01890167 $
JFK,2012-08-18 13:51,-73.7622,40.6386,66.92,64.04,90.46,20.00,7.00,0.01,29.90,1012.50,10.00,M,FEW,BKN,BKN,BKN,1500.00,6000.00,10000.00,15000.00,-RA,M,M,M,M,M,M,66.92,KJFK 181351Z 02007KT 10SM -RA FEW015 BKN060 BKN100 BKN150 19/18 A2990 RMK AO2 SLP125 P0001 T01940178 $
JFK,2012-08-18 14:51,-73.7622,40.6386,69.08,62.06,78.33,20.00,9.00,0.00,29.92,1013.20,10.00,M,SCT,BKN,BKN,M,1500.00,7500.00,15000.00,M,M,M,M,M,M,M,M,69.08,KJFK 181451Z 02009KT 10SM SCT015 BKN075 BKN150 21/17 A2992 RMK AO2 RAE17 SLP132 P0000 60004 T02060167 53005 $
JFK,2012-08-18 15:51,-73.7622,40.6386,71.96,62.06,71.01,40.00,7.00,0.00,29.92,1013.30,10.00,M,SCT,BKN,BKN,M,2000.00,7500.00,15000.00,M,M,M,M,M,M,M,M,71.96,KJFK 181551Z 04007KT 10SM SCT020 BKN075 BKN150 22/17 A2992 RMK AO2 SLP133 T02220167 $
JFK,2012-08-18 16:51,-73.7622,40.6386,75.02,60.98,61.66,10.00,8.00,0.00,29.90,1012.60,10.00,M,SCT,SCT,BKN,M,2800.00,8000.00,15000.00,M,M,M,M,M,M,M,M,75.02,KJFK 181651Z 01008KT 10SM SCT028 SCT080 BKN150 24/16 A2990 RMK AO2 SLP126 T02390161 $
JFK,2012-08-18 17:51,-73.7622,40.6386,77.00,60.08,55.91,360.00,5.00,0.00,29.89,1012.30,10.00,M,FEW,SCT,BKN,M,3000.00,10000.00,25000.00,M,M,M,M,M,M,M,M,77.00,KJFK 181751Z 36005KT 10SM FEW030 SCT100 BKN250 25/16 A2989 RMK AO2 SLP123 60004 T02500156 10250 20183 58009 $
JFK,2012-08-18 18:51,-73.7622,40.6386,78.98,60.08,52.37,M,3.00,0.00,29.88,1011.80,10.00,M,SCT,SCT,SCT,M,4100.00,10000.00,25000.00,M,M,M,M,M,M,M,M,78.98,KJFK 181851Z VRB03KT 10SM SCT041 SCT100 SCT250 26/16 A2988 RMK AO2 SLP118 T02610156 $
JFK,2012-08-18 19:51,-73.7622,40.6386,80.06,57.02,45.30,350.00,8.00,0.00,29.87,1011.40,10.00,M,SCT,BKN,BKN,M,4800.00,10000.00,25000.00,M,M,M,M,M,M,M,M,80.42,KJFK 181951Z 35008KT 10SM SCT048 BKN100 BKN250 27/14 A2987 RMK AO2 SLP114 T02670139 $
JFK,2012-08-18 20:51,-73.7622,40.6386,77.00,60.08,55.91,220.00,6.00,0.00,29.86,1011.20,10.00,M,BKN,BKN,BKN,M,4800.00,10000.00,25000.00,M,M,M,M,M,M,M,M,77.00,KJFK 182051Z 22006KT 10SM BKN048 BKN100 BKN250 25/16 A2986 RMK AO2 SLP112 BKN048 V SCT T02500156 56010 $
JFK,2012-08-18 21:51,-73.7622,40.6386,75.02,62.96,66.13,190.00,7.00,0.00,29.86,1011.00,10.00,M,SCT,SCT,M,M,4800.00,25000.00,M,M,M,M,M,M,M,M,M,75.02,KJFK 182151Z 19007KT 10SM SCT048 SCT250 24/17 A2986 RMK AO2 SLP110 T02390172 $
JFK,2012-08-18 22:51,-73.7622,40.6386,73.04,62.96,70.68,200.00,6.00,0.00,29.87,1011.30,10.00,M,FEW,SCT,SCT,BKN,5500.00,7500.00,10000.00,25000.00,M,M,M,M,M,M,M,73.04,KJFK 182251Z 20006KT 10SM FEW055 SCT075 SCT100 BKN250 23/17 A2987 RMK AO2 SLP113 T02280172 $
JFK,2012-08-18 23:51,-73.7622,40.6386,71.06,62.96,75.57,180.00,4.00,0.00,29.88,1011.70,10.00,M,SCT,SCT,BKN,M,7500.00,10000.00,25000.00,M,M,M,M,M,M,M,M,71.06,KJFK 182351Z 18004KT 10SM SCT075 SCT100 BKN250 22/17 A2988 RMK AO2 SLP117 T02170172 10272 20217 53005 $
JFK,2012-08-19 00:51,-73.7622,40.6386,71.96,62.96,73.30,0.00,0.00,0.00,29.90,1012.40,10.00,M,SCT,SCT,SCT,M,7500.00,10000.00,25000.00,M,M,M,M,M,M,M,M,71.96,KJFK 190051Z 00000KT 10SM SCT075 SCT100 SCT250 22/17 A2990 RMK AO2 SLP124 T02220172 $
JFK,2012-08-19 01:51,-73.7622,40.6386,71.96,62.96,73.30,M,3.00,0.00,29.91,1012.80,10.00,M,SCT,SCT,SCT,M,7500.00,10000.00,25000.00,M,M,M,M,M,M,M,M,71.96,KJFK 190151Z VRB03KT 10SM SCT075 SCT100 SCT250 22/17 A2991 RMK AO2 SLP128 T02220172 $
JFK,2012-08-19 02:51,-73.7622,40.6386,69.98,53.06,54.94,340.00,7.00,0.00,29.93,1013.40,10.00,M,SCT,SCT,M,M,7000.00,27000.00,M,M,M,M,M,M,M,M,M,69.98,KJFK 190251Z 34007KT 10SM SCT070 SCT270 21/12 A2993 RMK AO2 SLP134 T02110117 51017 $
JFK,2012-08-19 03:51,-73.7622,40.6386,69.08,53.06,56.66,350.00,7.00,0.00,29.93,1013.50,10.00,M,SCT,M,M,M,27000.00,M,M,M,M,M,M,M,M,M,M,69.08,KJFK 190351Z 35007KT 10SM SCT270 21/12 A2993 RMK AO2 SLP135 T02060117 $
JFK,2012-08-19 04:51,-73.7622,40.6386,68.00,55.94,65.31,20.00,4.00,0.00,29.93,1013.60,10.00,M,SCT,M,M,M,27000.00,M,M,M,M,M,M,M,M,M,M,68.00,KJFK 190451Z 02004KT 10SM SCT270 20/13 A2993 RMK AO2 SLP136 T02000133 402720178 $
JFK,2012-08-19 05:51,-73.7622,40.6386,66.92,59.00,75.69,10.00,5.00,0.00,29.93,1013.60,10.00,M,FEW,M,M,M,27000.00,M,M,M,M,M,M,M,M,M,M,66.92,KJFK 190551Z 01005KT 10SM FEW270 19/15 A2993 RMK AO2 SLP136 T01940150 10222 20194 51002 $
JFK,2012-08-19 06:51,-73.7622,40.6386,66.02,57.92,75.12,10.00,8.00,0.00,29.94,1013.80,10.00,M,FEW,M,M,M,27000.00,M,M,M,M,M,M,M,M,M,M,66.02,KJFK 190651Z 01008KT 10SM FEW270 19/14 A2994 RMK AO2 SLP138 T01890144 $
JFK,2012-08-19 07:51,-73.7622,40.6386,64.94,55.04,70.28,10.00,6.00,0.00,29.95,1014.10,10.00,M,CLR,M,M,M,M,M,M,M,M,M,M,M,M,M,M,64.94,KJFK 190751Z 01006KT 10SM CLR 18/13 A2995 RMK AO2 SLP141 T01830128 $
JFK,2012-08-19 08:51,-73.7622,40.6386,64.04,53.96,69.72,10.00,3.00,0.00,29.96,1014.40,10.00,M,CLR,M,M,M,M,M,M,M,M,M,M,M,M,M,M,64.04,KJFK 190851Z 01003KT 10SM CLR 18/12 A2996 RMK AO2 SLP144 T01780122 53008 $
JFK,2012-08-19 09:51,-73.7622,40.6386,64.04,53.96,M,M,M,0.00,29.97,1014.90,10.00,M,SCT,M,M,M,26000.00,M,M,M,M,M,M,M,M,M,M,M,KJFK 190951Z 10SM SCT260 18/12 A2997 RMK AO2 SLP149 T01780122 $
JFK,2012-08-19 10:51,-73.7622,40.6386,64.04,53.96,69.72,10.00,5.00,0.00,29.96,1014.60,10.00,M,FEW,SCT,M,M,3000.00,26000.00,M,M,M,M,M,M,M,M,M,64.04,KJFK 191051Z 01005KT 10SM FEW030 SCT260 18/12 A2996 RMK AO2 SLP146 T01780122 $
JFK,2012-08-19 11:51,-73.7622,40.6386,66.92,51.98,58.65,360.00,7.00,0.00,29.98,1015.10,10.00,M,FEW,BKN,M,M,3000.00,26000.00,M,M,M,M,M,M,M,M,M,66.92,KJFK 191151Z 36007KT 10SM FEW030 BKN260 19/11 A2998 RMK AO2 SLP151 70004 T01940111 10194 20172 52007 $
JFK,2012-08-19 12:51,-73.7622,40.6386,71.06,51.08,49.23,10.00,7.00,0.00,29.99,1015.30,10.00,M,BKN,M,M,M,23000.00,M,M,M,M,M,M,M,M,M,M,71.06,KJFK 191251Z 01007KT 10SM BKN230 22/11 A2999 RMK AO2 SLP153 T02170106 $
JFK,2012-08-19 13:51,-73.7622,40.6386,73.04,53.06,49.52,20.00,6.00,0.00,29.98,1015.20,10.00,M,SCT,BKN,M,M,18000.00,23000.00,M,M,M,M,M,M,M,M,M,73.04,KJFK 191351Z 02006KT 10SM SCT180 BKN230 23/12 A2998 RMK AO2 SLP152 T02280117 $
JFK,2012-08-19 14:51,-73.7622,40.6386,73.94,50.00,42.91,340.00,9.00,0.00,29.99,1015.40,10.00,M,BKN,M,M,M,21000.00,M,M,M,M,M,M,M,M,M,M,73.94,KJFK 191451Z 34009KT 10SM BKN210 23/10 A2999 RMK AO2 SLP154 T02330100 52003 $
JFK,2012-08-19 15:51,-73.7622,40.6386,73.94,50.00,42.91,340.00,5.00,0.00,29.98,1015.20,10.00,M,FEW,BKN,M,M,13000.00,20000.00,M,M,M,M,M,M,M,M,M,73.94,KJFK 191551Z 34005KT 10SM FEW130 BKN200 23/10 A2998 RMK AO2 SLP152 T02330100
JFK,2012-08-19 16:51,-73.7622,40.6386,73.94,51.08,44.66,360.00,6.00,0.00,29.99,1015.40,10.00,M,FEW,SCT,BKN,M,4500.00,13000.00,20000.00,M,M,M,M,M,M,M,M,73.94,KJFK 191651Z 36006KT 10SM FEW045 SCT130 BKN200 23/11 A2999 RMK AO2 SLP154 T02330106
JFK,2012-08-19 17:51,-73.7622,40.6386,75.02,51.98,44.53,360.00,10.00,0.00,29.98,1015.20,10.00,M,FEW,SCT,BKN,M,4000.00,14000.00,20000.00,M,M,M,M,M,M,M,M,75.02,KJFK 191751Z 36010KT 10SM FEW040 SCT140 BKN200 24/11 A2998 RMK AO2 SLP152 T02390111 10239 20200 58002
JFK,2012-08-19 18:51,-73.7622,40.6386,75.02,51.08,43.08,350.00,6.00,0.00,29.96,1014.60,10.00,M,FEW,BKN,M,M,5000.00,18000.00,M,M,M,M,M,M,M,M,M,75.02,KJFK 191851Z 35006KT 10SM FEW050 BKN180 24/11 A2996 RMK AO2 SLP146 T02390106
JFK,2012-08-19 19:51,-73.7622,40.6386,75.02,51.08,43.08,0.00,0.00,0.00,29.95,1014.20,10.00,M,FEW,BKN,BKN,M,5000.00,15000.00,20000.00,M,M,M,M,M,M,M,M,75.02,KJFK 191951Z 00000KT 10SM FEW050 BKN150 BKN200 24/11 A2995 RMK AO2 SLP142 T02390106 $
JFK,2012-08-19 20:51,-73.7622,40.6386,75.02,51.08,43.08,0.00,0.00,0.00,29.94,1013.70,10.00,M,BKN,BKN,M,M,13000.00,20000.00,M,M,M,M,M,M,M,M,M,75.02,KJFK 192051Z 00000KT 10SM BKN130 BKN200 24/11 A2994 RMK AO2 SLP137 T02390106 56015 $
JFK,2012-08-19 21:51,-73.7622,40.6386,73.04,53.06,49.52,180.00,6.00,0.00,29.93,1013.60,10.00,M,BKN,BKN,BKN,M,15000.00,20000.00,25000.00,M,M,M,M,M,M,M,M,73.04,KJFK 192151Z 18006KT 10SM BKN150 BKN200 BKN250 23/12 A2993 RMK AO2 SLP136 T02280117 $
JFK,2012-08-19 22:51,-73.7622,40.6386,71.96,53.96,53.08,210.00,8.00,0.00,29.94,1013.70,10.00,M,FEW,BKN,BKN,M,10000.00,15000.00,25000.00,M,M,M,M,M,M,M,M,71.96,KJFK 192251Z 21008KT 10SM FEW100 BKN150 BKN250 22/12 A2994 RMK AO2 SLP137 T02220122 $
JFK,2012-08-19 23:51,-73.7622,40.6386,71.06,55.04,56.93,220.00,5.00,0.00,29.93,1013.40,10.00,M,SCT,BKN,BKN,M,10000.00,13000.00,25000.00,M,-RA,M,M,M,M,M,M,71.06,KJFK 192351Z 22005KT 10SM -RA SCT100 BKN130 BKN250 22/13 A2993 RMK AO2 RAB47 SLP134 P0000 60000 T02170128 10250 20217 58003 $
JFK,2012-08-20 00:51,-73.7622,40.6386,71.06,55.94,58.82,200.00,8.00,0.00,29.94,1013.80,10.00,M,BKN,BKN,M,M,12000.00,25000.00,M,M,M,M,M,M,M,M,M,71.06,KJFK 200051Z 20008KT 10SM BKN120 BKN250 22/13 A2994 RMK AO2 RAE01 SLP138 P0000 T02170133 $
JFK,2012-08-20 01:51,-73.7622,40.6386,71.96,57.02,59.32,240.00,8.00,0.00,29.94,1013.90,10.00,M,FEW,BKN,BKN,M,4500.00,11000.00,25000.00,M,M,M,M,M,M,M,M,71.96,KJFK 200151Z 24008KT 10SM FEW045 BKN110 BKN250 22/14 A2994 RMK AO2 SLP139 T02220139 $
JFK,2012-08-20 02:51,-73.7622,40.6386,71.06,55.04,56.93,250.00,7.00,0.00,29.94,1013.70,10.00,M,OVC,M,M,M,11000.00,M,M,M,M,M,M,M,M,M,M,71.06,KJFK 200251Z 25007KT 10SM OVC110 22/13 A2994 RMK AO2 SLP137 60000 T02170128 50003 $
JFK,2012-08-20 03:51,-73.7622,40.6386,71.96,55.94,57.05,260.00,7.00,0.00,29.94,1013.80,10.00,M,OVC,M,M,M,10000.00,M,M,M,M,M,M,M,M,M,M,71.96,KJFK 200351Z 26007KT 10SM OVC100 22/13 A2994 RMK AO2 SLP138 T02220133 $
JFK,2012-08-20 04:51,-73.7622,40.6386,71.06,57.02,61.16,260.00,6.00,0.00,29.94,1013.80,10.00,M,OVC,M,M,M,10000.00,M,M,M,M,M,M,M,M,M,M,71.06,KJFK 200451Z 26006KT 10SM OVC100 22/14 A2994 RMK AO2 SLP138 T02170139 402500172 $
JFK,2012-08-20 05:51,-73.7622,40.6386,69.08,57.92,67.59,250.00,4.00,0.00,29.93,1013.40,10.00,M,BKN,M,M,M,10000.00,M,M,M,M,M,M,M,M,M,M,69.08,KJFK 200551Z 25004KT 10SM BKN100 21/14 A2993 RMK AO2 SLP134 60000 T02060144 10222 20200 58003 $
JFK,2012-08-20 06:51,-73.7622,40.6386,69.08,55.94,62.93,320.00,4.00,0.00,29.92,1013.00,10.00,M,BKN,OVC,M,M,10000.00,20000.00,M,M,M,M,M,M,M,M,M,69.08,KJFK 200651Z 32004KT 10SM BKN100 OVC200 21/13 A2992 RMK AO2 SLP130 T02060133 $
JFK,2012-08-20 07:51,-73.7622,40.6386,68.00,55.94,65.31,360.00,4.00,0.00,29.91,1012.70,10.00,M,BKN,OVC,M,M,9500.00,20000.00,M,M,M,M,M,M,M,M,M,68.00,KJFK 200751Z 36004KT 10SM BKN095 OVC200 20/13 A2991 RMK AO2 SLP127 T02000133 $
JFK,2012-08-20 08:51,-73.7622,40.6386,66.02,59.00,78.08,50.00,3.00,0.00,29.90,1012.50,10.00,M,FEW,OVC,M,M,11000.00,25000.00,M,M,M,M,M,M,M,M,M,66.02,KJFK 200851Z 05003KT 10SM FEW110 OVC250 19/15 A2990 RMK AO2 SLP125 T01890150 56010 $
JFK,2012-08-20 09:51,-73.7622,40.6386,66.92,57.92,72.81,50.00,5.00,0.00,29.90,1012.60,10.00,M,SCT,BKN,M,M,11000.00,25000.00,M,M,M,M,M,M,M,M,M,66.92,KJFK 200951Z 05005KT 10SM SCT110 BKN250 19/14 A2990 RMK AO2 SLP126 T01940144 $
JFK,2012-08-20 10:51,-73.7622,40.6386,66.02,59.00,78.08,40.00,5.00,0.00,29.92,1013.10,10.00,M,FEW,SCT,BKN,M,8500.00,12000.00,28000.00,M,M,M,M,M,M,M,M,66.02,KJFK 201051Z 04005KT 10SM FEW085 SCT120 BKN280 19/15 A2992 RMK AO2 SLP131 T01890150 $
JFK,2012-08-20 11:51,-73.7622,40.6386,69.08,60.08,73.02,50.00,4.00,0.00,29.92,1013.10,10.00,M,FEW,SCT,BKN,M,12000.00,22000.00,28000.00,M,M,M,M,M,M,M,M,69.08,KJFK 201151Z 05004KT 10SM FEW120 SCT220 BKN280 21/16 A2992 RMK AO2 SLP131 T02060156 10211 20189 51007 $
JFK,2012-08-20 12:51,-73.7622,40.6386,71.96,59.00,63.70,0.00,0.00,0.00,29.92,1013.30,10.00,M,FEW,SCT,BKN,M,12000.00,22000.00,28000.00,M,M,M,M,M,M,M,M,71.96,KJFK 201251Z 00000KT 10SM FEW120 SCT220 BKN280 22/15 A2992 RMK AO2 SLP133 T02220150 $
JFK,2012-08-20 13:51,-73.7622,40.6386,73.94,55.04,51.65,80.00,4.00,0.00,29.91,1012.90,10.00,M,FEW,SCT,SCT,BKN,4400.00,9000.00,20000.00,25000.00,M,M,M,M,M,M,M,73.94,KJFK 201351Z 08004KT 10SM FEW044 SCT090 SCT200 BKN250 23/13 A2991 RMK AO2 SLP129 T02330128
JFK,2012-08-20 14:51,-73.7622,40.6386,75.02,55.04,49.81,90.00,5.00,0.00,29.91,1012.80,10.00,M,FEW,SCT,BKN,BKN,4500.00,10000.00,19000.00,25000.00,M,M,M,M,M,M,M,75.02,KJFK 201451Z 09005KT 10SM FEW045 SCT100 BKN190 BKN250 24/13 A2991 RMK AO2 SLP128 T02390128 58003
JFK,2012-08-20 15:51,-73.7622,40.6386,73.94,59.00,59.58,190.00,9.00,0.00,29.92,1013.00,10.00,M,FEW,BKN,BKN,M,4500.00,18000.00,25000.00,M,M,M,M,M,M,M,M,73.94,KJFK 201551Z 19009KT 10SM FEW045 BKN180 BKN250 23/15 A2992 RMK AO2 SLP130 T02330150
JFK,2012-08-20 16:51,-73.7622,40.6386,73.94,57.92,57.32,190.00,5.00,0.00,29.91,1012.70,10.00,M,FEW,SCT,BKN,BKN,4700.00,12000.00,19000.00,25000.00,M,M,M,M,M,M,M,73.94,KJFK 201651Z 19005KT 10SM FEW047 SCT120 BKN190 BKN250 23/14 A2991 RMK AO2 SLP127 T02330144
JFK,2012-08-20 17:51,-73.7622,40.6386,75.92,59.00,55.77,170.00,6.00,0.00,29.90,1012.40,10.00,M,FEW,SCT,SCT,BKN,5000.00,11000.00,19000.00,25000.00,M,M,M,M,M,M,M,75.92,KJFK 201751Z 17006KT 10SM FEW050 SCT110 SCT190 BKN250 24/15 A2990 RMK AO2 SLP124 T02440150 10244 20206 58004
JFK,2012-08-20 18:51,-73.7622,40.6386,75.92,59.00,55.77,210.00,6.00,0.00,29.89,1012.00,10.00,M,FEW,SCT,SCT,BKN,5000.00,11000.00,18000.00,25000.00,M,M,M,M,M,M,M,75.92,KJFK 201851Z 21006KT 10SM FEW050 SCT110 SCT180 BKN250 24/15 A2989 RMK AO2 SLP120 T02440150 $
JFK,2012-08-20 19:51,-73.7622,40.6386,77.00,59.00,53.80,180.00,9.00,0.00,29.87,1011.40,10.00,M,FEW,SCT,SCT,BKN,5000.00,11000.00,18000.00,25000.00,M,M,M,M,M,M,M,77.00,KJFK 201951Z 18009KT 10SM FEW050 SCT110 SCT180 BKN250 25/15 A2987 RMK AO2 SLP114 T02500150
JFK,2012-08-20 20:51,-73.7622,40.6386,75.92,57.92,53.65,170.00,7.00,0.00,29.86,1011.30,10.00,M,FEW,SCT,SCT,SCT,5000.00,11000.00,18000.00,25000.00,M,M,M,M,M,M,M,75.92,KJFK 202051Z 17007KT 10SM FEW050 SCT110 SCT180 SCT250 24/14 A2986 RMK AO2 SLP113 T02440144 56011
JFK,2012-08-20 21:51,-73.7622,40.6386,75.02,57.92,55.28,200.00,7.00,0.00,29.88,1011.70,10.00,M,FEW,SCT,SCT,BKN,5000.00,11000.00,15000.00,25000.00,M,M,M,M,M,M,M,75.02,KJFK 202151Z 20007KT 10SM FEW050 SCT110 SCT150 BKN250 24/14 A2988 RMK AO2 SLP117 T02390144
JFK,2012-08-20 22:51,-73.7622,40.6386,73.04,59.00,61.41,190.00,8.00,0.00,29.88,1011.90,10.00,M,FEW,SCT,BKN,M,5000.00,14000.00,25000.00,M,M,M,M,M,M,M,M,73.04,KJFK 202251Z 19008KT 10SM FEW050 SCT140 BKN250 23/15 A2988 RMK AO2 SLP119 T02280150
JFK,2012-08-20 23:51,-73.7622,40.6386,71.96,60.08,66.20,170.00,6.00,0.00,29.90,1012.40,10.00,M,FEW,SCT,SCT,BKN,5000.00,10000.00,15000.00,25000.00,M,M,M,M,M,M,M,71.96,KJFK 202351Z 17006KT 10SM FEW050 SCT100 SCT150 BKN250 22/16 A2990 RMK AO2 SLP124 T02220156 10250 20222 53011
JFK,2012-08-21 00:51,-73.7622,40.6386,71.96,60.08,66.20,190.00,6.00,0.00,29.91,1012.90,10.00,M,SCT,BKN,M,M,13000.00,25000.00,M,M,M,M,M,M,M,M,M,71.96,KJFK 210051Z 19006KT 10SM SCT130 BKN250 22/16 A2991 RMK AO2 SLP129 T02220156
JFK,2012-08-21 01:51,-73.7622,40.6386,71.96,60.08,66.20,200.00,6.00,0.00,29.92,1013.20,10.00,M,FEW,SCT,BKN,M,4800.00,13000.00,25000.00,M,M,M,M,M,M,M,M,71.96,KJFK 210151Z 20006KT 10SM FEW048 SCT130 BKN250 22/16 A2992 RMK AO2 SLP132 T02220156
JFK,2012-08-21 02:51,-73.7622,40.6386,73.04,62.06,68.47,270.00,8.00,0.00,29.94,1013.70,10.00,M,BKN,BKN,OVC,M,4600.00,13000.00,25000.00,M,M,M,M,M,M,M,M,73.04,KJFK 210251Z 27008KT 10SM BKN046 BKN130 OVC250 23/17 A2994 RMK AO2 SLP137 T02280167 51013
JFK,2012-08-21 03:51,-73.7622,40.6386,71.06,60.08,68.25,240.00,4.00,0.00,29.94,1013.70,10.00,M,SCT,BKN,BKN,M,4000.00,12000.00,25000.00,M,M,M,M,M,M,M,M,71.06,KJFK 210351Z 24004KT 10SM SCT040 BKN120 BKN250 22/16 A2994 RMK AO2 SLP137 T02170156
JFK,2012-08-21 04:51,-73.7622,40.6386,69.98,60.98,73.11,200.00,4.00,0.00,29.94,1013.70,10.00,M,FEW,BKN,OVC,M,3600.00,13000.00,25000.00,M,M,M,M,M,M,M,M,69.98,KJFK 210451Z 20004KT 10SM FEW036 BKN130 OVC250 21/16 A2994 RMK AO2 SLP137 T02110161 402500189
JFK,2012-08-21 05:51,-73.7622,40.6386,71.06,60.98,70.47,60.00,3.00,0.00,29.94,1013.70,10.00,M,SCT,BKN,BKN,M,8500.00,12000.00,25000.00,M,M,M,M,M,M,M,M,71.06,KJFK 210551Z 06003KT 10SM SCT085 BKN120 BKN250 22/16 A2994 RMK AO2 SLP137 T02170161 10228 20211 51001
JFK,2012-08-21 06:51,-73.7622,40.6386,69.98,64.04,81.44,220.00,4.00,0.00,29.95,1014.20,10.00,M,OVC,M,M,M,7000.00,M,M,M,M,M,M,M,M,M,M,69.98,KJFK 210651Z 22004KT 10SM OVC070 21/18 A2995 RMK AO2 CIG 046 W SLP142 T02110178
JFK,2012-08-21 07:51,-73.7622,40.6386,69.98,62.06,75.96,360.00,3.00,0.00,29.96,1014.60,10.00,M,SCT,OVC,M,M,4800.00,8000.00,M,M,M,M,M,M,M,M,M,69.98,KJFK 210751Z 36003KT 10SM SCT048 OVC080 21/17 A2996 RMK AO2 SLP146 T02110167
JFK,2012-08-21 08:51,-73.7622,40.6386,69.08,57.02,65.44,10.00,3.00,0.00,29.96,1014.50,10.00,M,SCT,OVC,M,M,6000.00,25000.00,M,M,M,M,M,M,M,M,M,69.08,KJFK 210851Z 01003KT 10SM SCT060 OVC250 21/14 A2996 RMK AO2 SLP145 T02060139 50007
JFK,2012-08-21 09:51,-73.7622,40.6386,69.08,57.92,67.59,330.00,5.00,0.00,29.98,1015.10,10.00,M,FEW,BKN,M,M,6000.00,25000.00,M,M,M,M,M,M,M,M,M,69.08,KJFK 210951Z 33005KT 10SM FEW060 BKN250 21/14 A2998 RMK AO2 SLP151 T02060144
JFK,2012-08-21 10:51,-73.7622,40.6386,69.08,57.92,67.59,350.00,6.00,0.00,29.99,1015.50,10.00,M,BKN,M,M,M,27000.00,M,M,M,M,M,M,M,M,M,M,69.08,KJFK 211051Z 35006KT 10SM BKN270 21/14 A2999 RMK AO2 SLP155 T02060144
JFK,2012-08-21 11:51,-73.7622,40.6386,69.98,59.00,68.13,360.00,3.00,0.00,30.01,1016.10,10.00,M,FEW,BKN,M,M,22000.00,27000.00,M,M,M,M,M,M,M,M,M,69.98,KJFK 211151Z 36003KT 10SM FEW220 BKN270 21/15 A3001 RMK AO2 SLP161 T02110150 10217 20206 51017
JFK,2012-08-21 12:51,-73.7622,40.6386,73.04,59.00,61.41,20.00,7.00,0.00,30.02,1016.40,10.00,M,FEW,SCT,BKN,M,15000.00,22000.00,27000.00,M,M,M,M,M,M,M,M,73.04,KJFK 211251Z 02007KT 10SM FEW150 SCT220 BKN270 23/15 A3002 RMK AO2 SLP164 T02280150
JFK,2012-08-21 13:51,-73.7622,40.6386,75.02,60.08,59.72,40.00,6.00,0.00,30.02,1016.60,10.00,M,BKN,M,M,M,27000.00,M,M,M,M,M,M,M,M,M,M,75.02,KJFK 211351Z 04006KT 10SM BKN270 24/16 A3002 RMK AO2 SLP166 T02390156
JFK,2012-08-21 14:51,-73.7622,40.6386,77.00,57.92,51.76,20.00,6.00,0.00,30.03,1016.90,10.00,M,FEW,BKN,M,M,18000.00,27000.00,M,M,M,M,M,M,M,M,M,77.00,KJFK 211451Z 02006KT 10SM FEW180 BKN270 25/14 A3003 RMK AO2 SLP169 T02500144 51007
JFK,2012-08-21 15:51,-73.7622,40.6386,78.98,55.94,45.14,360.00,7.00,0.00,30.04,1017.00,10.00,M,FEW,SCT,BKN,M,5000.00,14000.00,27000.00,M,M,M,M,M,M,M,M,78.98,KJFK 211551Z 36007KT 10SM FEW050 SCT140 BKN270 26/13 A3004 RMK AO2 SLP170 T02610133
JFK,2012-08-21 16:51,-73.7622,40.6386,80.06,53.06,39.22,0.00,0.00,0.00,30.04,1017.30,10.00,M,FEW,BKN,M,M,5500.00,27000.00,M,M,M,M,M,M,M,M,M,80.06,KJFK 211651Z 00000KT 10SM FEW055 BKN270 27/12 A3004 RMK AO2 SLP173 T02670117
JFK,2012-08-21 17:51,-73.7622,40.6386,78.08,59.00,51.91,170.00,5.00,0.00,30.05,1017.50,10.00,M,FEW,BKN,M,M,6000.00,27000.00,M,M,M,M,M,M,M,M,M,78.08,KJFK 211751Z 17005KT 10SM FEW060 BKN270 26/15 A3005 RMK AO2 SLP175 T02560150 10272 20211 53006
JFK,2012-08-21 18:51,-73.7622,40.6386,78.08,60.98,55.70,210.00,7.00,0.00,30.04,1017.30,10.00,M,FEW,BKN,M,M,6000.00,27000.00,M,M,M,M,M,M,M,M,M,78.08,KJFK 211851Z 21007KT 10SM FEW060 BKN270 26/16 A3004 RMK AO2 SLP173 T02560161
JFK,2012-08-21 19:51,-73.7622,40.6386,78.08,62.06,57.87,190.00,9.00,0.00,30.04,1017.10,10.00,M,FEW,SCT,BKN,M,6000.00,20000.00,27000.00,M,M,M,M,M,M,M,M,78.08,KJFK 211951Z 19009KT 10SM FEW060 SCT200 BKN270 26/17 A3004 RMK AO2 SLP171 T02560167
JFK,2012-08-21 20:51,-73.7622,40.6386,78.08,60.08,53.95,170.00,8.00,0.00,30.04,1017.20,10.00,M,FEW,SCT,BKN,M,6000.00,20000.00,27000.00,M,M,M,M,M,M,M,M,78.08,KJFK 212051Z 17008KT 10SM FEW060 SCT200 BKN270 26/16 A3004 RMK AO2 SLP172 T02560156 55003
JFK,2012-08-21 21:51,-73.7622,40.6386,77.00,60.08,55.91,180.00,7.00,0.00,30.04,1017.30,10.00,M,FEW,BKN,M,M,6500.00,27000.00,M,M,M,M,M,M,M,M,M,77.00,KJFK 212151Z 18007KT 10SM FEW065 BKN270 25/16 A3004 RMK AO2 SLP173 T02500156
JFK,2012-08-21 22:51,-73.7622,40.6386,75.92,62.06,62.17,160.00,7.00,0.00,30.04,1017.30,10.00,M,FEW,BKN,M,M,6500.00,27000.00,M,M,M,M,M,M,M,M,M,75.92,KJFK 212251Z 16007KT 10SM FEW065 BKN270 24/17 A3004 RMK AO2 SLP173 T02440167
JFK,2012-08-21 23:51,-73.7622,40.6386,75.02,60.98,61.66,170.00,6.00,0.00,30.05,1017.70,10.00,M,FEW,BKN,M,M,6500.00,26000.00,M,M,M,M,M,M,M,M,M,75.02,KJFK 212351Z 17006KT 10SM FEW065 BKN260 24/16 A3005 RMK AO2 SLP177 T02390161 10267 20233 53005
JFK,2012-08-22 00:51,-73.7622,40.6386,73.94,60.98,63.94,190.00,6.00,0.00,30.08,1018.60,10.00,M,FEW,BKN,M,M,6500.00,26000.00,M,M,M,M,M,M,M,M,M,73.94,KJFK 220051Z 19006KT 10SM FEW065 BKN260 23/16 A3008 RMK AO2 SLP186 T02330161
JFK,2012-08-22 01:51,-73.7622,40.6386,71.96,64.04,76.13,190.00,3.00,0.00,30.10,1019.10,10.00,M,SCT,BKN,M,M,6000.00,26000.00,M,M,M,M,M,M,M,M,M,71.96,KJFK 220151Z 19003KT 10SM SCT060 BKN260 22/18 A3010 RMK AO2 SLP191 T02220178
JFK,2012-08-22 02:51,-73.7622,40.6386,71.96,62.96,73.30,200.00,6.00,0.00,30.11,1019.40,10.00,M,FEW,BKN,M,M,6000.00,26000.00,M,M,M,M,M,M,M,M,M,71.96,KJFK 220251Z 20006KT 10SM FEW060 BKN260 22/17 A3011 RMK AO2 SLP194 T02220172 51018
JFK,2012-08-22 03:51,-73.7622,40.6386,71.96,62.96,73.30,220.00,7.00,0.00,30.10,1019.40,10.00,M,BKN,M,M,M,26000.00,M,M,M,M,M,M,M,M,M,M,71.96,KJFK 220351Z 22007KT 10SM BKN260 22/17 A3010 RMK AO2 SLP194 T02220172
JFK,2012-08-22 04:51,-73.7622,40.6386,71.06,62.96,75.57,240.00,6.00,0.00,30.10,1019.30,10.00,M,SCT,M,M,M,26000.00,M,M,M,M,M,M,M,M,M,M,71.06,KJFK 220451Z 24006KT 10SM SCT260 22/17 A3010 RMK AO2 SLP193 T02170172 402720206
JFK,2012-08-22 05:51,-73.7622,40.6386,68.00,62.96,83.91,250.00,6.00,0.00,30.10,1019.30,10.00,M,SCT,M,M,M,26000.00,M,M,M,M,M,M,M,M,M,M,68.00,KJFK 220551Z 25006KT 10SM SCT260 20/17 A3010 RMK AO2 SLP193 T02000172 10239 20200 56001
JFK,2012-08-22 06:51,-73.7622,40.6386,69.98,62.96,78.41,260.00,5.00,0.00,30.11,1019.60,10.00,M,SCT,M,M,M,25000.00,M,M,M,M,M,M,M,M,M,M,69.98,KJFK 220651Z 26005KT 10SM SCT250 21/17 A3011 RMK AO2 SLP196 T02110172
JFK,2012-08-22 07:51,-73.7622,40.6386,69.98,62.96,78.41,280.00,5.00,0.00,30.11,1019.50,10.00,M,FEW,M,M,M,25000.00,M,M,M,M,M,M,M,M,M,M,69.98,KJFK 220751Z 28005KT 10SM FEW250 21/17 A3011 RMK AO2 SLP195 T02110172
JFK,2012-08-22 08:51,-73.7622,40.6386,69.08,62.96,80.86,280.00,3.00,0.00,30.11,1019.40,10.00,M,FEW,M,M,M,25000.00,M,M,M,M,M,M,M,M,M,M,69.08,KJFK 220851Z 28003KT 10SM FEW250 21/17 A3011 RMK AO2 SLP194 T02060172 50001
JFK,2012-08-22 09:51,-73.7622,40.6386,69.08,62.96,80.86,0.00,0.00,0.00,30.11,1019.50,10.00,M,BKN,M,M,M,25000.00,M,M,M,M,M,M,M,M,M,M,69.08,KJFK 220951Z 00000KT 10SM BKN250 21/17 A3011 RMK AO2 SLP195 T02060172
JFK,2012-08-22 10:51,-73.7622,40.6386,68.00,62.96,83.91,0.00,0.00,0.00,30.12,1019.80,9.00,M,FEW,SCT,BKN,M,3500.00,14000.00,26000.00,M,M,M,M,M,M,M,M,68.00,KJFK 221051Z 00000KT 9SM FEW035 SCT140 BKN260 20/17 A3012 RMK AO2 SLP198 T02000172
JFK,2012-08-22 11:51,-73.7622,40.6386,73.04,64.04,73.41,0.00,0.00,0.00,30.14,1020.40,10.00,M,FEW,SCT,BKN,M,3500.00,14000.00,26000.00,M,M,M,M,M,M,M,M,73.04,KJFK 221151Z 00000KT 10SM FEW035 SCT140 BKN260 23/18 A3014 RMK AO2 SLP204 T02280178 10228 20194 53010
JFK,2012-08-22 12:51,-73.7622,40.6386,75.92,64.04,66.65,0.00,0.00,0.00,30.14,1020.60,10.00,M,FEW,SCT,BKN,M,3800.00,14000.00,26000.00,M,M,M,M,M,M,M,M,75.92,KJFK 221251Z 00000KT 10SM FEW038 SCT140 BKN260 24/18 A3014 RMK AO2 SLP206 T02440178
JFK,2012-08-22 13:51,-73.7622,40.6386,78.98,60.98,54.08,0.00,0.00,0.00,30.15,1020.90,10.00,M,FEW,BKN,M,M,4000.00,26000.00,M,M,M,M,M,M,M,M,M,78.98,KJFK 221351Z 00000KT 10SM FEW040 BKN260 26/16 A3015 RMK AO2 SLP209 T02610161 $
JFK,2012-08-22 14:51,-73.7622,40.6386,80.06,64.94,59.99,200.00,7.00,0.00,30.16,1021.20,10.00,M,FEW,BKN,M,M,4300.00,26000.00,M,M,M,M,M,M,M,M,M,81.88,KJFK 221451Z 20007KT 10SM FEW043TCU BKN260 27/18 A3016 RMK AO2 SLP212 TCU NW T02670183 53008
JFK,2012-08-22 15:51,-73.7622,40.6386,80.06,62.06,54.23,190.00,8.00,0.00,30.16,1021.10,10.00,M,SCT,SCT,BKN,M,4500.00,11000.00,26000.00,M,M,M,M,M,M,M,M,81.27,KJFK 221551Z 19008KT 10SM SCT045TCU SCT110 BKN260 27/17 A3016 RMK AO2 SLP211 TCU N-NE T02670167
JFK,2012-08-22 16:51,-73.7622,40.6386,80.06,62.06,54.23,190.00,9.00,0.00,30.16,1021.20,10.00,M,FEW,SCT,BKN,M,4700.00,11000.00,26000.00,M,M,M,M,M,M,M,M,81.27,KJFK 221651Z 19009KT 10SM FEW047 SCT110 BKN260 27/17 A3016 RMK AO2 SLP212 TCU DSNT SW T02670167
JFK,2012-08-22 17:51,-73.7622,40.6386,80.96,62.96,54.35,180.00,11.00,0.00,30.15,1021.00,10.00,M,FEW,SCT,BKN,M,5000.00,11000.00,26000.00,M,M,M,M,M,M,M,M,82.24,KJFK 221751Z 18011KT 10SM FEW050TCU SCT110 BKN260 27/17 A3015 RMK AO2 SLP210 TCU NE AND DSNT SW T02720172 10272 20228 58002
JFK,2012-08-22 18:51,-73.7622,40.6386,80.96,60.08,49.09,180.00,11.00,0.00,30.14,1020.50,10.00,M,FEW,SCT,BKN,M,5000.00,11000.00,26000.00,M,M,M,M,M,M,M,M,81.59,KJFK 221851Z 18011KT 10SM FEW050 SCT110 BKN260 27/16 A3014 RMK AO2 SLP205 T02720156
JFK,2012-08-22 19:51,-73.7622,40.6386,80.06,60.98,52.19,160.00,11.00,0.00,30.13,1020.20,10.00,M,FEW,SCT,BKN,M,5000.00,11000.00,26000.00,M,M,M,M,M,M,M,M,81.07,KJFK 221951Z 16011KT 10SM FEW050 SCT110 BKN260 27/16 A3013 RMK AO2 SLP202 TCU DSNT NW-N T02670161
JFK,2012-08-22 20:51,-73.7622,40.6386,78.98,62.06,56.18,160.00,9.00,0.00,30.13,1020.30,10.00,M,FEW,SCT,BKN,M,5000.00,10000.00,26000.00,M,M,M,M,M,M,M,M,78.98,KJFK 222051Z 16009KT 10SM FEW050 SCT100 BKN260 26/17 A3013 RMK AO2 SLP203 TCU DSNT N T02610167 55007
JFK,2012-08-22 21:51,-73.7622,40.6386,78.08,62.96,59.74,190.00,10.00,0.00,30.12,1020.00,10.00,M,FEW,SCT,BKN,M,5000.00,10000.00,25000.00,M,M,M,M,M,M,M,M,78.08,KJFK 222151Z 19010KT 10SM FEW050 SCT100 BKN250 26/17 A3012 RMK AO2 SLP200 CB DSNT NW T02560172
JFK,2012-08-22 22:51,-73.7622,40.6386,75.92,62.96,64.17,180.00,9.00,0.00,30.12,1019.70,10.00,M,FEW,SCT,BKN,M,5000.00,10000.00,25000.00,M,M,M,M,M,M,M,M,75.92,KJFK 222251Z 18009KT 10SM FEW050 SCT100 BKN250 24/17 A3012 RMK AO2 SLP197 T02440172
JFK,2012-08-22 23:51,-73.7622,40.6386,75.02,64.04,68.69,160.00,7.00,0.00,30.12,1020.00,10.00,M,FEW,SCT,SCT,M,5500.00,10000.00,25000.00,M,M,M,M,M,M,M,M,75.02,KJFK 222351Z 16007KT 10SM FEW055 SCT100 SCT250 24/18 A3012 RMK AO2 SLP200 T02390178 10278 20239 55003
JFK,2012-08-23 00:51,-73.7622,40.6386,73.94,64.04,71.22,190.00,7.00,0.00,30.14,1020.60,10.00,M,FEW,SCT,M,M,10000.00,25000.00,M,M,M,M,M,M,M,M,M,73.94,KJFK 230051Z 19007KT 10SM FEW100 SCT250 23/18 A3014 RMK AO2 SLP206 T02330178
JFK,2012-08-23 01:51,-73.7622,40.6386,73.04,64.04,73.41,200.00,7.00,0.00,30.15,1020.80,10.00,M,BKN,M,M,M,25000.00,M,M,M,M,M,M,M,M,M,M,73.04,KJFK 230151Z 20007KT 10SM BKN250 23/18 A3015 RMK AO2 SLP208 T02280178
JFK,2012-08-23 02:51,-73.7622,40.6386,73.04,66.02,78.65,230.00,6.00,0.00,30.15,1020.90,10.00,M,SCT,M,M,M,25000.00,M,M,M,M,M,M,M,M,M,M,73.04,KJFK 230251Z 23006KT 10SM SCT250 23/19 A3015 RMK AO2 SLP209 T02280189 51009
JFK,2012-08-23 03:51,-73.7622,40.6386,71.96,66.02,81.57,230.00,6.00,0.00,30.15,1021.00,10.00,M,FEW,M,M,M,25000.00,M,M,M,M,M,M,M,M,M,M,71.96,KJFK 230351Z 23006KT 10SM FEW250 22/19 A3015 RMK AO2 SLP210 T02220189
JFK,2012-08-23 04:51,-73.7622,40.6386,69.98,64.94,84.04,230.00,4.00,0.00,30.15,1021.00,10.00,M,FEW,M,M,M,25000.00,M,M,M,M,M,M,M,M,M,M,69.98,KJFK 230451Z 23004KT 10SM FEW250 21/18 A3015 RMK AO2 SLP210 T02110183 402780194
JFK,2012-08-23 05:51,-73.7622,40.6386,69.98,64.94,84.04,250.00,3.00,0.00,30.15,1020.80,10.00,M,FEW,M,M,M,25000.00,M,M,M,M,M,M,M,M,M,M,69.98,KJFK 230551Z 25003KT 10SM FEW250 21/18 A3015 RMK AO2 SLP208 T02110183 10239 20206 58001
JFK,2012-08-23 06:51,-73.7622,40.6386,69.98,64.04,81.44,250.00,3.00,0.00,30.15,1020.80,10.00,M,FEW,M,M,M,25000.00,M,M,M,M,M,M,M,M,M,M,69.98,KJFK 230651Z 25003KT 10SM FEW250 21/18 A3015 RMK AO2 SLP208 T02110178
JFK,2012-08-23 07:51,-73.7622,40.6386,69.98,64.94,84.04,270.00,4.00,0.00,30.15,1020.80,10.00,M,FEW,M,M,M,25000.00,M,M,M,M,M,M,M,M,M,M,69.98,KJFK 230751Z 27004KT 10SM FEW250 21/18 A3015 RMK AO2 SLP208 T02110183
JFK,2012-08-23 08:51,-73.7622,40.6386,68.00,64.04,87.16,240.00,5.00,0.00,30.15,1020.90,10.00,M,SCT,M,M,M,25000.00,M,M,M,M,M,M,M,M,M,M,68.00,KJFK 230851Z 24005KT 10SM SCT250 20/18 A3015 RMK AO2 SLP209 T02000178 53001
JFK,2012-08-23 09:51,-73.7622,40.6386,68.00,64.04,87.16,220.00,5.00,0.00,30.15,1021.00,10.00,M,FEW,SCT,M,M,15000.00,25000.00,M,M,M,M,M,M,M,M,M,68.00,KJFK 230951Z 22005KT 10SM FEW150 SCT250 20/18 A3015 RMK AO2 SLP210 T02000178
JFK,2012-08-23 10:51,-73.7622,40.6386,69.08,64.94,86.66,210.00,3.00,0.00,30.16,1021.40,9.00,M,FEW,BKN,M,M,15000.00,25000.00,M,M,M,M,M,M,M,M,M,69.08,KJFK 231051Z 21003KT 9SM FEW150 BKN250 21/18 A3016 RMK AO2 SLP214 T02060183
JFK,2012-08-23 11:51,-73.7622,40.6386,71.96,66.92,84.16,240.00,3.00,0.00,30.16,1021.40,9.00,M,FEW,BKN,M,M,15000.00,27000.00,M,M,M,M,M,M,M,M,M,71.96,KJFK 231151Z 24003KT 9SM FEW150 BKN270 22/19 A3016 RMK AO2 SLP214 T02220194 10222 20200 51005
JFK,2012-08-23 12:51,-73.7622,40.6386,73.04,66.02,78.65,230.00,5.00,0.00,30.17,1021.70,9.00,M,BKN,M,M,M,27000.00,M,M,M,M,M,M,M,M,M,M,73.04,KJFK 231251Z 23005KT 9SM BKN270 23/19 A3017 RMK AO2 SLP217 T02280189
JFK,2012-08-23 13:51,-73.7622,40.6386,75.02,66.92,75.93,220.00,3.00,0.00,30.18,1021.80,9.00,M,FEW,BKN,M,M,20000.00,27000.00,M,M,M,M,M,M,M,M,M,75.02,KJFK 231351Z 22003KT 9SM FEW200 BKN270 24/19 A3018 RMK AO2 SLP218 T02390194
JFK,2012-08-23 14:51,-73.7622,40.6386,78.08,66.92,68.59,M,3.00,0.00,30.18,1021.80,8.00,M,BKN,M,M,M,27000.00,M,M,M,M,M,M,M,M,M,M,78.08,KJFK 231451Z VRB03KT 8SM BKN270 26/19 A3018 RMK AO2 SLP218 T02560194 50004
JFK,2012-08-23 15:51,-73.7622,40.6386,80.96,64.94,58.26,170.00,6.00,0.00,30.17,1021.60,10.00,M,FEW,SCT,BKN,M,3700.00,15000.00,27000.00,M,M,M,M,M,M,M,M,82.76,KJFK 231551Z 17006KT 10SM FEW037 SCT150 BKN270 27/18 A3017 RMK AO2 SLP216 T02720183
JFK,2012-08-23 16:51,-73.7622,40.6386,80.06,66.02,62.29,170.00,9.00,0.00,30.16,1021.10,10.00,M,FEW,BKN,M,M,4500.00,27000.00,M,M,M,M,M,M,M,M,M,82.14,KJFK 231651Z 17009KT 10SM FEW045 BKN270 27/19 A3016 RMK AO2 SLP211 T02670189
JFK,2012-08-23 17:51,-73.7622,40.6386,80.96,66.92,62.40,180.00,13.00,0.00,30.16,1021.10,10.00,M,FEW,BKN,M,M,5000.00,27000.00,M,M,M,M,M,M,M,M,M,83.36,KJFK 231751Z 18013KT 10SM FEW050 BKN270 27/19 A3016 RMK AO2 SLP211 T02720194 10278 20222 56006
JFK,2012-08-23 18:51,-73.7622,40.6386,80.96,66.02,60.49,170.00,11.00,0.00,30.14,1020.60,10.00,M,FEW,BKN,M,M,5000.00,27000.00,M,M,M,M,M,M,M,M,M,83.08,KJFK 231851Z 17011KT 10SM FEW050 BKN270 27/19 A3014 RMK AO2 SLP206 TCU DSNT N T02720189
JFK,2012-08-23 19:51,-73.7622,40.6386,80.96,64.04,56.45,180.00,11.00,0.00,30.13,1020.40,10.00,M,FEW,BKN,M,M,5000.00,27000.00,M,M,M,M,M,M,M,M,M,82.52,KJFK 231951Z 18011KT 10SM FEW050 BKN270 27/18 A3013 RMK AO2 SLP204 T02720178
JFK,2012-08-23 20:51,-73.7622,40.6386,80.06,64.04,58.14,170.00,12.00,0.00,30.12,1020.00,10.00,M,FEW,BKN,M,M,5000.00,27000.00,M,M,M,M,M,M,M,M,M,81.68,KJFK 232051Z 17012KT 10SM FEW050 BKN270 27/18 A3012 RMK AO2 SLP200 T02670178 56011
JFK,2012-08-23 21:51,-73.7622,40.6386,78.98,64.94,62.16,190.00,11.00,0.00,30.12,1020.00,10.00,M,FEW,SCT,SCT,M,5000.00,7500.00,27000.00,M,M,M,M,M,M,M,M,78.98,KJFK 232151Z 19011KT 10SM FEW050 SCT075 SCT270 26/18 A3012 RMK AO2 SLP200 T02610183
JFK,2012-08-23 22:51,-73.7622,40.6386,77.00,68.00,73.78,190.00,12.00,0.00,30.12,1020.00,10.00,M,FEW,SCT,M,M,7500.00,27000.00,M,M,M,M,M,M,M,M,M,77.00,KJFK 232251Z 19012KT 10SM FEW075 SCT270 25/20 A3012 RMK AO2 SLP200 T02500200
JFK,2012-08-23 23:51,-73.7622,40.6386,75.02,66.02,73.59,200.00,10.00,0.00,30.13,1020.20,10.00,M,BKN,M,M,M,27000.00,M,M,M,M,M,M,M,M,M,M,75.02,KJFK 232351Z 20010KT 10SM BKN270 24/19 A3013 RMK AO2 SLP202 T02390189 10278 20239 53002
JFK,2012-08-24 00:51,-73.7622,40.6386,73.94,68.00,81.71,200.00,9.00,0.00,30.14,1020.50,10.00,M,BKN,M,M,M,27000.00,M,M,M,M,M,M,M,M,M,M,73.94,KJFK 240051Z 20009KT 10SM BKN270 23/20 A3014 RMK AO2 SLP205 T02330200
JFK,2012-08-24 01:51,-73.7622,40.6386,73.94,66.02,76.31,200.00,7.00,0.00,30.14,1020.70,10.00,M,BKN,M,M,M,27000.00,M,M,M,M,M,M,M,M,M,M,73.94,KJFK 240151Z 20007KT 10SM BKN270 23/19 A3014 RMK AO2 SLP207 T02330189
JFK,2012-08-24 02:51,-73.7622,40.6386,73.04,66.92,81.14,200.00,7.00,0.00,30.15,1020.90,10.00,M,BKN,M,M,M,26000.00,M,M,M,M,M,M,M,M,M,M,73.04,KJFK 240251Z 20007KT 10SM BKN260 23/19 A3015 RMK AO2 SLP209 T02280194 51007
JFK,2012-08-24 03:51,-73.7622,40.6386,73.04,66.02,78.65,210.00,6.00,0.00,30.15,1020.90,10.00,M,BKN,M,M,M,26000.00,M,M,M,M,M,M,M,M,M,M,73.04,KJFK 240351Z 21006KT 10SM BKN260 23/19 A3015 RMK AO2 SLP209 T02280189
JFK,2012-08-24 04:51,-73.7622,40.6386,71.06,66.02,84.10,230.00,6.00,0.00,30.15,1020.80,10.00,M,BKN,M,M,M,26000.00,M,M,M,M,M,M,M,M,M,M,71.06,KJFK 240451Z 23006KT 10SM BKN260 22/19 A3015 RMK AO2 SLP208 T02170189 402780200
JFK,2012-08-24 05:51,-73.7622,40.6386,71.06,66.02,84.10,240.00,4.00,0.00,30.13,1020.30,10.00,M,BKN,M,M,M,26000.00,M,M,M,M,M,M,M,M,M,M,71.06,KJFK 240551Z 24004KT 10SM BKN260 22/19 A3013 RMK AO2 SLP203 T02170189 10239 20211 58005
JFK,2012-08-24 06:51,-73.7622,40.6386,71.06,66.02,84.10,270.00,5.00,0.00,30.13,1020.20,10.00,M,BKN,M,M,M,26000.00,M,M,M,M,M,M,M,M,M,M,71.06,KJFK 240651Z 27005KT 10SM BKN260 22/19 A3013 RMK AO2 SLP202 T02170189
JFK,2012-08-24 07:51,-73.7622,40.6386,69.98,64.94,84.04,240.00,4.00,0.00,30.13,1020.20,10.00,M,BKN,M,M,M,26000.00,M,M,M,M,M,M,M,M,M,M,69.98,KJFK 240751Z 24004KT 10SM BKN260 21/18 A3013 RMK AO2 SLP202 T02110183
JFK,2012-08-24 08:51,-73.7622,40.6386,69.98,64.94,84.04,220.00,4.00,0.00,30.13,1020.30,10.00,M,BKN,M,M,M,26000.00,M,M,M,M,M,M,M,M,M,M,69.98,KJFK 240851Z 22004KT 10SM BKN260 21/18 A3013 RMK AO2 SLP203 T02110183 55000
JFK,2012-08-24 09:51,-73.7622,40.6386,69.98,64.04,81.44,270.00,3.00,0.00,30.14,1020.60,9.00,M,FEW,BKN,M,M,13000.00,26000.00,M,M,M,M,M,M,M,M,M,69.98,KJFK 240951Z 27003KT 9SM FEW130 BKN260 21/18 A3014 RMK AO2 SLP206 T02110178
JFK,2012-08-24 10:51,-73.7622,40.6386,71.96,64.94,78.57,270.00,3.00,0.00,30.15,1021.10,8.00,M,FEW,BKN,M,M,13000.00,26000.00,M,M,M,M,M,M,M,M,M,71.96,KJFK 241051Z 27003KT 8SM FEW130 BKN260 22/18 A3015 RMK AO2 SLP211 T02220183 $
JFK,2012-08-24 11:51,-73.7622,40.6386,73.04,66.02,78.65,0.00,0.00,0.00,30.16,1021.40,8.00,M,BKN,M,M,M,26000.00,M,M,M,M,M,M,M,M,M,M,73.04,KJFK 241151Z 00000KT 8SM BKN260 23/19 A3016 RMK AO2 SLP214 T02280189 10228 20200 53010 $
JFK,2012-08-24 12:51,-73.7622,40.6386,75.92,66.02,71.42,20.00,3.00,0.00,30.17,1021.50,8.00,M,FEW,BKN,M,M,15000.00,26000.00,M,M,M,M,M,M,M,M,M,75.92,KJFK 241251Z 02003KT 8SM FEW150 BKN260 24/19 A3017 RMK AO2 SLP215 T02440189 $
JFK,2012-08-24 13:51,-73.7622,40.6386,78.98,64.94,62.16,30.00,4.00,0.00,30.17,1021.50,9.00,M,FEW,SCT,BKN,M,15000.00,22000.00,26000.00,M,M,M,M,M,M,M,M,78.98,KJFK 241351Z 03004KT 9SM FEW150 SCT220 BKN260 26/18 A3017 RMK AO2 SLP215 T02610183
JFK,2012-08-24 14:51,-73.7622,40.6386,80.96,62.96,54.35,0.00,0.00,0.00,30.17,1021.70,10.00,M,FEW,OVC,M,M,22000.00,26000.00,M,M,M,M,M,M,M,M,M,82.24,KJFK 241451Z 00000KT 10SM FEW220 OVC260 27/17 A3017 RMK AO2 SLP217 T02720172 53003
JFK,2012-08-24 15:51,-73.7622,40.6386,82.94,62.96,50.97,M,3.00,0.00,30.18,1021.80,10.00,M,BKN,M,M,M,26000.00,M,M,M,M,M,M,M,M,M,M,84.00,KJFK 241551Z VRB03KT 10SM BKN260 28/17 A3018 RMK AO2 SLP218 T02830172
JFK,2012-08-24 16:51,-73.7622,40.6386,82.94,68.00,60.74,190.00,9.00,0.00,30.17,1021.60,9.00,M,FEW,BKN,M,M,4300.00,26000.00,M,M,M,M,M,M,M,M,M,85.99,KJFK 241651Z 19009KT 9SM FEW043 BKN260 28/20 A3017 RMK AO2 SLP216 T02830200
JFK,2012-08-24 17:51,-73.7622,40.6386,84.02,64.94,52.75,180.00,9.00,0.00,30.17,1021.60,10.00,M,FEW,BKN,M,M,5000.00,26000.00,M,M,M,M,M,M,M,M,M,85.76,KJFK 241751Z 18009KT 10SM FEW050 BKN260 29/18 A3017 RMK AO2 SLP216 T02890183 10294 20228 58001
JFK,2012-08-24 18:51,-73.7622,40.6386,80.96,66.92,62.40,190.00,9.00,0.00,30.16,1021.30,10.00,M,FEW,BKN,M,M,6000.00,26000.00,M,M,M,M,M,M,M,M,M,83.36,KJFK 241851Z 19009KT 10SM FEW060 BKN260 27/19 A3016 RMK AO2 SLP213 T02720194
JFK,2012-08-24 19:51,-73.7622,40.6386,82.04,66.02,58.40,210.00,8.00,0.00,30.16,1021.20,10.00,M,FEW,BKN,M,M,6000.00,26000.00,M,M,M,M,M,M,M,M,M,84.19,KJFK 241951Z 21008KT 10SM FEW060 BKN260 28/19 A3016 RMK AO2 SLP212 T02780189
JFK,2012-08-24 20:51,-73.7622,40.6386,80.96,66.02,60.49,200.00,7.00,0.00,30.16,1021.20,10.00,M,CLR,BKN,M,M,M,26000.00,M,M,M,M,M,M,M,M,M,83.08,KJFK 242051Z 20007KT 10SM CLR BKN260 27/19 A3016 RMK AO2 SLP212 T02720189 56004
JFK,2012-08-24 21:51,-73.7622,40.6386,80.06,68.00,66.70,190.00,7.00,0.00,30.16,1021.20,10.00,M,FEW,BKN,M,M,5500.00,26000.00,M,M,M,M,M,M,M,M,M,82.65,KJFK 242151Z 19007KT 10SM FEW055 BKN260 27/20 A3016 RMK AO2 SLP212 T02670200
JFK,2012-08-24 22:51,-73.7622,40.6386,77.00,69.98,78.96,200.00,7.00,0.00,30.16,1021.20,10.00,M,FEW,BKN,M,M,10000.00,26000.00,M,M,M,M,M,M,M,M,M,77.00,KJFK 242251Z 20007KT 10SM FEW100 BKN260 25/21 A3016 RMK AO2 SLP212 T02500211
JFK,2012-08-24 23:51,-73.7622,40.6386,75.02,69.08,81.79,200.00,5.00,0.00,30.17,1021.50,10.00,M,FEW,BKN,M,M,10000.00,26000.00,M,M,M,M,M,M,M,M,M,75.02,KJFK 242351Z 20005KT 10SM FEW100 BKN260 24/21 A3017 RMK AO2 SLP215 T02390206 10289 20239 53003
JFK,2012-08-25 00:51,-73.7622,40.6386,73.94,69.08,84.80,180.00,4.00,0.00,30.18,1021.90,10.00,M,FEW,BKN,M,M,14000.00,26000.00,M,M,M,M,M,M,M,M,M,73.94,KJFK 250051Z 18004KT 10SM FEW140 BKN260 23/21 A3018 RMK AO2 SLP219 T02330206
JFK,2012-08-25 01:51,-73.7622,40.6386,73.94,69.08,84.80,190.00,5.00,0.00,30.19,1022.30,10.00,M,SCT,BKN,M,M,14000.00,26000.00,M,M,M,M,M,M,M,M,M,73.94,KJFK 250151Z 19005KT 10SM SCT140 BKN260 23/21 A3019 RMK AO2 SLP223 T02330206
JFK,2012-08-25 02:51,-73.7622,40.6386,73.04,68.00,84.22,210.00,4.00,0.00,30.19,1022.20,10.00,M,SCT,BKN,M,M,14000.00,23000.00,M,M,M,M,M,M,M,M,M,73.04,KJFK 250251Z 21004KT 10SM SCT140 BKN230 23/20 A3019 RMK AO2 SLP222 T02280200 50007
JFK,2012-08-25 03:51,-73.7622,40.6386,73.94,69.08,84.80,0.00,0.00,0.00,30.20,1022.40,10.00,M,SCT,BKN,M,M,14000.00,25000.00,M,M,M,M,M,M,M,M,M,73.94,KJFK 250351Z 00000KT 10SM SCT140 BKN250 23/21 A3020 RMK AO2 SLP224 T02330206 $
JFK,2012-08-25 04:51,-73.7622,40.6386,73.94,68.00,81.71,220.00,4.00,0.00,30.20,1022.60,10.00,M,SCT,BKN,M,M,14000.00,24000.00,M,M,M,M,M,M,M,M,M,73.94,KJFK 250451Z 22004KT 10SM SCT140 BKN240 23/20 A3020 RMK AO2 SLP226 T02330200 402940200 $
JFK,2012-08-25 05:51,-73.7622,40.6386,73.94,68.00,81.71,0.00,0.00,0.00,30.20,1022.70,10.00,M,FEW,BKN,M,M,14000.00,21000.00,M,M,M,M,M,M,M,M,M,73.94,KJFK 250551Z 00000KT 10SM FEW140 BKN210 23/20 A3020 RMK AO2 SLP227 T02330200 10239 20222 51005 $
JFK,2012-08-25 06:51,-73.7622,40.6386,75.02,66.02,73.59,0.00,0.00,0.00,30.20,1022.70,10.00,M,FEW,OVC,M,M,14000.00,22000.00,M,M,M,M,M,M,M,M,M,75.02,KJFK 250651Z 00000KT 10SM FEW140 OVC220 24/19 A3020 RMK AO2 SLP227 T02390189 $
JFK,2012-08-25 07:51,-73.7622,40.6386,71.96,66.92,84.16,0.00,0.00,0.00,30.21,1022.80,10.00,M,OVC,M,M,M,23000.00,M,M,M,M,M,M,M,M,M,M,71.96,KJFK 250751Z 00000KT 10SM OVC230 22/19 A3021 RMK AO2 SLP228 T02220194 $
JFK,2012-08-25 08:51,-73.7622,40.6386,71.96,68.00,87.35,0.00,0.00,0.00,30.21,1022.80,10.00,M,OVC,M,M,M,20000.00,M,M,M,M,M,M,M,M,M,M,71.96,KJFK 250851Z 00000KT 10SM OVC200 22/20 A3021 RMK AO2 SLP228 T02220200 51001 $
JFK,2012-08-25 09:51,-73.7622,40.6386,71.06,66.92,86.77,80.00,4.00,0.00,30.22,1023.20,10.00,M,SCT,BKN,M,M,20000.00,26000.00,M,M,M,M,M,M,M,M,M,71.06,KJFK 250951Z 08004KT 10SM SCT200 BKN260 22/19 A3022 RMK AO2 SLP232 T02170194 $
JFK,2012-08-25 10:51,-73.7622,40.6386,71.96,68.00,87.35,80.00,7.00,0.00,30.23,1023.70,7.00,M,BKN,BKN,M,M,20000.00,25000.00,M,M,M,M,M,M,M,M,M,71.96,KJFK 251051Z 08007KT 7SM BKN200 BKN250 22/20 A3023 RMK AO2 SLP237 T02220200 $
JFK,2012-08-25 11:51,-73.7622,40.6386,73.94,69.98,87.45,70.00,3.00,0.00,30.24,1024.10,7.00,M,BKN,BKN,M,M,20000.00,25000.00,M,M,M,M,M,M,M,M,M,73.94,KJFK 251151Z 07003KT 7SM BKN200 BKN250 23/21 A3024 RMK AO2 SLP241 T02330211 10239 20217 51013 $
JFK,2012-08-25 12:51,-73.7622,40.6386,75.92,69.08,79.37,100.00,5.00,0.00,30.26,1024.70,9.00,M,FEW,BKN,BKN,M,1500.00,19000.00,25000.00,M,M,M,M,M,M,M,M,75.92,KJFK 251251Z 10005KT 9SM FEW015 BKN190 BKN250 24/21 A3026 RMK AO2 SLP247 T02440206 $
JFK,2012-08-25 13:51,-73.7622,40.6386,78.98,66.02,64.54,90.00,5.00,0.00,30.27,1024.80,10.00,M,FEW,SCT,BKN,M,1500.00,19000.00,25000.00,M,M,M,M,M,M,M,M,78.98,KJFK 251351Z 09005KT 10SM FEW015 SCT190 BKN250 26/19 A3027 RMK AO2 SLP248 T02610189 $
JFK,2012-08-25 14:51,-73.7622,40.6386,80.96,64.94,58.26,130.00,11.00,0.00,30.27,1025.10,10.00,M,FEW,SCT,BKN,M,4000.00,19000.00,25000.00,M,M,M,M,M,M,M,M,82.76,KJFK 251451Z 13011KT 10SM FEW040 SCT190 BKN250 27/18 A3027 RMK AO2 SLP251 T02720183 51011
JFK,2012-08-25 15:51,-73.7622,40.6386,82.94,66.92,58.51,120.00,10.00,0.00,30.26,1024.70,10.00,M,FEW,SCT,BKN,M,3500.00,20000.00,25000.00,M,M,M,M,M,M,M,M,85.50,KJFK 251551Z 12010KT 10SM FEW035 SCT200 BKN250 28/19 A3026 RMK AO2 SLP247 T02830194
JFK,2012-08-25 16:51,-73.7622,40.6386,82.94,66.02,56.72,100.00,8.00,0.00,30.26,1024.60,10.00,M,SCT,BKN,BKN,M,3100.00,20000.00,25000.00,M,M,M,M,M,M,M,M,85.12,KJFK 251651Z 10008KT 10SM SCT031TCU BKN200 BKN250 28/19 A3026 RMK AO2 SLP246 TCU NW-NE T02830189
JFK,2012-08-25 17:51,-73.7622,40.6386,82.04,66.92,60.25,100.00,11.00,0.00,30.25,1024.40,10.00,17.00,FEW,BKN,BKN,M,3100.00,20000.00,25000.00,M,M,M,M,M,M,M,M,84.53,KJFK 251751Z 10011G17KT 10SM FEW031TCU BKN200 BKN250 28/19 A3025 RMK AO2 SLP244 TCU NE AND NW T02780194 10289 20233 56007
JFK,2012-08-25 18:51,-73.7622,40.6386,80.06,64.94,59.99,120.00,13.00,0.00,30.26,1024.60,10.00,M,FEW,BKN,BKN,M,3800.00,20000.00,26000.00,M,M,M,M,M,M,M,M,81.88,KJFK 251851Z 12013KT 10SM FEW038 BKN200 BKN260 27/18 A3026 RMK AO2 SLP246 T02670183
JFK,2012-08-25 19:51,-73.7622,40.6386,78.98,60.98,54.08,110.00,15.00,0.00,30.25,1024.50,10.00,M,FEW,SCT,BKN,M,3800.00,15000.00,21000.00,M,M,M,M,M,M,M,M,78.98,KJFK 251951Z 11015KT 10SM FEW038 SCT150 BKN210 26/16 A3025 RMK AO2 SLP245 T02610161
JFK,2012-08-25 20:51,-73.7622,40.6386,78.98,62.96,57.99,110.00,12.00,0.00,30.25,1024.40,10.00,M,FEW,SCT,BKN,M,4000.00,14000.00,21000.00,M,M,M,M,M,M,M,M,78.98,KJFK 252051Z 11012KT 10SM FEW040 SCT140 BKN210 26/17 A3025 RMK AO2 SLP244 T02610172 58000
JFK,2012-08-25 21:51,-73.7622,40.6386,77.00,62.96,61.91,100.00,10.00,0.00,30.27,1024.80,10.00,M,FEW,SCT,BKN,M,4000.00,12000.00,21000.00,M,M,M,M,M,M,M,M,77.00,KJFK 252151Z 10010KT 10SM FEW040 SCT120 BKN210 25/17 A3027 RMK AO2 SLP248 T02500172
JFK,2012-08-25 22:51,-73.7622,40.6386,75.92,62.06,62.17,100.00,12.00,0.00,30.27,1024.90,10.00,M,SCT,BKN,M,M,11000.00,22000.00,M,M,M,M,M,M,M,M,M,75.92,KJFK 252251Z 10012KT 10SM SCT110 BKN220 24/17 A3027 RMK AO2 SLP249 T02440167
JFK,2012-08-25 23:51,-73.7622,40.6386,75.02,62.96,66.13,100.00,11.00,0.00,30.28,1025.30,10.00,M,BKN,BKN,M,M,13000.00,22000.00,M,M,M,M,M,M,M,M,M,75.02,KJFK 252351Z 10011KT 10SM BKN130 BKN220 24/17 A3028 RMK AO2 SLP253 T02390172 10283 20239 51008
JFK,2012-08-26 00:51,-73.7622,40.6386,73.04,62.06,68.47,90.00,6.00,0.00,30.29,1025.50,10.00,M,SCT,BKN,M,M,13000.00,24000.00,M,M,M,M,M,M,M,M,M,73.04,KJFK 260051Z 09006KT 10SM SCT130 BKN240 23/17 A3029 RMK AO2 SLP255 T02280167
JFK,2012-08-26 01:51,-73.7622,40.6386,73.04,62.06,68.47,90.00,8.00,0.00,30.28,1025.50,10.00,M,FEW,BKN,M,M,13000.00,20000.00,M,M,M,M,M,M,M,M,M,73.04,KJFK 260151Z 09008KT 10SM FEW130 BKN200 23/17 A3028 RMK AO2 SLP255 T02280167
JFK,2012-08-26 02:51,-73.7622,40.6386,71.96,62.06,71.01,80.00,6.00,0.00,30.28,1025.20,10.00,M,FEW,BKN,M,M,14000.00,26000.00,M,M,M,M,M,M,M,M,M,71.96,KJFK 260251Z 08006KT 10SM FEW140 BKN260 22/17 A3028 RMK AO2 SLP252 T02220167 58001
JFK,2012-08-26 03:51,-73.7622,40.6386,71.06,62.96,75.57,90.00,6.00,0.00,30.28,1025.40,10.00,M,FEW,BKN,M,M,14000.00,26000.00,M,M,M,M,M,M,M,M,M,71.06,KJFK 260351Z 09006KT 10SM FEW140 BKN260 22/17 A3028 RMK AO2 SLP254 T02170172
JFK,2012-08-26 04:51,-73.7622,40.6386,69.98,62.06,75.96,30.00,5.00,0.00,30.28,1025.40,10.00,M,FEW,SCT,M,M,14000.00,26000.00,M,M,M,M,M,M,M,M,M,69.98,KJFK 260451Z 03005KT 10SM FEW140 SCT260 21/17 A3028 RMK AO2 SLP254 T02110167 402890211
JFK,2012-08-26 05:51,-73.7622,40.6386,69.08,62.06,78.33,40.00,4.00,0.00,30.28,1025.20,10.00,M,SCT,M,M,M,26000.00,M,M,M,M,M,M,M,M,M,M,69.08,KJFK 260551Z 04004KT 10SM SCT260 21/17 A3028 RMK AO2 SLP252 T02060167 10239 20206 50000
JFK,2012-08-26 06:51,-73.7622,40.6386,69.08,62.06,78.33,40.00,6.00,0.00,30.27,1025.00,10.00,M,FEW,SCT,M,M,14000.00,26000.00,M,M,M,M,M,M,M,M,M,69.08,KJFK 260651Z 04006KT 10SM FEW140 SCT260 21/17 A3027 RMK AO2 SLP250 T02060167
JFK,2012-08-26 07:51,-73.7622,40.6386,68.00,62.06,81.29,30.00,5.00,0.00,30.28,1025.20,10.00,M,FEW,SCT,M,M,14000.00,27000.00,M,M,M,M,M,M,M,M,M,68.00,KJFK 260751Z 03005KT 10SM FEW140 SCT270 20/17 A3028 RMK AO2 SLP252 T02000167
JFK,2012-08-26 08:51,-73.7622,40.6386,66.92,62.96,87.10,40.00,9.00,0.00,30.28,1025.30,10.00,M,FEW,SCT,M,M,14000.00,27000.00,M,M,M,M,M,M,M,M,M,66.92,KJFK 260851Z 04009KT 10SM FEW140 SCT270 19/17 A3028 RMK AO2 SLP253 T01940172 53001
JFK,2012-08-26 09:51,-73.7622,40.6386,66.92,62.96,87.10,40.00,6.00,0.00,30.29,1025.70,10.00,M,SCT,BKN,M,M,14000.00,27000.00,M,M,M,M,M,M,M,M,M,66.92,KJFK 260951Z 04006KT 10SM SCT140 BKN270 19/17 A3029 RMK AO2 SLP257 T01940172
JFK,2012-08-26 10:51,-73.7622,40.6386,68.00,64.04,87.16,60.00,9.00,0.00,30.29,1025.60,10.00,M,FEW,SCT,BKN,M,2000.00,19000.00,26000.00,M,M,M,M,M,M,M,M,68.00,KJFK 261051Z 06009KT 10SM FEW020 SCT190 BKN260 20/18 A3029 RMK AO2 SLP256 T02000178
JFK,2012-08-26 11:51,-73.7622,40.6386,71.06,64.94,81.00,80.00,6.00,0.00,30.31,1026.30,10.00,M,FEW,SCT,BKN,M,1100.00,15000.00,24000.00,M,M,M,M,M,M,M,M,71.06,KJFK 261151Z 08006KT 10SM FEW011 SCT150 BKN240 22/18 A3031 RMK AO2 SLP263 T02170183 10217 20194 53009 $
JFK,2012-08-26 12:51,-73.7622,40.6386,73.04,64.94,75.75,70.00,7.00,0.00,30.32,1026.70,10.00,M,FEW,SCT,BKN,M,1100.00,14000.00,23000.00,M,M,M,M,M,M,M,M,73.04,KJFK 261251Z 07007KT 10SM FEW011 SCT140 BKN230 23/18 A3032 RMK AO2 SLP267 T02280183 $
JFK,2012-08-26 13:51,-73.7622,40.6386,75.02,64.04,68.69,90.00,5.00,0.00,30.33,1027.00,10.00,M,SCT,BKN,BKN,M,2100.00,12000.00,20000.00,M,M,M,M,M,M,M,M,75.02,KJFK 261351Z 09005KT 10SM SCT021 BKN120 BKN200 24/18 A3033 RMK AO2 SLP270 T02390178 $
JFK,2012-08-26 14:51,-73.7622,40.6386,78.08,64.04,62.05,90.00,7.00,0.00,30.33,1027.00,10.00,M,SCT,SCT,BKN,M,2500.00,15000.00,20000.00,M,M,M,M,M,M,M,M,78.08,KJFK 261451Z 09007KT 10SM SCT025 SCT150 BKN200 26/18 A3033 RMK AO2 SLP270 T02560178 51007 $
JFK,2012-08-26 15:51,-73.7622,40.6386,78.98,62.06,56.18,110.00,6.00,0.00,30.32,1026.70,10.00,M,SCT,SCT,BKN,M,3000.00,15000.00,20000.00,M,M,M,M,M,M,M,M,78.98,KJFK 261551Z 11006KT 10SM SCT030 SCT150 BKN200 26/17 A3032 RMK AO2 SLP267 T02610167 $
JFK,2012-08-26 16:51,-73.7622,40.6386,80.06,59.00,48.64,130.00,10.00,0.00,30.30,1026.10,10.00,M,FEW,SCT,SCT,M,3300.00,15000.00,20000.00,M,M,M,M,M,M,M,M,80.73,KJFK 261651Z 13010KT 10SM FEW033 SCT150 SCT200 27/15 A3030 RMK AO2 SLP261 T02670150 $
JFK,2012-08-26 17:51,-73.7622,40.6386,80.06,62.96,55.97,120.00,11.00,0.00,30.29,1025.70,10.00,M,FEW,SCT,BKN,M,3000.00,15000.00,20000.00,M,M,M,M,M,M,M,M,81.45,KJFK 261751Z 12011KT 10SM FEW030 SCT150 BKN200 27/17 A3029 RMK AO2 SLP257 T02670172 10272 20217 58013 $
JFK,2012-08-26 18:51,-73.7622,40.6386,78.98,62.96,57.99,120.00,11.00,0.00,30.27,1025.00,10.00,17.00,FEW,SCT,BKN,M,2800.00,15000.00,20000.00,M,M,M,M,M,M,M,M,78.98,KJFK 261851Z 12011G17KT 10SM FEW028 SCT150 BKN200 26/17 A3027 RMK AO2 SLP250 T02610172 $
JFK,2012-08-26 19:51,-73.7622,40.6386,78.08,62.96,59.74,130.00,11.00,0.00,30.26,1024.60,10.00,M,FEW,SCT,BKN,M,2800.00,15000.00,25000.00,M,M,M,M,M,M,M,M,78.08,KJFK 261951Z 13011KT 10SM FEW028 SCT150 BKN250 26/17 A3026 RMK AO2 SLP246 T02560172 $
JFK,2012-08-26 20:51,-73.7622,40.6386,77.00,64.94,66.36,140.00,10.00,0.00,30.27,1024.90,10.00,M,FEW,SCT,BKN,M,5000.00,12000.00,25000.00,M,M,M,M,M,M,M,M,77.00,KJFK 262051Z 14010KT 10SM FEW050 SCT120 BKN250 25/18 A3027 RMK AO2 SLP249 T02500183 55008 $
JFK,2012-08-26 21:51,-73.7622,40.6386,75.02,64.94,70.88,130.00,9.00,0.00,30.26,1024.60,10.00,M,SCT,SCT,BKN,M,2100.00,12000.00,25000.00,M,M,M,M,M,M,M,M,75.02,KJFK 262151Z 13009KT 10SM SCT021 SCT120 BKN250 24/18 A3026 RMK AO2 SLP246 T02390183 $
JFK,2012-08-26 22:51,-73.7622,40.6386,73.94,64.94,73.49,130.00,8.00,0.00,30.26,1024.60,10.00,M,SCT,SCT,BKN,M,2300.00,12000.00,25000.00,M,M,M,M,M,M,M,M,73.94,KJFK 262251Z 13008KT 10SM SCT023 SCT120 BKN250 23/18 A3026 RMK AO2 SLP246 T02330183 $
JFK,2012-08-26 23:51,-73.7622,40.6386,73.04,64.04,73.41,100.00,5.00,0.00,30.25,1024.30,10.00,M,FEW,SCT,SCT,M,2500.00,12000.00,25000.00,M,M,M,M,M,M,M,M,73.04,KJFK 262351Z 10005KT 10SM FEW025 SCT120 SCT250 23/18 A3025 RMK AO2 SLP243 T02280178 10267 20228 57006 $
JFK,2012-08-27 00:51,-73.7622,40.6386,73.04,64.04,73.41,110.00,6.00,0.00,30.26,1024.70,10.00,M,FEW,BKN,BKN,M,2500.00,11000.00,25000.00,M,M,M,M,M,M,M,M,73.04,KJFK 270051Z 11006KT 10SM FEW025 BKN110 BKN250 23/18 A3026 RMK AO2 SLP247 T02280178 $
JFK,2012-08-27 01:51,-73.7622,40.6386,71.96,64.04,76.13,100.00,5.00,0.00,30.25,1024.20,10.00,M,FEW,M,M,M,11000.00,M,M,M,M,M,M,M,M,M,M,71.96,KJFK 270151Z 10005KT 10SM FEW110 22/18 A3025 RMK AO2 SLP242 T02220178 $
JFK,2012-08-27 02:51,-73.7622,40.6386,71.96,64.94,78.57,100.00,3.00,0.00,30.25,1024.20,10.00,M,BKN,M,M,M,11000.00,M,M,M,M,M,M,M,M,M,M,71.96,KJFK 270251Z 10003KT 10SM BKN110 22/18 A3025 RMK AO2 SLP242 T02220183 58001 $
JFK,2012-08-27 03:51,-73.7622,40.6386,71.96,64.94,78.57,130.00,4.00,0.00,30.24,1024.10,10.00,M,BKN,M,M,M,12000.00,M,M,M,M,M,M,M,M,M,M,71.96,KJFK 270351Z 13004KT 10SM BKN120 22/18 A3024 RMK AO2 SLP241 T02220183 $
JFK,2012-08-27 04:51,-73.7622,40.6386,71.96,66.02,81.57,120.00,4.00,0.00,30.23,1023.60,10.00,M,SCT,BKN,M,M,1800.00,13000.00,M,M,M,M,M,M,M,M,M,71.96,KJFK 270451Z 12004KT 10SM SCT018 BKN130 22/19 A3023 RMK AO2 SLP236 T02220189 402720194 $
JFK,2012-08-27 05:51,-73.7622,40.6386,71.06,66.92,86.77,100.00,5.00,0.00,30.20,1022.60,10.00,M,SCT,BKN,M,M,1600.00,13000.00,M,M,M,M,M,M,M,M,M,71.06,KJFK 270551Z 10005KT 10SM SCT016 BKN130 22/19 A3020 RMK AO2 SLP226 T02170194 10228 20217 58016 $
JFK,2012-08-27 06:51,-73.7622,40.6386,71.96,68.00,87.35,110.00,3.00,0.00,30.19,1022.20,10.00,M,SCT,BKN,M,M,1600.00,14000.00,M,M,M,M,M,M,M,M,M,71.96,KJFK 270651Z 11003KT 10SM SCT016 BKN140 22/20 A3019 RMK AO2 SLP222 T02220200 $
JFK,2012-08-27 07:51,-73.7622,40.6386,71.06,68.00,90.06,110.00,4.00,0.00,30.18,1021.80,10.00,M,SCT,BKN,M,M,1800.00,12000.00,M,M,M,M,M,M,M,M,M,71.06,KJFK 270751Z 11004KT 10SM SCT018 BKN120 22/20 A3018 RMK AO2 SLP218 T02170200 $
JFK,2012-08-27 08:51,-73.7622,40.6386,71.96,69.08,90.66,80.00,3.00,0.00,30.17,1021.70,10.00,M,SCT,BKN,M,M,1700.00,11000.00,M,M,M,M,M,M,M,M,M,71.96,KJFK 270851Z 08003KT 10SM SCT017 BKN110 22/21 A3017 RMK AO2 SLP217 T02220206 56008 $
JFK,2012-08-27 09:51,-73.7622,40.6386,71.96,69.08,90.66,90.00,4.00,0.00,30.17,1021.70,10.00,M,SCT,BKN,M,M,1700.00,15000.00,M,M,M,M,M,M,M,M,M,71.96,KJFK 270951Z 09004KT 10SM SCT017 BKN150 22/21 A3017 RMK AO2 SLP217 T02220206 $
JFK,2012-08-27 10:51,-73.7622,40.6386,73.04,69.08,87.41,100.00,3.00,0.00,30.18,1022.00,10.00,M,SCT,BKN,M,M,1900.00,15000.00,M,M,M,M,M,M,M,M,M,73.04,KJFK 271051Z 10003KT 10SM SCT019 BKN150 23/21 A3018 RMK AO2 SLP220 T02280206 $
JFK,2012-08-27 11:51,-73.7622,40.6386,75.02,69.98,84.34,90.00,3.00,0.00,30.19,1022.20,10.00,M,SCT,SCT,BKN,M,1700.00,9500.00,15000.00,M,M,M,M,M,M,M,M,75.02,KJFK 271151Z 09003KT 10SM SCT017 SCT095 BKN150 24/21 A3019 RMK AO2 SLP222 T02390211 10244 20217 53005 $
JFK,2012-08-27 12:51,-73.7622,40.6386,78.08,69.08,73.88,190.00,7.00,0.00,30.18,1021.90,10.00,M,SCT,SCT,SCT,BKN,1900.00,3700.00,9500.00,15000.00,M,M,M,M,M,M,M,78.08,KJFK 271251Z 19007KT 10SM SCT019 SCT037 SCT095 BKN150 26/21 A3018 RMK AO2 SLP219 T02560206 $
JFK,2012-08-27 13:51,-73.7622,40.6386,80.96,62.96,54.35,180.00,6.00,0.00,30.17,1021.70,10.00,M,FEW,SCT,BKN,M,1900.00,4000.00,18000.00,M,M,M,M,M,M,M,M,82.24,KJFK 271351Z 18006KT 10SM FEW019 SCT040 BKN180 27/17 A3017 RMK AO2 SLP217 T02720172
JFK,2012-08-27 14:51,-73.7622,40.6386,78.98,69.98,73.97,160.00,11.00,0.00,30.17,1021.50,10.00,M,FEW,SCT,BKN,BKN,2400.00,4000.00,18000.00,27000.00,M,M,M,M,M,M,M,78.98,KJFK 271451Z 16011KT 10SM FEW024 SCT040 BKN180 BKN270 26/21 A3017 RMK AO2 SLP215 TCU DSNT SW T02610211 56007
JFK,2012-08-27 15:51,-73.7622,40.6386,80.06,71.06,74.07,190.00,10.00,0.00,30.15,1020.80,10.00,M,FEW,SCT,BKN,BKN,1700.00,3400.00,18000.00,27000.00,M,M,M,M,M,M,M,83.56,KJFK 271551Z 19010KT 10SM FEW017 SCT034 BKN180 BKN270 27/22 A3015 RMK AO2 SLP208 CB DSNT W T02670217 $
JFK,2012-08-27 16:22,-73.7622,40.6386,82.40,69.80,65.74,190.00,12.00,0.00,30.14,M,10.00,M,FEW,BKN,BKN,BKN,1700.00,2800.00,18000.00,27000.00,M,M,M,M,M,M,M,86.22,KJFK 271622Z 19012KT 10SM FEW017 BKN028CB BKN180 BKN270 28/21 A3014 RMK AO2 CB SW-NW MOV NE VCSH SW-NW $
JFK,2012-08-27 16:31,-73.7622,40.6386,80.60,69.80,69.71,190.00,10.00,0.00,30.15,M,10.00,M,FEW,BKN,BKN,BKN,1700.00,2600.00,18000.00,27000.00,TS,M,M,M,M,M,M,83.90,KJFK 271631Z 19010KT 10SM TS FEW017 BKN026CB BKN180 BKN270 27/21 A3015 RMK AO2 TSB31 OCNL LTGIC SW-NW TS SW-NW MOV NE VCSH SW-NW
JFK,2012-08-27 16:51,-73.7622,40.6386,75.92,64.94,68.78,290.00,13.00,0.00,30.14,1020.60,8.00,18.00,SCT,BKN,BKN,OVC,1700.00,2900.00,6500.00,18000.00,-TSRA,M,M,M,M,M,M,75.92,KJFK 271651Z 29013G18KT 8SM -TSRA SCT017 BKN029CB BKN065 OVC180 24/18 A3014 RMK AO2 TSB31RAB47 SLP206 OCNL LTGIC OHD AND SW-N TS OHD AND SW-N MOV NE P0000 T02440183
JFK,2012-08-27 17:12,-73.7622,40.6386,71.60,66.20,83.09,240.00,11.00,0.02,30.14,M,2.50,M,SCT,BKN,OVC,M,1500.00,2900.00,6000.00,M,+TSRA,M,M,M,M,M,M,71.60,KJFK 271712Z 24011KT 2 1/2SM R04R/4500VP6000FT +TSRA SCT015 BKN029CB OVC060 22/19 A3014 RMK AO2 OCNL LTGIC NE-OHD-S TS NE-OHD-S MOV NE P0002
JFK,2012-08-27 17:15,-73.7622,40.6386,71.60,66.20,83.09,230.00,12.00,0.04,30.14,M,1.00,M,BKN,BKN,OVC,M,1300.00,2900.00,6000.00,M,+TSRA BR,M,M,M,M,M,M,71.60,KJFK 271715Z 23012KT 1SM R04R/2800VP6000FT +TSRA BR BKN013 BKN029CB OVC060 22/19 A3014 RMK AO2 OCNL LTGIC NE-OHD-S TS NE-OHD-S MOV NE P0004
JFK,2012-08-27 17:30,-73.7622,40.6386,69.80,66.20,88.34,M,3.00,0.41,30.13,M,2.50,M,FEW,BKN,OVC,M,600.00,2500.00,16000.00,M,+RA BR,M,M,M,M,M,M,69.80,KJFK 271730Z VRB03KT 2 1/2SM R04R/4000VP6000FT +RA BR FEW006 BKN025CB OVC160 21/19 A3013 RMK AO2 SFC VIS 3 TSE30 CB NE-SE MOV NE P0041
JFK,2012-08-27 17:45,-73.7622,40.6386,69.80,66.20,88.34,200.00,3.00,0.44,30.13,M,6.00,M,FEW,SCT,BKN,BKN,800.00,3000.00,10000.00,25000.00,RA BR,M,M,M,M,M,M,69.80,KJFK 271745Z 20003KT 6SM RA BR FEW008 SCT030 BKN100 BKN250 21/19 A3013 RMK AO2 TSE30 CB DSNT NE-SE P0044
JFK,2012-08-27 17:51,-73.7622,40.6386,69.98,66.92,90.02,160.00,6.00,0.45,30.13,1020.20,6.00,M,FEW,SCT,BKN,BKN,800.00,3000.00,10000.00,25000.00,-RA BR,M,M,M,M,M,M,69.98,KJFK 271751Z 16006KT 6SM -RA BR FEW008 SCT030 BKN100 BKN250 21/19 A3013 RMK AO2 TSE30 SLP202 CB DSNT NE-SE P0045 60045 T02110194 10278 20206 56014
JFK,2012-08-27 18:51,-73.7622,40.6386,73.94,71.06,90.73,170.00,10.00,0.07,30.09,1018.90,10.00,M,FEW,SCT,BKN,BKN,900.00,3000.00,8000.00,15000.00,M,M,M,M,M,M,M,73.94,KJFK 271851Z 17010KT 10SM FEW009 SCT030 BKN080 BKN150 BKN250 23/22 A3009 RMK AO2 RAE48 SLP189 CB DSNT NE-E P0007 T02330217
JFK,2012-08-27 19:51,-73.7622,40.6386,77.00,69.08,76.57,180.00,11.00,0.00,30.06,1018.00,10.00,M,FEW,SCT,SCT,BKN,3000.00,8500.00,15000.00,25000.00,M,M,M,M,M,M,M,77.00,KJFK 271951Z 18011KT 10SM FEW030 SCT085 SCT150 BKN250 25/21 A3006 RMK AO2 SLP180 T02500206
JFK,2012-08-27 20:51,-73.7622,40.6386,78.08,71.96,81.50,170.00,11.00,0.00,30.05,1017.40,10.00,18.00,FEW,SCT,SCT,SCT,1300.00,3000.00,8500.00,14000.00,M,M,M,M,M,M,M,78.08,KJFK 272051Z 17011G18KT 10SM FEW013 SCT030 SCT085 SCT140 BKN250 26/22 A3005 RMK AO2 SLP174 CB DSNT E-SE TCU DSNT W 60007 T02560222 56028
JFK,2012-08-27 21:51,-73.7622,40.6386,77.00,71.06,81.92,190.00,11.00,0.00,30.03,1017.00,10.00,M,FEW,SCT,SCT,SCT,1300.00,3000.00,9500.00,15000.00,M,M,M,M,M,M,M,77.00,KJFK 272151Z 19011KT 10SM FEW013 SCT030 SCT095 SCT150 BKN250 25/22 A3003 RMK AO2 SLP170 CB DSNT SE T02500217
JFK,2012-08-27 22:51,-73.7622,40.6386,77.00,71.96,84.46,180.00,10.00,0.00,30.01,1016.20,10.00,M,FEW,SCT,BKN,BKN,3000.00,4500.00,10000.00,25000.00,M,M,M,M,M,M,M,77.00,KJFK 272251Z 18010KT 10SM FEW030 SCT045 BKN100 BKN250 25/22 A3001 RMK AO2 SLP162 TCU DSNT SE T02500222
JFK,2012-08-27 23:22,-73.7622,40.6386,77.00,73.40,88.67,190.00,9.00,0.00,30.01,M,10.00,25.00,BKN,BKN,BKN,BKN,1200.00,4500.00,10000.00,25000.00,M,M,M,M,M,M,M,77.00,KJFK 272322Z 19009G25KT 10SM BKN012 BKN045 BKN100 BKN250 25/23 A3001 RMK AO2 $
JFK,2012-08-27 23:51,-73.7622,40.6386,77.00,73.94,90.29,190.00,12.00,0.00,30.01,1016.20,10.00,M,BKN,BKN,BKN,M,1000.00,4500.00,10000.00,M,M,M,M,M,M,M,M,77.00,KJFK 272351Z 19012KT 10SM BKN010 BKN045 BKN100 25/23 A3001 RMK AO2 SLP162 60007 T02500233 10261 20211 56012 $
JFK,2012-08-28 00:26,-73.7622,40.6386,77.00,73.40,88.67,190.00,14.00,0.00,30.01,M,10.00,M,BKN,BKN,M,M,800.00,10000.00,M,M,M,M,M,M,M,M,M,77.00,KJFK 280026Z 19014KT 10SM BKN008 BKN100 25/23 A3001 RMK AO2 $
JFK,2012-08-28 00:51,-73.7622,40.6386,77.00,73.94,90.29,190.00,13.00,0.00,30.00,1016.00,10.00,21.00,OVC,M,M,M,800.00,M,M,M,M,M,M,M,M,M,M,77.00,KJFK 280051Z 19013G21KT 10SM OVC008 25/23 A3000 RMK AO2 SLP160 T02500233 $
JFK,2012-08-28 01:51,-73.7622,40.6386,75.92,73.94,93.59,200.00,14.00,0.00,29.99,1015.60,10.00,M,BKN,BKN,M,M,800.00,14000.00,M,M,M,M,M,M,M,M,M,75.92,KJFK 280151Z 20014KT 10SM BKN008 BKN140 24/23 A2999 RMK AO2 SLP156 T02440233 $
JFK,2012-08-28 02:26,-73.7622,40.6386,75.20,73.40,94.14,200.00,16.00,0.00,29.99,M,10.00,M,SCT,BKN,M,M,800.00,14000.00,M,M,M,M,M,M,M,M,M,75.20,KJFK 280226Z 20016KT 10SM SCT008 BKN140 24/23 A2999 RMK AO2 $
JFK,2012-08-28 02:51,-73.7622,40.6386,75.92,73.94,93.59,210.00,13.00,0.00,29.98,1015.20,10.00,M,FEW,BKN,BKN,M,800.00,14000.00,23000.00,M,M,M,M,M,M,M,M,75.92,KJFK 280251Z 21013KT 10SM FEW008 BKN140 BKN230 24/23 A2998 RMK AO2 SLP152 T02440233 58010 $
JFK,2012-08-28 03:51,-73.7622,40.6386,75.92,73.04,90.80,230.00,10.00,0.00,29.97,1014.80,10.00,M,FEW,BKN,OVC,M,700.00,4100.00,14000.00,M,M,M,M,M,M,M,M,75.92,KJFK 280351Z 23010KT 10SM FEW007 BKN041 OVC140 24/23 A2997 RMK AO2 SLP148 T02440228 $
JFK,2012-08-28 04:51,-73.7622,40.6386,75.92,73.04,90.80,220.00,9.00,0.00,29.96,1014.40,10.00,M,FEW,SCT,OVC,M,800.00,4200.00,18000.00,M,M,M,M,M,M,M,M,75.92,KJFK 280451Z 22009KT 10SM FEW008 SCT042 OVC180 24/23 A2996 RMK AO2 SLP144 T02440228 402780206 $
JFK,2012-08-28 05:51,-73.7622,40.6386,75.92,71.96,87.55,220.00,10.00,0.00,29.93,1013.60,10.00,M,FEW,OVC,M,M,800.00,18000.00,M,M,M,M,M,M,M,M,M,75.92,KJFK 280551Z 22010KT 10SM FEW008 OVC180 24/22 A2993 RMK AO2 SLP136 T02440222 10250 20244 58016 $
JFK,2012-08-28 06:51,-73.7622,40.6386,75.02,73.04,93.57,230.00,11.00,0.00,29.92,1013.00,10.00,M,FEW,OVC,M,M,900.00,17000.00,M,M,M,M,M,M,M,M,M,75.02,KJFK 280651Z 23011KT 10SM FEW009 OVC170 24/23 A2992 RMK AO2 SLP130 T02390228 $
JFK,2012-08-28 07:51,-73.7622,40.6386,75.02,71.96,90.22,230.00,9.00,0.00,29.90,1012.30,10.00,M,FEW,OVC,M,M,900.00,18000.00,M,M,M,M,M,M,M,M,M,75.02,KJFK 280751Z 23009KT 10SM FEW009 OVC180 24/22 A2990 RMK AO2 SLP123 T02390222 $
JFK,2012-08-28 08:51,-73.7622,40.6386,75.02,71.96,90.22,230.00,8.00,0.00,29.88,1011.90,10.00,M,FEW,OVC,M,M,900.00,13000.00,M,M,M,M,M,M,M,M,M,75.02,KJFK 280851Z 23008KT 10SM FEW009 OVC130 24/22 A2988 RMK AO2 RAB14E30 SLP119 P0000 60000 T02390222 56017 $
JFK,2012-08-28 09:51,-73.7622,40.6386,75.02,73.04,93.57,220.00,9.00,0.01,29.88,1011.80,10.00,M,BKN,OVC,M,M,1100.00,9000.00,M,M,-RA,M,M,M,M,M,M,75.02,KJFK 280951Z 22009KT 10SM -RA BKN011 OVC090 24/23 A2988 RMK AO2 RAB07 SLP118 P0001 T02390228 $
JFK,2012-08-28 10:24,-73.7622,40.6386,75.20,73.40,94.14,220.00,9.00,0.01,29.88,M,8.00,M,SCT,BKN,OVC,M,1100.00,3800.00,11000.00,M,-RA,M,M,M,M,M,M,75.20,KJFK 281024Z 22009KT 8SM -RA SCT011 BKN038 OVC110 24/23 A2988 RMK AO2 P0001 $
JFK,2012-08-28 10:51,-73.7622,40.6386,75.02,73.04,93.57,230.00,8.00,0.07,29.88,1011.70,6.00,M,FEW,BKN,OVC,M,1000.00,4000.00,11000.00,M,RA BR,M,M,M,M,M,M,75.02,KJFK 281051Z 23008KT 6SM RA BR FEW010 BKN040 OVC110 24/23 A2988 RMK AO2 SLP117 P0007 T02390228 $
JFK,2012-08-28 11:45,-73.7622,40.6386,75.20,73.40,94.14,230.00,12.00,0.02,29.87,M,10.00,M,BKN,BKN,BKN,M,1200.00,7500.00,14000.00,M,M,M,M,M,M,M,M,75.20,KJFK 281145Z 23012KT 10SM BKN012 BKN075 BKN140 24/23 A2987 RMK AO2 RAE29 P0002 $
JFK,2012-08-28 11:51,-73.7622,40.6386,75.02,73.04,93.57,230.00,14.00,0.02,29.87,1011.50,10.00,M,BKN,BKN,BKN,M,1200.00,7500.00,14000.00,M,M,M,M,M,M,M,M,75.02,KJFK 281151Z 23014KT 10SM BKN012 BKN075 BKN140 24/23 A2987 RMK AO2 RAE29 SLP115 P0002 60010 70062 T02390228 10244 20239 58003 $
JFK,2012-08-28 12:20,-73.7622,40.6386,75.20,73.40,94.14,240.00,14.00,0.00,29.87,M,10.00,M,SCT,BKN,BKN,BKN,1200.00,4600.00,6500.00,14000.00,M,M,M,M,M,M,M,75.20,KJFK 281220Z 24014KT 10SM SCT012 BKN046 BKN065 BKN140 24/23 A2987 RMK AO2 $
JFK,2012-08-28 12:51,-73.7622,40.6386,77.00,71.96,84.46,240.00,13.00,0.00,29.86,1011.00,10.00,21.00,FEW,SCT,SCT,BKN,1600.00,3500.00,6500.00,14000.00,M,M,M,M,M,M,M,77.00,KJFK 281251Z 24013G21KT 10SM FEW016 SCT035 SCT065 BKN140 25/22 A2986 RMK AO2 SLP110 TCU DSNT SE T02500222
JFK,2012-08-28 13:51,-73.7622,40.6386,77.00,71.06,81.92,260.00,15.00,0.00,29.86,1011.10,10.00,M,SCT,BKN,BKN,M,2000.00,3700.00,10000.00,M,M,M,M,M,M,M,M,77.00,KJFK 281351Z 26015KT 10SM SCT020 BKN037 BKN100 25/22 A2986 RMK AO2 SLP111 SCT V BKN VCSH SW T02500217
JFK,2012-08-28 14:51,-73.7622,40.6386,80.96,69.98,69.32,270.00,13.00,0.00,29.86,1011.20,10.00,20.00,SCT,BKN,BKN,M,2400.00,7000.00,11000.00,M,M,M,M,M,M,M,M,84.44,KJFK 281451Z 27013G20KT 10SM SCT024 BKN070 BKN110 27/21 A2986 RMK AO2 SLP112 T02720211 55003
JFK,2012-08-28 15:51,-73.7622,40.6386,84.02,66.02,54.77,300.00,9.00,0.00,29.85,1010.70,10.00,M,SCT,M,M,M,3100.00,M,M,M,M,M,M,M,M,M,M,86.23,KJFK 281551Z 30009KT 10SM SCT031 29/19 A2985 RMK AO2 SLP107 APRNT FROPA T02890189
JFK,2012-08-28 16:51,-73.7622,40.6386,84.92,64.94,51.25,270.00,7.00,0.00,29.84,1010.30,10.00,18.00,FEW,SCT,M,M,3400.00,4500.00,M,M,M,M,M,M,M,M,M,86.66,KJFK 281651Z 27007G18KT 10SM FEW034 SCT045 29/18 A2984 RMK AO2 SLP103 T02940183
JFK,2012-08-28 17:51,-73.7622,40.6386,86.00,62.06,44.75,300.00,14.00,0.00,29.82,1009.70,10.00,M,SCT,M,M,M,4900.00,M,M,M,M,M,M,M,M,M,M,86.51,KJFK 281751Z 30014KT 10SM SCT049 30/17 A2982 RMK AO2 SLP097 T03000167 10306 20239 58015
JFK,2012-08-28 18:51,-73.7622,40.6386,87.98,59.00,37.69,320.00,14.00,0.00,29.80,1009.10,10.00,20.00,FEW,M,M,M,6000.00,M,M,M,M,M,M,M,M,M,M,87.98,KJFK 281851Z 32014G20KT 10SM FEW060 31/15 A2980 RMK AO2 SLP091 T03110150
JFK,2012-08-28 19:51,-73.7622,40.6386,87.98,57.02,35.10,300.00,14.00,0.00,29.80,1009.10,10.00,18.00,SCT,M,M,M,6500.00,M,M,M,M,M,M,M,M,M,M,87.98,KJFK 281951Z 30014G18KT 10SM SCT065 31/14 A2980 RMK AO2 SLP091 T03110139
JFK,2012-08-28 20:51,-73.7622,40.6386,87.08,57.92,37.31,320.00,15.00,0.00,29.81,1009.40,10.00,21.00,SCT,M,M,M,6500.00,M,M,M,M,M,M,M,M,M,M,87.08,KJFK 282051Z 32015G21KT 10SM SCT065 31/14 A2981 RMK AO2 SLP094 T03060144 55002
JFK,2012-08-28 21:51,-73.7622,40.6386,84.92,53.06,33.50,310.00,15.00,0.00,29.82,1009.80,10.00,21.00,FEW,M,M,M,6500.00,M,M,M,M,M,M,M,M,M,M,84.92,KJFK 282151Z 31015G21KT 10SM FEW065 29/12 A2982 RMK AO2 SLP098 T02940117 $
JFK,2012-08-28 22:51,-73.7622,40.6386,82.94,53.96,36.91,310.00,13.00,0.00,29.83,1010.10,10.00,18.00,FEW,M,M,M,6500.00,M,M,M,M,M,M,M,M,M,M,82.94,KJFK 282251Z 31013G18KT 10SM FEW065 28/12 A2983 RMK AO2 SLP101 T02830122
JFK,2012-08-28 23:51,-73.7622,40.6386,82.04,55.94,40.84,300.00,11.00,0.00,29.85,1010.60,10.00,M,FEW,M,M,M,6500.00,M,M,M,M,M,M,M,M,M,M,81.58,KJFK 282351Z 30011KT 10SM FEW065 28/13 A2985 RMK AO2 SLP106 T02780133 10317 20278 53012
JFK,2012-08-29 00:51,-73.7622,40.6386,80.96,57.02,43.99,310.00,10.00,0.00,29.87,1011.40,10.00,M,FEW,M,M,M,6500.00,M,M,M,M,M,M,M,M,M,M,81.02,KJFK 290051Z 31010KT 10SM FEW065 27/14 A2987 RMK AO2 SLP114 T02720139 $
JFK,2012-08-29 01:51,-73.7622,40.6386,80.06,57.92,46.79,320.00,10.00,0.00,29.89,1012.00,10.00,M,FEW,M,M,M,6500.00,M,M,M,M,M,M,M,M,M,M,80.56,KJFK 290151Z 32010KT 10SM FEW065 27/14 A2989 RMK AO2 SLP120 T02670144
JFK,2012-08-29 02:51,-73.7622,40.6386,78.08,57.92,49.94,330.00,12.00,0.00,29.90,1012.30,10.00,M,FEW,M,M,M,6500.00,M,M,M,M,M,M,M,M,M,M,78.08,KJFK 290251Z 33012KT 10SM FEW065 26/14 A2990 RMK AO2 SLP123 T02560144 51017
JFK,2012-08-29 03:51,-73.7622,40.6386,75.92,57.92,53.65,350.00,9.00,0.00,29.90,1012.50,10.00,M,FEW,M,M,M,7000.00,M,M,M,M,M,M,M,M,M,M,75.92,KJFK 290351Z 35009KT 10SM FEW070 24/14 A2990 RMK AO2 SLP125 T02440144
JFK,2012-08-29 04:51,-73.7622,40.6386,73.94,57.92,57.32,340.00,10.00,0.00,29.91,1012.80,10.00,M,FEW,M,M,M,8500.00,M,M,M,M,M,M,M,M,M,M,73.94,KJFK 290451Z 34010KT 10SM FEW085 23/14 A2991 RMK AO2 SLP128 T02330144 403170233
JFK,2012-08-29 05:51,-73.7622,40.6386,73.04,57.02,57.20,350.00,9.00,0.00,29.91,1012.70,10.00,M,FEW,M,M,M,8500.00,M,M,M,M,M,M,M,M,M,M,73.04,KJFK 290551Z 35009KT 10SM FEW085 23/14 A2991 RMK AO2 SLP127 T02280139 10278 20228 50004
JFK,2012-08-29 06:51,-73.7622,40.6386,71.96,57.02,59.32,350.00,8.00,0.00,29.90,1012.60,10.00,M,FEW,M,M,M,8500.00,M,M,M,M,M,M,M,M,M,M,71.96,KJFK 290651Z 35008KT 10SM FEW085 22/14 A2990 RMK AO2 SLP126 T02220139
JFK,2012-08-29 07:51,-73.7622,40.6386,69.98,57.02,63.45,350.00,8.00,0.00,29.91,1012.60,10.00,M,FEW,M,M,M,9000.00,M,M,M,M,M,M,M,M,M,M,69.98,KJFK 290751Z 35008KT 10SM FEW090 21/14 A2991 RMK AO2 SLP126 T02110139
JFK,2012-08-29 08:51,-73.7622,40.6386,69.08,57.92,67.59,360.00,8.00,0.00,29.91,1012.80,10.00,M,FEW,M,M,M,9000.00,M,M,M,M,M,M,M,M,M,M,69.08,KJFK 290851Z 36008KT 10SM FEW090 21/14 A2991 RMK AO2 SLP128 T02060144 53001
JFK,2012-08-29 09:51,-73.7622,40.6386,68.00,57.02,67.91,10.00,10.00,0.00,29.93,1013.40,10.00,M,CLR,M,M,M,M,M,M,M,M,M,M,M,M,M,M,68.00,KJFK 290951Z 01010KT 10SM CLR 20/14 A2993 RMK AO2 SLP134 T02000139
JFK,2012-08-29 10:51,-73.7622,40.6386,66.92,57.02,70.49,360.00,11.00,0.00,29.96,1014.40,10.00,M,CLR,M,M,M,M,M,M,M,M,M,M,M,M,M,M,66.92,KJFK 291051Z 36011KT 10SM CLR 19/14 A2996 RMK AO2 SLP144 T01940139
JFK,2012-08-29 11:51,-73.7622,40.6386,69.08,55.04,60.91,10.00,9.00,0.00,29.98,1015.10,10.00,M,CLR,M,M,M,M,M,M,M,M,M,M,M,M,M,M,69.08,KJFK 291151Z 01009KT 10SM CLR 21/13 A2998 RMK AO2 SLP151 T02060128 10228 20194 53022
JFK,2012-08-29 12:51,-73.7622,40.6386,71.96,53.96,53.08,20.00,9.00,0.00,30.00,1015.80,10.00,M,FEW,M,M,M,3800.00,M,M,M,M,M,M,M,M,M,M,71.96,KJFK 291251Z 02009KT 10SM FEW038 22/12 A3000 RMK AO2 SLP158 T02220122 $
JFK,2012-08-29 13:51,-73.7622,40.6386,73.04,51.08,46.04,20.00,12.00,0.00,30.00,1016.00,10.00,18.00,FEW,M,M,M,4500.00,M,M,M,M,M,M,M,M,M,M,73.04,KJFK 291351Z 02012G18KT 10SM FEW045 23/11 A3000 RMK AO2 SLP160 T02280106
JFK,2012-08-29 14:51,-73.7622,40.6386,73.94,51.08,44.66,30.00,9.00,0.00,30.01,1016.20,10.00,19.00,FEW,M,M,M,4700.00,M,M,M,M,M,M,M,M,M,M,73.94,KJFK 291451Z 03009G19KT 10SM FEW047 23/11 A3001 RMK AO2 SLP162 T02330106 51011
JFK,2012-08-29 15:51,-73.7622,40.6386,75.92,48.92,38.57,360.00,8.00,0.00,30.01,1016.20,10.00,M,FEW,M,M,M,5000.00,M,M,M,M,M,M,M,M,M,M,75.92,KJFK 291551Z 36008KT 10SM FEW050 24/09 A3001 RMK AO2 SLP162 T02440094
JFK,2012-08-29 16:51,-73.7622,40.6386,75.92,48.02,37.30,310.00,5.00,0.00,30.00,1015.80,10.00,18.00,FEW,SCT,M,M,5500.00,25000.00,M,M,M,M,M,M,M,M,M,75.92,KJFK 291651Z 31005G18KT 10SM FEW055 SCT250 24/09 A3000 RMK AO2 SLP158 T02440089
JFK,2012-08-29 17:51,-73.7622,40.6386,77.00,46.04,33.39,M,4.00,0.00,29.99,1015.40,10.00,19.00,FEW,SCT,M,M,6000.00,25000.00,M,M,M,M,M,M,M,M,M,77.00,KJFK 291751Z VRB04G19KT 10SM FEW060 SCT250 25/08 A2999 RMK AO2 SLP154 T02500078 10256 20206 58007
JFK,2012-08-29 17:57,-73.7622,40.6386,78.80,48.20,34.13,340.00,11.00,0.00,29.99,M,10.00,19.00,FEW,SCT,M,M,6000.00,25000.00,M,M,M,M,M,M,M,M,M,78.80,KJFK 291757Z 34011G19KT 10SM FEW060 SCT250 26/09 A2999 RMK AO2
JFK,2012-08-29 18:51,-73.7622,40.6386,78.08,46.94,33.34,20.00,7.00,0.00,29.97,1014.90,10.00,M,FEW,M,M,M,6000.00,M,M,M,M,M,M,M,M,M,M,78.08,KJFK 291851Z 02007KT 10SM FEW060 26/08 A2997 RMK AO2 SLP149 T02560083
JFK,2012-08-29 19:51,-73.7622,40.6386,78.98,48.02,33.70,20.00,8.00,0.00,29.96,1014.50,10.00,M,FEW,M,M,M,6500.00,M,M,M,M,M,M,M,M,M,M,78.98,KJFK 291951Z 02008KT 340V050 10SM FEW065 26/09 A2996 RMK AO2 SLP145 T02610089
JFK,2012-08-29 20:51,-73.7622,40.6386,77.00,51.98,41.69,240.00,7.00,0.00,29.96,1014.50,10.00,M,FEW,M,M,M,6500.00,M,M,M,M,M,M,M,M,M,M,77.00,KJFK 292051Z 24007KT 10SM FEW065 25/11 A2996 RMK AO2 SLP145 T02500111 55009
JFK,2012-08-29 21:51,-73.7622,40.6386,77.00,51.08,40.33,170.00,4.00,0.00,29.96,1014.40,10.00,M,FEW,M,M,M,6500.00,M,M,M,M,M,M,M,M,M,M,77.00,KJFK 292151Z 17004KT 10SM FEW065 25/11 A2996 RMK AO2 SLP144 T02500106
JFK,2012-08-29 22:51,-73.7622,40.6386,75.02,51.08,43.08,150.00,4.00,0.00,29.96,1014.40,10.00,M,FEW,M,M,M,6500.00,M,M,M,M,M,M,M,M,M,M,75.02,KJFK 292251Z 15004KT 10SM FEW065 24/11 A2996 RMK AO2 SLP144 T02390106
JFK,2012-08-29 23:51,-73.7622,40.6386,71.96,53.06,51.36,170.00,4.00,0.00,29.98,1015.00,10.00,M,FEW,M,M,M,6500.00,M,M,M,M,M,M,M,M,M,M,71.96,KJFK 292351Z 17004KT 10SM FEW065 22/12 A2998 RMK AO2 SLP150 T02220117 10261 20222 53005
JFK,2012-08-30 00:51,-73.7622,40.6386,73.04,53.96,51.18,0.00,0.00,0.00,30.00,1015.70,10.00,M,FEW,M,M,M,6500.00,M,M,M,M,M,M,M,M,M,M,73.04,KJFK 300051Z 00000KT 10SM FEW065 23/12 A3000 RMK AO2 SLP157 T02280122
JFK,2012-08-30 01:51,-73.7622,40.6386,71.06,55.94,58.82,160.00,3.00,0.00,30.01,1016.10,10.00,M,FEW,M,M,M,6500.00,M,M,M,M,M,M,M,M,M,M,71.06,KJFK 300151Z 16003KT 10SM FEW065 22/13 A3001 RMK AO2 SLP161 T02170133 $
JFK,2012-08-30 02:51,-73.7622,40.6386,71.96,57.02,59.32,140.00,4.00,0.00,30.02,1016.40,10.00,M,FEW,M,M,M,6500.00,M,M,M,M,M,M,M,M,M,M,71.96,KJFK 300251Z 14004KT 10SM FEW065 22/14 A3002 RMK AO2 SLP164 T02220139 51014 $
JFK,2012-08-30 03:51,-73.7622,40.6386,69.98,62.06,75.96,170.00,5.00,0.00,30.02,1016.60,10.00,M,SCT,M,M,M,6500.00,M,M,M,M,M,M,M,M,M,M,69.98,KJFK 300351Z 17005KT 10SM SCT065 21/17 A3002 RMK AO2 SLP166 T02110167
JFK,2012-08-30 04:51,-73.7622,40.6386,69.98,60.98,73.11,0.00,0.00,0.00,30.03,1016.70,10.00,M,FEW,M,M,M,6500.00,M,M,M,M,M,M,M,M,M,M,69.98,KJFK 300451Z 00000KT 10SM FEW065 21/16 A3003 RMK AO2 SLP167 T02110161 402610194
JFK,2012-08-30 05:51,-73.7622,40.6386,69.08,53.06,56.66,290.00,5.00,0.00,30.02,1016.60,10.00,M,FEW,M,M,M,6500.00,M,M,M,M,M,M,M,M,M,M,69.08,KJFK 300551Z 29005KT 10SM FEW065 21/12 A3002 RMK AO2 SLP166 T02060117 10228 20200 50001
JFK,2012-08-30 06:51,-73.7622,40.6386,66.92,51.08,56.73,310.00,8.00,0.00,30.03,1016.70,10.00,M,FEW,M,M,M,6500.00,M,M,M,M,M,M,M,M,M,M,66.92,KJFK 300651Z 31008KT 10SM FEW065 19/11 A3003 RMK AO2 SLP167 T01940106
JFK,2012-08-30 07:51,-73.7622,40.6386,66.02,51.98,60.51,330.00,7.00,0.00,30.03,1016.90,10.00,M,CLR,M,M,M,M,M,M,M,M,M,M,M,M,M,M,66.02,KJFK 300751Z 33007KT 10SM CLR 19/11 A3003 RMK AO2 SLP169 T01890111
JFK,2012-08-30 08:51,-73.7622,40.6386,64.04,55.04,72.53,0.00,0.00,0.00,30.03,1017.00,10.00,M,CLR,M,M,M,M,M,M,M,M,M,M,M,M,M,M,64.04,KJFK 300851Z 00000KT 10SM CLR 18/13 A3003 RMK AO2 SLP170 T01780128 51004
JFK,2012-08-30 09:51,-73.7622,40.6386,64.04,53.96,69.72,0.00,0.00,0.00,30.04,1017.20,10.00,M,CLR,M,M,M,M,M,M,M,M,M,M,M,M,M,M,64.04,KJFK 300951Z 00000KT 10SM CLR 18/12 A3004 RMK AO2 SLP172 T01780122
JFK,2012-08-30 10:51,-73.7622,40.6386,64.04,55.04,72.53,320.00,4.00,0.00,30.08,1018.50,10.00,M,FEW,M,M,M,4000.00,M,M,M,M,M,M,M,M,M,M,64.04,KJFK 301051Z 32004KT 10SM FEW040 18/13 A3008 RMK AO2 SLP185 T01780128
JFK,2012-08-30 11:51,-73.7622,40.6386,69.98,55.04,59.06,320.00,5.00,0.00,30.09,1018.90,10.00,M,FEW,SCT,M,M,4000.00,25000.00,M,M,M,M,M,M,M,M,M,69.98,KJFK 301151Z 32005KT 10SM FEW040 SCT250 21/13 A3009 RMK AO2 SLP189 T02110128 10211 20167 53019
JFK,2012-08-30 12:51,-73.7622,40.6386,73.04,48.92,42.48,320.00,10.00,0.00,30.10,1019.10,10.00,M,FEW,M,M,M,25000.00,M,M,M,M,M,M,M,M,M,M,73.04,KJFK 301251Z 32010KT 10SM FEW250 23/09 A3010 RMK AO2 SLP191 T02280094
JFK,2012-08-30 13:51,-73.7622,40.6386,75.02,48.92,39.75,330.00,13.00,0.00,30.10,1019.20,10.00,16.00,FEW,SCT,M,M,17000.00,25000.00,M,M,M,M,M,M,M,M,M,75.02,KJFK 301351Z 33013G16KT 10SM FEW170 SCT250 24/09 A3010 RMK AO2 SLP192 T02390094
JFK,2012-08-30 14:51,-73.7622,40.6386,77.00,48.02,35.98,280.00,8.00,0.00,30.11,1019.50,10.00,M,FEW,M,M,M,25000.00,M,M,M,M,M,M,M,M,M,M,77.00,KJFK 301451Z 28008KT 10SM FEW250 25/09 A3011 RMK AO2 SLP195 T02500089 53007
JFK,2012-08-30 15:51,-73.7622,40.6386,78.08,46.94,33.34,260.00,11.00,0.00,30.10,1019.40,10.00,M,CLR,M,M,M,M,M,M,M,M,M,M,M,M,M,M,78.08,KJFK 301551Z 26011KT 10SM CLR 26/08 A3010 RMK AO2 SLP194 T02560083
JFK,2012-08-30 16:51,-73.7622,40.6386,80.06,46.94,31.24,280.00,9.00,0.00,30.10,1019.10,10.00,M,CLR,M,M,M,M,M,M,M,M,M,M,M,M,M,M,80.06,KJFK 301651Z 28009KT 10SM CLR 27/08 A3010 RMK AO2 SLP191 T02670083
JFK,2012-08-30 17:51,-73.7622,40.6386,82.04,46.94,29.28,260.00,10.00,0.00,30.09,1018.90,10.00,M,CLR,M,M,M,M,M,M,M,M,M,M,M,M,M,M,82.04,KJFK 301751Z 26010KT 10SM CLR 28/08 A3009 RMK AO2 SLP189 T02780083 10278 20211 58007
JFK,2012-08-30 18:51,-73.7622,40.6386,82.94,42.08,23.63,250.00,9.00,0.00,30.07,1018.40,10.00,M,CLR,M,M,M,M,M,M,M,M,M,M,M,M,M,M,82.94,KJFK 301851Z 25009KT 10SM CLR 28/06 A3007 RMK AO2 SLP184 T02830056
JFK,2012-08-30 19:51,-73.7622,40.6386,82.94,44.96,26.39,230.00,11.00,0.00,30.06,1017.90,10.00,M,CLR,M,M,M,M,M,M,M,M,M,M,M,M,M,M,82.94,KJFK 301951Z 23011KT 10SM CLR 28/07 A3006 RMK AO2 SLP179 T02830072
JFK,2012-08-30 20:51,-73.7622,40.6386,82.04,48.02,30.50,230.00,11.00,0.00,30.06,1017.90,10.00,M,CLR,M,M,M,M,M,M,M,M,M,M,M,M,M,M,82.04,KJFK 302051Z 23011KT 10SM CLR 28/09 A3006 RMK AO2 SLP179 T02780089 56009
JFK,2012-08-30 21:51,-73.7622,40.6386,80.96,53.06,38.08,230.00,11.00,0.00,30.06,1017.90,10.00,M,CLR,M,M,M,M,M,M,M,M,M,M,M,M,M,M,80.96,KJFK 302151Z 23011KT 10SM CLR 27/12 A3006 RMK AO2 SLP179 T02720117
JFK,2012-08-30 22:51,-73.7622,40.6386,78.98,55.94,45.14,240.00,12.00,0.00,30.06,1017.90,10.00,M,FEW,M,M,M,25000.00,M,M,M,M,M,M,M,M,M,M,78.98,KJFK 302251Z 24012KT 10SM FEW250 26/13 A3006 RMK AO2 SLP179 T02610133
JFK,2012-08-30 23:51,-73.7622,40.6386,77.00,60.08,55.91,240.00,10.00,0.00,30.06,1018.00,10.00,M,FEW,M,M,M,25000.00,M,M,M,M,M,M,M,M,M,M,77.00,KJFK 302351Z 24010KT 10SM FEW250 25/16 A3006 RMK AO2 SLP180 T02500156 10289 20250 53001
JFK,2012-08-31 00:51,-73.7622,40.6386,75.92,62.96,64.17,240.00,10.00,0.00,30.07,1018.20,10.00,M,FEW,M,M,M,25000.00,M,M,M,M,M,M,M,M,M,M,75.92,KJFK 310051Z 24010KT 10SM FEW250 24/17 A3007 RMK AO2 SLP182 T02440172
JFK,2012-08-31 01:51,-73.7622,40.6386,75.02,62.06,64.07,240.00,10.00,0.00,30.07,1018.20,10.00,M,FEW,M,M,M,25000.00,M,M,M,M,M,M,M,M,M,M,75.02,KJFK 310151Z 24010KT 10SM FEW250 24/17 A3007 RMK AO2 SLP182 T02390167
JFK,2012-08-31 02:51,-73.7622,40.6386,73.04,64.04,73.41,240.00,8.00,0.00,30.07,1018.10,10.00,M,CLR,M,M,M,M,M,M,M,M,M,M,M,M,M,M,73.04,KJFK 310251Z 24008KT 10SM CLR 23/18 A3007 RMK AO2 SLP181 T02280178 50001
JFK,2012-08-31 03:51,-73.7622,40.6386,73.04,64.04,73.41,240.00,9.00,0.00,30.06,1017.90,10.00,M,CLR,M,M,M,M,M,M,M,M,M,M,M,M,M,M,73.04,KJFK 310351Z 24009KT 10SM CLR 23/18 A3006 RMK AO2 SLP179 T02280178
JFK,2012-08-31 04:51,-73.7622,40.6386,71.96,62.96,73.30,240.00,9.00,0.00,30.07,1018.10,10.00,M,CLR,M,M,M,M,M,M,M,M,M,M,M,M,M,M,71.96,KJFK 310451Z 24009KT 10SM CLR 22/17 A3007 RMK AO2 SLP181 T02220172 402890167
JFK,2012-08-31 05:51,-73.7622,40.6386,71.96,60.08,66.20,250.00,9.00,0.00,30.07,1018.10,10.00,M,CLR,M,M,M,M,M,M,M,M,M,M,M,M,M,M,71.96,KJFK 310551Z 25009KT 10SM CLR 22/16 A3007 RMK AO2 SLP181 T02220156 10250 20217 53000
JFK,2012-08-31 06:51,-73.7622,40.6386,69.98,57.92,65.54,250.00,7.00,0.00,30.07,1018.20,10.00,M,CLR,M,M,M,M,M,M,M,M,M,M,M,M,M,M,69.98,KJFK 310651Z 25007KT 10SM CLR 21/14 A3007 RMK AO2 SLP182 T02110144
JFK,2012-08-31 07:51,-73.7622,40.6386,66.02,59.00,78.08,240.00,7.00,0.00,30.07,1018.00,10.00,M,CLR,M,M,M,M,M,M,M,M,M,M,M,M,M,M,66.02,KJFK 310751Z 24007KT 10SM CLR 19/15 A3007 RMK AO2 SLP180 T01890150
JFK,2012-08-31 08:51,-73.7622,40.6386,68.00,57.92,70.15,250.00,7.00,0.00,30.06,1017.80,10.00,M,CLR,M,M,M,M,M,M,M,M,M,M,M,M,M,M,68.00,KJFK 310851Z 25007KT 10SM CLR 20/14 A3006 RMK AO2 SLP178 T02000144 58004
JFK,2012-08-31 09:51,-73.7622,40.6386,69.08,60.98,75.40,250.00,7.00,0.00,30.06,1018.00,10.00,M,FEW,M,M,M,8000.00,M,M,M,M,M,M,M,M,M,M,69.08,KJFK 310951Z 25007KT 10SM FEW080 21/16 A3006 RMK AO2 SLP180 T02060161
JFK,2012-08-31 10:51,-73.7622,40.6386,69.98,62.06,75.96,240.00,9.00,0.00,30.07,1018.10,10.00,M,FEW,SCT,M,M,8000.00,25000.00,M,M,M,M,M,M,M,M,M,69.98,KJFK 311051Z 24009KT 10SM FEW080 SCT250 21/17 A3007 RMK AO2 SLP181 T02110167
JFK,2012-08-31 11:51,-73.7622,40.6386,73.04,64.94,75.75,260.00,11.00,0.00,30.07,1018.20,10.00,M,SCT,M,M,M,25000.00,M,M,M,M,M,M,M,M,M,M,73.04,KJFK 311151Z 26011KT 10SM SCT250 23/18 A3007 RMK AO2 SLP182 T02280183 10228 20183 51004
JFK,2012-08-31 12:51,-73.7622,40.6386,75.92,66.92,73.68,240.00,12.00,0.00,30.06,1017.90,9.00,M,FEW,SCT,M,M,18000.00,25000.00,M,M,M,M,M,M,M,M,M,75.92,KJFK 311251Z 24012KT 9SM FEW180 SCT250 24/19 A3006 RMK AO2 SLP179 T02440194
JFK,2012-08-31 13:51,-73.7622,40.6386,77.00,68.00,73.78,240.00,11.00,0.00,30.06,1017.90,9.00,M,FEW,M,M,M,25000.00,M,M,M,M,M,M,M,M,M,M,77.00,KJFK 311351Z 24011KT 9SM FEW250 25/20 A3006 RMK AO2 SLP179 T02500200
JFK,2012-08-31 14:51,-73.7622,40.6386,82.94,66.02,56.72,250.00,12.00,0.00,30.05,1017.40,10.00,M,FEW,M,M,M,25000.00,M,M,M,M,M,M,M,M,M,M,85.12,KJFK 311451Z 25012KT 10SM FEW250 28/19 A3005 RMK AO2 SLP174 T02830189 58008
JFK,2012-08-31 15:51,-73.7622,40.6386,84.02,68.00,58.65,230.00,12.00,0.00,30.03,1016.90,10.00,M,FEW,M,M,M,25000.00,M,M,M,M,M,M,M,M,M,M,87.20,KJFK 311551Z 23012KT 10SM FEW250 29/20 A3003 RMK AO2 SLP169 T02890200
JFK,2012-08-31 16:51,-73.7622,40.6386,87.08,64.04,46.35,230.00,16.00,0.00,30.01,1016.10,10.00,M,FEW,M,M,M,25000.00,M,M,M,M,M,M,M,M,M,M,88.42,KJFK 311651Z 23016KT 10SM FEW250 31/18 A3001 RMK AO2 SLP161 T03060178
JFK,2012-08-31 17:51,-73.7622,40.6386,89.06,59.00,36.42,230.00,17.00,0.00,29.98,1015.30,10.00,M,FEW,M,M,M,25000.00,M,M,M,M,M,M,M,M,M,M,89.06,KJFK 311751Z 23017KT 10SM FEW250 32/15 A2998 RMK AO2 SLP153 T03170150 10317 20228 58021
JFK,2012-08-31 18:51,-73.7622,40.6386,89.06,57.92,35.04,240.00,17.00,0.00,29.97,1014.70,10.00,M,FEW,M,M,M,25000.00,M,M,M,M,M,M,M,M,M,M,89.06,KJFK 311851Z 24017KT 10SM FEW250 32/14 A2997 RMK AO2 SLP147 T03170144
JFK,2012-08-31 19:51,-73.7622,40.6386,89.96,55.94,31.71,240.00,17.00,0.00,29.94,1013.90,10.00,M,FEW,M,M,M,25000.00,M,M,M,M,M,M,M,M,M,M,89.96,KJFK 311951Z 24017KT 10SM FEW250 32/13 A2994 RMK AO2 SLP139 T03220133
JFK,2012-08-31 20:51,-73.7622,40.6386,89.06,57.02,33.92,230.00,17.00,0.00,29.92,1013.30,10.00,M,FEW,M,M,M,25000.00,M,M,M,M,M,M,M,M,M,M,89.06,KJFK 312051Z 23017KT 10SM FEW250 32/14 A2992 RMK AO2 SLP133 T03170139 58020
JFK,2012-08-31 21:51,-73.7622,40.6386,86.00,62.06,44.75,240.00,12.00,0.00,29.91,1012.90,10.00,M,FEW,M,M,M,25000.00,M,M,M,M,M,M,M,M,M,M,86.51,KJFK 312151Z 24012KT 10SM FEW250 30/17 A2991 RMK AO2 SLP129 T03000167
JFK,2012-08-31 22:51,-73.7622,40.6386,86.00,59.00,40.14,250.00,14.00,0.00,29.91,1012.90,10.00,M,CLR,M,M,M,M,M,M,M,M,M,M,M,M,M,M,85.47,KJFK 312251Z 25014KT 10SM CLR 30/15 A2991 RMK AO2 SLP129 T03000150
JFK,2012-08-31 23:51,-73.7622,40.6386,82.94,62.06,49.37,250.00,11.00,0.00,29.92,1013.30,10.00,M,FEW,M,M,M,25000.00,M,M,M,M,M,M,M,M,M,M,83.72,KJFK 312351Z 25011KT 10SM FEW250 28/17 A2992 RMK AO2 SLP133 T02830167 10322 20283 55000
