#DEBUG: Format Typ    -> comma
#DEBUG: Time Period   -> 2012-08-01 00:00:00+00:00 2012-09-01 00:00:00+00:00
#DEBUG: Time Zone     -> Etc/UTC
#DEBUG: Data Contact   -> daryl herzmann akrherz@iastate.edu 515-294-5978
#DEBUG: Entries Found -> -1
station,valid,lon,lat,tmpf,dwpf,relh,drct,sknt,p01i,alti,mslp,vsby,gust,skyc1,skyc2,skyc3,skyc4,skyl1,skyl2,skyl3,skyl4,wxcodes,ice_accretion_1hr,ice_accretion_3hr,ice_accretion_6hr,peak_wind_gust,peak_wind_drct,peak_wind_time,feel,metar
LGA,2012-08-01 00:51,-73.8803,40.7794,75.02,66.92,75.93,210.00,6.00,0.00,29.93,1013.30,10.00,M,SCT,SCT,M,M,2900.00,25000.00,M,M,M,M,M,M,M,M,M,75.02,KLGA 010051Z 21006KT 10SM SCT029 SCT250 24/19 A2993 RMK AO2 SLP133 T02390194
LGA,2012-08-01 01:51,-73.8803,40.7794,75.02,66.02,73.59,140.00,7.00,0.00,29.93,1013.50,10.00,M,FEW,SCT,M,M,2900.00,25000.00,M,M,M,M,M,M,M,M,M,75.02,KLGA 010151Z 14007KT 10SM FEW029 SCT250 24/19 A2993 RMK AO2 SLP135 T02390189
LGA,2012-08-01 02:51,-73.8803,40.7794,73.94,66.02,76.31,180.00,5.00,0.00,29.93,1013.40,10.00,M,FEW,SCT,M,M,2000.00,25000.00,M,M,M,M,M,M,M,M,M,73.94,KLGA 010251Z 18005KT 10SM FEW020 SCT250 23/19 A2993 RMK AO2 SLP134 T02330189 50006
LGA,2012-08-01 03:43,-73.8803,40.7794,73.40,66.20,78.19,200.00,7.00,0.00,29.93,M,10.00,M,BKN,M,M,M,2300.00,M,M,M,M,M,M,M,M,M,M,73.40,KLGA 010343Z 20007KT 10SM BKN023 23/19 A2993 RMK AO2
LGA,2012-08-01 03:51,-73.8803,40.7794,73.94,66.02,76.31,200.00,9.00,0.00,29.93,1013.50,10.00,M,BKN,M,M,M,2300.00,M,M,M,M,M,M,M,M,M,M,73.94,KLGA 010351Z 20009KT 10SM BKN023 23/19 A2993 RMK AO2 SLP135 T02330189
LGA,2012-08-01 04:47,-73.8803,40.7794,73.40,66.20,78.19,180.00,7.00,0.00,29.93,M,10.00,M,SCT,M,M,M,1900.00,M,M,M,M,M,M,M,M,M,M,73.40,KLGA 010447Z 18007KT 10SM SCT019 23/19 A2993 RMK AO2 402560217
LGA,2012-08-01 04:51,-73.8803,40.7794,73.04,66.92,81.14,170.00,5.00,0.00,29.92,1013.30,10.00,M,SCT,M,M,M,1900.00,M,M,M,M,M,M,M,M,M,M,73.04,KLGA 010451Z 17005KT 10SM SCT019 23/19 A2992 RMK AO2 SLP133 T02280194 402560217
LGA,2012-08-01 05:51,-73.8803,40.7794,73.04,68.00,84.22,180.00,8.00,0.00,29.91,1012.90,10.00,M,SCT,M,M,M,3200.00,M,M,M,M,M,M,M,M,M,M,73.04,KLGA 010551Z 18008KT 10SM SCT032 23/20 A2991 RMK AO2 SLP129 T02280200 10250 20228 58004
LGA,2012-08-01 06:51,-73.8803,40.7794,73.04,68.00,84.22,190.00,8.00,0.00,29.90,1012.50,10.00,M,SCT,M,M,M,2600.00,M,M,M,M,M,M,M,M,M,M,73.04,KLGA 010651Z 19008KT 10SM SCT026 23/20 A2990 RMK AO2 SLP125 T02280200
LGA,2012-08-01 07:10,-73.8803,40.7794,73.40,68.00,83.21,200.00,7.00,0.00,29.90,M,10.00,M,BKN,M,M,M,2600.00,M,M,M,M,M,M,M,M,M,M,73.40,KLGA 010710Z 20007KT 10SM BKN026 23/20 A2990 RMK AO2
LGA,2012-08-01 07:29,-73.8803,40.7794,73.40,68.00,83.21,210.00,10.00,0.00,29.89,M,10.00,M,SCT,M,M,M,2600.00,M,M,M,M,M,M,M,M,M,M,73.40,KLGA 010729Z 21010KT 10SM SCT026 23/20 A2989 RMK AO2
LGA,2012-08-01 07:51,-73.8803,40.7794,73.94,66.92,78.72,210.00,7.00,0.00,29.89,1012.10,10.00,M,SCT,M,M,M,2800.00,M,M,M,M,M,M,M,M,M,M,73.94,KLGA 010751Z 21007KT 10SM SCT028 23/19 A2989 RMK AO2 SLP121 T02330194
LGA,2012-08-01 08:51,-73.8803,40.7794,73.04,66.92,81.14,210.00,7.00,0.00,29.88,1011.90,10.00,M,FEW,SCT,M,M,2800.00,25000.00,M,M,M,M,M,M,M,M,M,73.04,KLGA 010851Z 21007KT 10SM FEW028 SCT250 23/19 A2988 RMK AO2 SLP119 T02280194 56010
LGA,2012-08-01 09:46,-73.8803,40.7794,73.40,68.00,83.21,220.00,4.00,0.00,29.89,M,10.00,M,BKN,M,M,M,1600.00,M,M,M,M,M,M,M,M,M,M,73.40,KLGA 010946Z 22004KT 10SM BKN016 23/20 A2989 RMK AO2
LGA,2012-08-01 09:51,-73.8803,40.7794,73.94,68.00,81.71,220.00,6.00,0.00,29.89,1012.10,10.00,M,BKN,M,M,M,1600.00,M,M,M,M,M,M,M,M,M,M,73.94,KLGA 010951Z 22006KT 10SM BKN016 23/20 A2989 RMK AO2 SLP121 T02330200
LGA,2012-08-01 10:51,-73.8803,40.7794,75.02,69.08,81.79,200.00,5.00,0.00,29.90,1012.30,10.00,M,BKN,M,M,M,2200.00,M,M,M,M,M,M,M,M,M,M,75.02,KLGA 011051Z 20005KT 10SM BKN022 24/21 A2990 RMK AO2 SLP123 T02390206
LGA,2012-08-01 11:37,-73.8803,40.7794,73.40,71.60,94.10,0.00,0.00,0.16,29.90,M,3.00,M,BKN,OVC,M,M,1300.00,2900.00,M,M,+RA BR,M,M,M,M,M,M,73.40,KLGA 011137Z 00000KT 3SM +RA BR BKN013 OVC029 23/22 A2990 RMK AO2 RAB1054 P0016
LGA,2012-08-01 11:51,-73.8803,40.7794,73.94,71.96,93.54,220.00,3.00,0.24,29.90,1012.60,5.00,M,BKN,BKN,OVC,M,1300.00,2200.00,2400.00,M,-RA BR,M,M,M,M,M,M,73.94,KLGA 011151Z 22003KT 5SM -RA BR BKN013 BKN022 OVC024 23/22 A2990 RMK AO2 RAB1054 SLP126 P0024 60024 70024 T02330222 10244 20228 53005
LGA,2012-08-01 12:08,-73.8803,40.7794,73.40,71.60,94.10,180.00,5.00,0.01,29.90,M,10.00,M,SCT,BKN,BKN,BKN,1500.00,4100.00,7000.00,15000.00,M,M,M,M,M,M,M,73.40,KLGA 011208Z 18005KT 10SM SCT015 BKN041 BKN070 BKN150 23/22 A2990 RMK AO2 RAE08 P0001
LGA,2012-08-01 12:51,-73.8803,40.7794,75.02,71.06,87.50,230.00,7.00,0.01,29.90,1012.40,10.00,M,FEW,BKN,BKN,M,1500.00,2000.00,11000.00,M,M,M,M,M,M,M,M,75.02,KLGA 011251Z 23007KT 10SM FEW015 BKN020 BKN110 24/22 A2990 RMK AO2 RAE08 SLP124 P0001 T02390217
LGA,2012-08-01 13:09,-73.8803,40.7794,75.20,71.60,88.59,230.00,7.00,0.00,29.90,M,10.00,M,FEW,SCT,BKN,M,1200.00,3900.00,11000.00,M,M,M,M,M,M,M,M,75.20,KLGA 011309Z 23007KT 10SM FEW012 SCT039 BKN110 24/22 A2990 RMK AO2
LGA,2012-08-01 13:51,-73.8803,40.7794,77.00,71.06,81.92,200.00,6.00,0.00,29.90,1012.30,10.00,M,FEW,BKN,BKN,M,1500.00,3500.00,11000.00,M,M,M,M,M,M,M,M,77.00,KLGA 011351Z 20006KT 10SM FEW015 BKN035 BKN110 25/22 A2990 RMK AO2 SLP123 T02500217
LGA,2012-08-01 14:51,-73.8803,40.7794,78.98,68.00,69.11,250.00,6.00,0.00,29.89,1012.00,10.00,M,FEW,BKN,OVC,M,2300.00,3700.00,11000.00,M,M,M,M,M,M,M,M,78.98,KLGA 011451Z 25006KT 10SM FEW023 BKN037 OVC110 26/20 A2989 RMK AO2 SLP120 60001 T02610200 58006
LGA,2012-08-01 15:42,-73.8803,40.7794,80.60,69.80,69.71,M,3.00,0.00,29.88,M,10.00,M,BKN,BKN,BKN,BKN,2700.00,4700.00,7500.00,25000.00,TS,M,M,M,M,M,M,83.90,KLGA 011542Z VRB03KT 10SM TS BKN027CB BKN047 BKN075 BKN250 27/21 A2988 RMK AO2 TSB40 OCNL LTGIC OHD AND E-S TS OHD AND E-S MOV E VCSH E-S-SW
LGA,2012-08-01 15:51,-73.8803,40.7794,77.00,69.98,78.96,140.00,11.00,0.00,29.88,1011.60,10.00,M,BKN,BKN,BKN,BKN,2700.00,3800.00,7500.00,25000.00,TS,M,M,M,M,M,M,77.00,KLGA 011551Z 14011KT 10SM TS BKN027CB BKN038 BKN075 BKN250 25/21 A2988 RMK AO2 TSB40 SLP116 OCNL LTGIC OHD AND E-S TS OHD AND E-S MOV E VCSH E-S T02500211
LGA,2012-08-01 16:31,-73.8803,40.7794,78.80,69.80,73.95,170.00,6.00,0.00,29.87,M,10.00,M,SCT,BKN,BKN,OVC,2000.00,3400.00,9500.00,25000.00,TS,M,M,M,M,M,M,78.80,KLGA 011631Z 17006KT 10SM TS SCT020CB BKN034 BKN095 OVC250 26/21 A2987 RMK AO2 RAB02E20 OCNL LTGIC E-S TS E-S MOV E VCSH NE-SE-SW P0000
LGA,2012-08-01 16:51,-73.8803,40.7794,78.98,69.08,71.72,M,5.00,0.00,29.87,1011.30,10.00,M,SCT,SCT,BKN,BKN,2000.00,5000.00,14000.00,25000.00,M,M,M,M,M,M,M,78.98,KLGA 011651Z VRB05KT 10SM SCT020CB SCT050 BKN140 BKN250 26/21 A2987 RMK AO2 TSE51RAB02E20 SLP113 CB SE-SW MOV E VCSH S-SW P0000 T02610206
LGA,2012-08-01 17:16,-73.8803,40.7794,77.00,71.60,83.44,190.00,11.00,0.00,29.87,M,10.00,M,SCT,SCT,BKN,OVC,2200.00,5000.00,11000.00,25000.00,-TSRA,M,M,M,M,M,M,77.00,KLGA 011716Z 19011KT 10SM -TSRA SCT022CB SCT050 BKN110 OVC250 25/22 A2987 RMK AO2 TSB15RAB11 OCNL LTGICCG S-SW TS S-SW MOV E P0000
LGA,2012-08-01 17:51,-73.8803,40.7794,73.94,69.98,87.45,190.00,7.00,0.04,29.87,1011.30,8.00,M,FEW,SCT,BKN,OVC,2400.00,6500.00,9000.00,13000.00,-RA,M,M,M,M,M,M,73.94,KLGA 011751Z 19007KT 8SM -RA FEW024 SCT065 BKN090 OVC130 23/21 A2987 RMK AO2 TSB15E49RAB11 SLP113 P0004 60005 T02330211 10267 20233 56007
LGA,2012-08-01 18:19,-73.8803,40.7794,73.40,69.80,88.51,190.00,6.00,0.02,29.87,M,6.00,M,SCT,SCT,BKN,OVC,2500.00,7000.00,10000.00,13000.00,-TSRA BR,M,M,M,M,M,M,73.40,KLGA 011819Z 19006KT 6SM -TSRA BR SCT025CB SCT070 BKN100 OVC130 23/21 A2987 RMK AO2 TSB13 OCNL LTGIC SW TS SW MOV E P0002
LGA,2012-08-01 18:47,-73.8803,40.7794,73.40,69.80,88.51,M,4.00,0.07,29.86,M,6.00,M,FEW,SCT,BKN,OVC,2500.00,7000.00,10000.00,13000.00,-RA BR,M,M,M,M,M,M,73.40,KLGA 011847Z VRB04KT 6SM -RA BR FEW025 SCT070 BKN100 OVC130 23/21 A2986 RMK AO2 TSB13E41 P0007
LGA,2012-08-01 18:51,-73.8803,40.7794,75.02,69.98,84.34,M,5.00,0.07,29.86,1011.10,6.00,M,FEW,SCT,BKN,OVC,2500.00,7000.00,10000.00,13000.00,-RA,M,M,M,M,M,M,75.02,KLGA 011851Z VRB05KT 6SM -RA FEW025 SCT070 BKN100 OVC130 24/21 A2986 RMK AO2 TSB13E41 SLP111 P0007 T02390211
LGA,2012-08-01 19:51,-73.8803,40.7794,75.92,73.04,90.80,180.00,5.00,0.03,29.85,1010.90,10.00,M,FEW,BKN,OVC,M,7000.00,10000.00,13000.00,M,-RA,M,M,M,M,M,M,75.92,KLGA 011951Z 18005KT 10SM -RA FEW070 BKN100 OVC130 24/23 A2985 RMK AO2 SLP109 P0003 T02440228
LGA,2012-08-01 20:51,-73.8803,40.7794,77.00,71.96,84.46,170.00,9.00,0.00,29.86,1011.00,10.00,M,FEW,BKN,OVC,M,3000.00,7000.00,13000.00,M,-RA,M,M,M,M,M,M,77.00,KLGA 012051Z 17009KT 10SM -RA FEW030 BKN070 OVC130 25/22 A2986 RMK AO2 SLP110 P0000 60010 T02500222 55002
LGA,2012-08-01 21:51,-73.8803,40.7794,77.00,71.96,84.46,200.00,6.00,0.00,29.84,1010.50,10.00,M,BKN,BKN,OVC,M,1500.00,3000.00,13000.00,M,-RA,M,M,M,M,M,M,77.00,KLGA 012151Z 20006KT 10SM -RA BKN015 BKN030 OVC130 25/22 A2984 RMK AO2 RAE22B43 SLP105 P0000 T02500222
LGA,2012-08-01 22:15,-73.8803,40.7794,75.20,71.60,88.59,230.00,5.00,0.00,29.85,M,10.00,M,FEW,SCT,OVC,M,1500.00,3000.00,11000.00,M,M,M,M,M,M,M,M,75.20,KLGA 012215Z 23005KT 10SM FEW015 SCT030 OVC110 24/22 A2985 RMK AO2 RAE2153 P0000
LGA,2012-08-01 22:51,-73.8803,40.7794,75.92,69.98,81.85,210.00,7.00,0.00,29.84,1010.50,10.00,M,FEW,SCT,OVC,M,1500.00,3000.00,11000.00,M,-RA,M,M,M,M,M,M,75.92,KLGA 012251Z 21007KT 10SM -RA FEW015 SCT030 OVC110 24/21 A2984 RMK AO2 RAE2153B25 SLP105 P0000 T02440211
LGA,2012-08-01 23:51,-73.8803,40.7794,75.92,66.92,73.68,190.00,6.00,0.00,29.85,1010.60,10.00,M,SCT,BKN,OVC,M,3000.00,11000.00,25000.00,M,M,M,M,M,M,M,M,75.92,KLGA 012351Z 19006KT 10SM SCT030 BKN110 OVC250 24/19 A2985 RMK AO2 RAE01B33E46 SLP106 P0000 60010 T02440194 10256 20233 55003
LGA,2012-08-02 00:51,-73.8803,40.7794,75.02,66.92,75.93,190.00,3.00,0.00,29.85,1010.90,10.00,M,FEW,SCT,BKN,BKN,1500.00,3000.00,13000.00,25000.00,M,M,M,M,M,M,M,75.02,KLGA 020051Z 19003KT 10SM FEW015 SCT030 BKN130 BKN250 24/19 A2985 RMK AO2 SLP109 T02390194
LGA,2012-08-02 01:51,-73.8803,40.7794,75.92,69.08,79.37,0.00,0.00,0.00,29.85,1010.80,10.00,M,FEW,SCT,BKN,BKN,1500.00,3000.00,13000.00,25000.00,M,M,M,M,M,M,M,75.92,KLGA 020151Z 00000KT 10SM FEW015 SCT030 BKN130 BKN250 24/21 A2985 RMK AO2 SLP108 T02440206
LGA,2012-08-02 02:51,-73.8803,40.7794,75.02,68.00,78.81,190.00,3.00,0.00,29.84,1010.60,10.00,M,SCT,BKN,M,M,3000.00,25000.00,M,M,M,M,M,M,M,M,M,75.02,KLGA 020251Z 19003KT 10SM SCT030 BKN250 24/20 A2984 RMK AO2 SLP106 T02390200 58001
LGA,2012-08-02 03:51,-73.8803,40.7794,75.02,68.00,78.81,230.00,4.00,0.00,29.85,1010.60,10.00,M,FEW,OVC,M,M,18000.00,25000.00,M,M,M,M,M,M,M,M,M,75.02,KLGA 020351Z 23004KT 10SM FEW180 OVC250 24/20 A2985 RMK AO2 SLP106 T02390200
LGA,2012-08-02 04:51,-73.8803,40.7794,75.02,71.06,87.50,290.00,3.00,0.00,29.86,1011.10,8.00,M,BKN,OVC,M,M,18000.00,25000.00,M,M,M,M,M,M,M,M,M,75.02,KLGA 020451Z 29003KT 8SM BKN180 OVC250 24/22 A2986 RMK AO2 SLP111 T02390217 402670228
LGA,2012-08-02 05:51,-73.8803,40.7794,73.94,71.06,90.73,0.00,0.00,0.00,29.85,1010.70,8.00,M,SCT,OVC,M,M,4000.00,20000.00,M,M,M,M,M,M,M,M,M,73.94,KLGA 020551Z 00000KT 8SM SCT040 OVC200 23/22 A2985 RMK AO2 SLP107 T02330217 10250 20233 50002
LGA,2012-08-02 06:51,-73.8803,40.7794,73.94,69.98,87.45,0.00,0.00,0.00,29.85,1010.60,8.00,M,SCT,SCT,SCT,M,4300.00,20000.00,25000.00,M,M,M,M,M,M,M,M,73.94,KLGA 020651Z 00000KT 8SM SCT043 SCT200 SCT250 23/21 A2985 RMK AO2 SLP106 T02330211
LGA,2012-08-02 07:51,-73.8803,40.7794,73.94,69.08,84.80,0.00,0.00,0.00,29.84,1010.40,10.00,M,FEW,M,M,M,25000.00,M,M,M,M,M,M,M,M,M,M,73.94,KLGA 020751Z 00000KT 10SM FEW250 23/21 A2984 RMK AO2 SLP104 T02330206
LGA,2012-08-02 08:51,-73.8803,40.7794,73.04,69.08,87.41,0.00,0.00,0.00,29.84,1010.40,10.00,M,FEW,BKN,M,M,3100.00,20000.00,M,M,M,M,M,M,M,M,M,73.04,KLGA 020851Z 00000KT 10SM FEW031 BKN200 23/21 A2984 RMK AO2 SLP104 T02280206 56004
LGA,2012-08-02 09:51,-73.8803,40.7794,73.94,68.00,81.71,220.00,3.00,0.00,29.86,1011.00,10.00,M,SCT,SCT,SCT,M,4100.00,20000.00,25000.00,M,M,M,M,M,M,M,M,73.94,KLGA 020951Z 22003KT 10SM SCT041 SCT200 SCT250 23/20 A2986 RMK AO2 SLP110 T02330200
LGA,2012-08-02 10:51,-73.8803,40.7794,73.94,68.00,81.71,0.00,0.00,0.00,29.86,1011.00,10.00,M,CLR,M,M,M,M,M,M,M,M,M,M,M,M,M,M,73.94,KLGA 021051Z 00000KT 10SM CLR 23/20 A2986 RMK AO2 SLP110 T02330200
LGA,2012-08-02 11:51,-73.8803,40.7794,75.92,68.00,76.48,290.00,4.00,0.00,29.87,1011.40,9.00,M,CLR,M,M,M,M,M,M,M,M,M,M,M,M,M,M,75.92,KLGA 021151Z 29004KT 9SM CLR 24/20 A2987 RMK AO2 SLP114 70015 T02440200 10244 20228 51010
LGA,2012-08-02 12:51,-73.8803,40.7794,77.00,68.00,73.78,310.00,4.00,0.00,29.87,1011.50,8.00,M,FEW,M,M,M,3200.00,M,M,M,M,M,M,M,M,M,M,77.00,KLGA 021251Z 31004KT 8SM FEW032 25/20 A2987 RMK AO2 SLP115 T02500200
LGA,2012-08-02 13:51,-73.8803,40.7794,78.98,69.08,71.72,330.00,5.00,0.00,29.88,1011.80,8.00,M,FEW,M,M,M,3900.00,M,M,M,M,M,M,M,M,M,M,78.98,KLGA 021351Z 33005KT 8SM FEW039 26/21 A2988 RMK AO2 SLP118 T02610206
LGA,2012-08-02 14:51,-73.8803,40.7794,82.04,69.08,64.90,320.00,4.00,0.00,29.88,1011.90,10.00,M,FEW,M,M,M,4300.00,M,M,M,M,M,M,M,M,M,M,85.43,KLGA 021451Z 32004KT 10SM FEW043 28/21 A2988 RMK AO2 SLP119 T02780206 51005
LGA,2012-08-02 15:51,-73.8803,40.7794,84.02,68.00,58.65,320.00,5.00,0.00,29.89,1012.00,10.00,M,FEW,M,M,M,4400.00,M,M,M,M,M,M,M,M,M,M,87.20,KLGA 021551Z 32005KT 10SM FEW044 29/20 A2989 RMK AO2 SLP120 T02890200
LGA,2012-08-02 16:51,-73.8803,40.7794,84.92,66.92,54.90,300.00,3.00,0.00,29.87,1011.40,10.00,M,FEW,M,M,M,4900.00,M,M,M,M,M,M,M,M,M,M,87.62,KLGA 021651Z 30003KT 10SM FEW049 29/19 A2987 RMK AO2 SLP114 T02940194
LGA,2012-08-02 17:51,-73.8803,40.7794,87.98,64.04,45.04,340.00,3.00,0.00,29.86,1011.10,10.00,M,SCT,M,M,M,6000.00,M,M,M,M,M,M,M,M,M,M,89.34,KLGA 021751Z 34003KT 10SM SCT060 31/18 A2986 RMK AO2 SLP111 T03110178 10311 20244 58007
LGA,2012-08-02 18:51,-73.8803,40.7794,87.08,66.02,49.66,230.00,6.00,0.00,29.86,1011.10,10.00,M,SCT,M,M,M,6000.00,M,M,M,M,M,M,M,M,M,M,89.43,KLGA 021851Z 23006KT 10SM SCT060 31/19 A2986 RMK AO2 SLP111 T03060189
LGA,2012-08-02 19:51,-73.8803,40.7794,89.06,66.02,46.64,210.00,8.00,0.00,29.85,1010.70,10.00,M,SCT,M,M,M,5500.00,M,M,M,M,M,M,M,M,M,M,91.57,KLGA 021951Z 21008KT 10SM SCT055 32/19 A2985 RMK AO2 SLP107 T03170189
LGA,2012-08-02 20:51,-73.8803,40.7794,84.92,71.96,65.23,170.00,17.00,0.00,29.84,1010.60,10.00,21.00,FEW,BKN,BKN,M,3000.00,6000.00,10000.00,M,M,M,M,M,M,M,M,90.81,KLGA 022051Z 17017G21KT 10SM FEW030 BKN060 BKN100 29/22 A2984 RMK AO2 SLP106 T02940222 58005
LGA,2012-08-02 21:51,-73.8803,40.7794,86.00,71.06,61.12,170.00,10.00,0.00,29.85,1010.70,10.00,M,FEW,SCT,M,M,6500.00,10000.00,M,M,M,M,M,M,M,M,M,91.50,KLGA 022151Z 17010KT 10SM FEW065 SCT100 30/22 A2985 RMK AO2 SLP107 T03000217
LGA,2012-08-02 22:51,-73.8803,40.7794,84.92,71.06,63.27,160.00,11.00,0.00,29.85,1010.90,10.00,M,FEW,M,M,M,6500.00,M,M,M,M,M,M,M,M,M,M,90.15,KLGA 022251Z 16011KT 10SM FEW065 29/22 A2985 RMK AO2 SLP109 T02940217
LGA,2012-08-02 23:51,-73.8803,40.7794,82.94,71.96,69.53,170.00,10.00,0.00,29.87,1011.30,10.00,M,FEW,SCT,M,M,6500.00,25000.00,M,M,M,M,M,M,M,M,M,88.14,KLGA 022351Z 17010KT 10SM FEW065 SCT250 28/22 A2987 RMK AO2 SLP113 T02830222 10322 20283 53007
LGA,2012-08-03 00:51,-73.8803,40.7794,82.04,71.96,71.59,170.00,7.00,0.00,29.89,1012.00,10.00,M,FEW,M,M,M,25000.00,M,M,M,M,M,M,M,M,M,M,86.87,KLGA 030051Z 17007KT 10SM FEW250 28/22 A2989 RMK AO2 SLP120 T02780222
LGA,2012-08-03 01:51,-73.8803,40.7794,82.04,73.04,74.25,180.00,6.00,0.00,29.90,1012.50,10.00,M,FEW,M,M,M,25000.00,M,M,M,M,M,M,M,M,M,M,87.48,KLGA 030151Z 18006KT 10SM FEW250 28/23 A2990 RMK AO2 SLP125 T02780228
LGA,2012-08-03 02:51,-73.8803,40.7794,82.04,71.06,69.43,210.00,11.00,0.00,29.91,1012.60,10.00,M,FEW,M,M,M,25000.00,M,M,M,M,M,M,M,M,M,M,86.39,KLGA 030251Z 21011KT 10SM FEW250 28/22 A2991 RMK AO2 SLP126 T02780217 51013
LGA,2012-08-03 03:51,-73.8803,40.7794,80.96,69.98,69.32,230.00,9.00,0.00,29.91,1012.90,10.00,M,SCT,SCT,M,M,6000.00,8000.00,M,M,M,M,M,M,M,M,M,84.44,KLGA 030351Z 23009KT 10SM SCT060 SCT080 27/21 A2991 RMK AO2 SLP129 T02720211
LGA,2012-08-03 04:51,-73.8803,40.7794,80.96,69.98,69.32,220.00,10.00,0.00,29.92,1013.10,10.00,M,FEW,BKN,M,M,6000.00,25000.00,M,M,M,M,M,M,M,M,M,84.44,KLGA 030451Z 22010KT 10SM FEW060 BKN250 27/21 A2992 RMK AO2 SLP131 T02720211 403220228
LGA,2012-08-03 05:51,-73.8803,40.7794,80.96,69.98,69.32,240.00,7.00,0.00,29.92,1013.30,10.00,M,CLR,M,M,M,M,M,M,M,M,M,M,M,M,M,M,84.44,KLGA 030551Z 24007KT 10SM CLR 27/21 A2992 RMK AO2 SLP133 T02720211 10283 20267 52007
LGA,2012-08-03 06:51,-73.8803,40.7794,80.06,69.98,71.39,200.00,6.00,0.00,29.93,1013.30,10.00,M,SCT,M,M,M,25000.00,M,M,M,M,M,M,M,M,M,M,83.22,KLGA 030651Z 20006KT 10SM SCT250 27/21 A2993 RMK AO2 SLP133 T02670211
LGA,2012-08-03 07:51,-73.8803,40.7794,78.98,71.06,76.74,210.00,6.00,0.00,29.93,1013.30,10.00,M,FEW,M,M,M,25000.00,M,M,M,M,M,M,M,M,M,M,78.98,KLGA 030751Z 21006KT 10SM FEW250 26/22 A2993 RMK AO2 SLP133 T02610217
LGA,2012-08-03 08:51,-73.8803,40.7794,78.08,71.96,81.50,220.00,4.00,0.00,29.93,1013.60,9.00,M,FEW,M,M,M,25000.00,M,M,M,M,M,M,M,M,M,M,78.08,KLGA 030851Z 22004KT 9SM FEW250 26/22 A2993 RMK AO2 SLP136 T02560222 53003
LGA,2012-08-03 09:51,-73.8803,40.7794,78.08,71.96,81.50,200.00,6.00,0.00,29.96,1014.40,8.00,M,FEW,M,M,M,25000.00,M,M,M,M,M,M,M,M,M,M,78.08,KLGA 030951Z 20006KT 8SM FEW250 26/22 A2996 RMK AO2 SLP144 T02560222
LGA,2012-08-03 10:51,-73.8803,40.7794,78.08,73.04,84.53,200.00,4.00,0.00,29.97,1014.90,6.00,M,SCT,M,M,M,25000.00,M,M,M,HZ,M,M,M,M,M,M,78.08,KLGA 031051Z 20004KT 6SM HZ SCT250 26/23 A2997 RMK AO2 SLP149 T02560228
LGA,2012-08-03 11:51,-73.8803,40.7794,80.06,73.04,79.20,0.00,0.00,0.00,29.98,1015.10,6.00,M,BKN,M,M,M,25000.00,M,M,M,HZ,M,M,M,M,M,M,84.25,KLGA 031151Z 00000KT 6SM HZ BKN250 27/23 A2998 RMK AO2 SLP151 T02670228 10272 20250 51015
LGA,2012-08-03 12:51,-73.8803,40.7794,84.02,73.94,71.78,0.00,0.00,0.00,29.98,1015.30,7.00,M,BKN,M,M,M,25000.00,M,M,M,M,M,M,M,M,M,M,91.10,KLGA 031251Z 00000KT 7SM BKN250 29/23 A2998 RMK AO2 SLP153 T02890233
LGA,2012-08-03 13:51,-73.8803,40.7794,84.92,73.04,67.65,M,4.00,0.00,29.99,1015.50,7.00,M,FEW,BKN,M,M,4200.00,25000.00,M,M,M,M,M,M,M,M,M,91.66,KLGA 031351Z VRB04KT 7SM FEW042 BKN250 29/23 A2999 RMK AO2 SLP155 T02940228
LGA,2012-08-03 14:51,-73.8803,40.7794,84.92,71.96,65.23,330.00,4.00,0.00,30.00,1015.80,8.00,M,FEW,BKN,M,M,3200.00,25000.00,M,M,M,M,M,M,M,M,M,90.81,KLGA 031451Z 33004KT 8SM FEW032 BKN250 29/22 A3000 RMK AO2 SLP158 T02940222 53007
LGA,2012-08-03 15:51,-73.8803,40.7794,87.08,71.96,60.88,60.00,3.00,0.00,30.01,1016.10,8.00,M,FEW,SCT,BKN,M,3600.00,6000.00,25000.00,M,M,M,M,M,M,M,M,93.59,KLGA 031551Z 06003KT 8SM FEW036 SCT060TCU BKN250 31/22 A3001 RMK AO2 SLP161 TCU OHD AND E T03060222
LGA,2012-08-03 16:51,-73.8803,40.7794,89.96,66.02,45.34,280.00,6.00,0.00,30.01,1016.10,10.00,M,FEW,SCT,BKN,M,4700.00,6000.00,25000.00,M,M,M,M,M,M,M,M,92.56,KLGA 031651Z 28006KT 10SM FEW047TCU SCT060 BKN250 32/19 A3001 RMK AO2 SLP161 TCU OHD AND NE-E T03220189
LGA,2012-08-03 17:51,-73.8803,40.7794,91.94,69.08,47.36,200.00,8.00,0.00,30.00,1016.00,10.00,M,FEW,BKN,M,M,5500.00,25000.00,M,M,M,M,M,M,M,M,M,97.03,KLGA 031751Z 20008KT 160V230 10SM FEW055 BKN250 33/21 A3000 RMK AO2 SLP160 T03330206 10339 20267 50002
LGA,2012-08-03 18:51,-73.8803,40.7794,89.06,71.96,57.18,180.00,11.00,0.00,30.01,1016.10,10.00,M,BKN,BKN,M,M,5000.00,25000.00,M,M,M,M,M,M,M,M,M,96.08,KLGA 031851Z 18011KT 10SM BKN050 BKN250 32/22 A3001 RMK AO2 SLP161 T03170222
LGA,2012-08-03 19:51,-73.8803,40.7794,87.98,73.04,61.36,180.00,11.00,0.00,30.01,1016.10,10.00,M,FEW,BKN,M,M,5000.00,25000.00,M,M,M,M,M,M,M,M,M,95.74,KLGA 031951Z 18011KT 10SM FEW050 BKN250 31/23 A3001 RMK AO2 SLP161 T03110228
LGA,2012-08-03 20:51,-73.8803,40.7794,87.08,73.94,65.08,180.00,11.00,0.00,30.01,1016.10,10.00,M,FEW,BKN,M,M,4500.00,25000.00,M,M,M,M,M,M,M,M,M,95.43,KLGA 032051Z 18011KT 10SM FEW045 BKN250 31/23 A3001 RMK AO2 SLP161 T03060233 51001
LGA,2012-08-03 21:51,-73.8803,40.7794,84.92,71.96,65.23,170.00,9.00,0.00,30.01,1016.30,10.00,M,FEW,OVC,M,M,7000.00,25000.00,M,M,M,M,M,M,M,M,M,90.81,KLGA 032151Z 17009KT 10SM FEW070 OVC250 29/22 A3001 RMK AO2 SLP163 T02940222
LGA,2012-08-03 22:51,-73.8803,40.7794,84.92,71.06,63.27,190.00,9.00,0.00,30.02,1016.60,10.00,M,BKN,M,M,M,25000.00,M,M,M,M,M,M,M,M,M,M,90.15,KLGA 032251Z 19009KT 10SM BKN250 29/22 A3002 RMK AO2 SLP166 T02940217
LGA,2012-08-03 23:51,-73.8803,40.7794,84.02,71.96,67.15,180.00,9.00,0.00,30.04,1017.10,10.00,M,BKN,M,M,M,25000.00,M,M,M,M,M,M,M,M,M,M,89.62,KLGA 032351Z 18009KT 10SM BKN250 29/22 A3004 RMK AO2 SLP171 T02890222 10333 20289 53009
LGA,2012-08-04 00:51,-73.8803,40.7794,84.02,69.08,60.87,200.00,8.00,0.00,30.04,1017.30,10.00,M,BKN,M,M,M,25000.00,M,M,M,M,M,M,M,M,M,M,87.79,KLGA 040051Z 20008KT 10SM BKN250 29/21 A3004 RMK AO2 SLP173 T02890206
LGA,2012-08-04 01:51,-73.8803,40.7794,84.02,69.98,62.77,190.00,10.00,0.00,30.07,1018.10,10.00,M,BKN,M,M,M,25000.00,M,M,M,M,M,M,M,M,M,M,88.32,KLGA 040151Z 19010KT 10SM BKN250 29/21 A3007 RMK AO2 SLP181 T02890211
LGA,2012-08-04 02:51,-73.8803,40.7794,82.94,69.98,65.00,200.00,5.00,0.00,30.07,1018.30,10.00,M,SCT,BKN,M,M,15000.00,25000.00,M,M,M,M,M,M,M,M,M,86.99,KLGA 040251Z 20005KT 10SM SCT150 BKN250 28/21 A3007 RMK AO2 SLP183 T02830211 51012
LGA,2012-08-04 03:51,-73.8803,40.7794,82.94,69.98,65.00,200.00,7.00,0.00,30.09,1018.90,10.00,M,FEW,BKN,M,M,15000.00,25000.00,M,M,M,M,M,M,M,M,M,86.99,KLGA 040351Z 20007KT 10SM FEW150 BKN250 28/21 A3009 RMK AO2 SLP189 T02830211
LGA,2012-08-04 04:51,-73.8803,40.7794,82.04,71.06,69.43,200.00,6.00,0.00,30.10,1019.10,10.00,M,FEW,SCT,M,M,15000.00,25000.00,M,M,M,M,M,M,M,M,M,86.39,KLGA 040451Z 20006KT 10SM FEW150 SCT250 28/22 A3010 RMK AO2 SLP191 T02780217 403390139
LGA,2012-08-04 05:51,-73.8803,40.7794,80.96,71.06,71.92,210.00,5.00,0.00,30.10,1019.20,10.00,M,SCT,M,M,M,25000.00,M,M,M,M,M,M,M,M,M,M,84.88,KLGA 040551Z 21005KT 10SM SCT250 27/22 A3010 RMK AO2 SLP192 T02720217 10294 20272 51009
LGA,2012-08-04 06:51,-73.8803,40.7794,80.06,71.96,76.36,190.00,5.00,0.00,30.10,1019.40,10.00,M,FEW,M,M,M,25000.00,M,M,M,M,M,M,M,M,M,M,83.87,KLGA 040651Z 19005KT 10SM FEW250 27/22 A3010 RMK AO2 SLP194 T02670222
LGA,2012-08-04 07:51,-73.8803,40.7794,78.98,71.96,79.12,200.00,5.00,0.00,30.11,1019.70,10.00,M,FEW,M,M,M,25000.00,M,M,M,M,M,M,M,M,M,M,78.98,KLGA 040751Z 20005KT 10SM FEW250 26/22 A3011 RMK AO2 SLP197 T02610222
LGA,2012-08-04 08:51,-73.8803,40.7794,78.98,71.96,79.12,200.00,4.00,0.00,30.13,1020.30,10.00,M,FEW,M,M,M,25000.00,M,M,M,M,M,M,M,M,M,M,78.98,KLGA 040851Z 20004KT 10SM FEW250 26/22 A3013 RMK AO2 SLP203 T02610222 53011
LGA,2012-08-04 09:51,-73.8803,40.7794,78.08,71.96,81.50,180.00,4.00,0.00,30.14,1020.60,10.00,M,SCT,M,M,M,25000.00,M,M,M,M,M,M,M,M,M,M,78.08,KLGA 040951Z 18004KT 10SM SCT250 26/22 A3014 RMK AO2 SLP206 T02560222
LGA,2012-08-04 10:51,-73.8803,40.7794,78.08,73.04,84.53,180.00,4.00,0.00,30.16,1021.20,9.00,M,FEW,M,M,M,23000.00,M,M,M,M,M,M,M,M,M,M,78.08,KLGA 041051Z 18004KT 9SM FEW230 26/23 A3016 RMK AO2 SLP212 T02560228
LGA,2012-08-04 11:51,-73.8803,40.7794,80.06,73.04,79.20,M,4.00,0.00,30.17,1021.70,8.00,M,FEW,SCT,BKN,M,3000.00,15000.00,25000.00,M,M,M,M,M,M,M,M,84.25,KLGA 041151Z VRB04KT 8SM FEW030 SCT150 BKN250 27/23 A3017 RMK AO2 SLP217 T02670228 10272 20256 53014
LGA,2012-08-04 12:51,-73.8803,40.7794,82.04,73.94,76.53,180.00,5.00,0.00,30.18,1022.00,8.00,M,FEW,SCT,SCT,M,2500.00,15000.00,25000.00,M,M,M,M,M,M,M,M,88.02,KLGA 041251Z 18005KT 8SM FEW025 SCT150 SCT250 28/23 A3018 RMK AO2 SLP220 T02780233
LGA,2012-08-04 13:51,-73.8803,40.7794,84.02,73.94,71.78,180.00,4.00,0.00,30.19,1022.20,10.00,M,FEW,SCT,M,M,1500.00,25000.00,M,M,M,M,M,M,M,M,M,91.10,KLGA 041351Z 18004KT 10SM FEW015 SCT250 29/23 A3019 RMK AO2 SLP222 T02890233
LGA,2012-08-04 14:51,-73.8803,40.7794,84.92,73.94,69.73,200.00,5.00,0.00,30.19,1022.10,10.00,M,SCT,SCT,M,M,1500.00,25000.00,M,M,M,M,M,M,M,M,M,92.42,KLGA 041451Z 20005KT 10SM SCT015 SCT250 29/23 A3019 RMK AO2 SLP221 T02940233 50004
LGA,2012-08-04 15:51,-73.8803,40.7794,87.98,73.04,61.36,120.00,6.00,0.00,30.18,1022.10,10.00,M,SCT,SCT,M,M,2500.00,25000.00,M,M,M,M,M,M,M,M,M,95.74,KLGA 041551Z 12006KT 10SM SCT025 SCT250 31/23 A3018 RMK AO2 SLP221 T03110228
LGA,2012-08-04 16:51,-73.8803,40.7794,87.98,71.06,57.39,160.00,8.00,0.00,30.19,1022.10,10.00,M,FEW,M,M,M,3000.00,M,M,M,M,M,M,M,M,M,M,93.94,KLGA 041651Z 16008KT 10SM FEW030 31/22 A3019 RMK AO2 SLP221 T03110217
LGA,2012-08-04 17:51,-73.8803,40.7794,89.06,66.02,46.64,170.00,10.00,0.00,30.18,1022.00,10.00,15.00,FEW,M,M,M,3000.00,M,M,M,M,M,M,M,M,M,M,91.57,KLGA 041751Z 17010G15KT 10SM FEW030 32/19 A3018 RMK AO2 SLP220 T03170189 10317 20267 58001
LGA,2012-08-04 18:51,-73.8803,40.7794,89.06,64.94,44.92,180.00,12.00,0.00,30.17,1021.60,10.00,19.00,FEW,M,M,M,4000.00,M,M,M,M,M,M,M,M,M,M,90.95,KLGA 041851Z 18012G19KT 10SM FEW040 32/18 A3017 RMK AO2 SLP216 TCU DSNT SW-NW T03170183
LGA,2012-08-04 19:51,-73.8803,40.7794,89.06,69.08,51.83,160.00,13.00,0.00,30.16,1021.40,10.00,19.00,FEW,SCT,M,M,4500.00,25000.00,M,M,M,M,M,M,M,M,M,93.64,KLGA 041951Z 16013G19KT 10SM FEW045 SCT250 32/21 A3016 RMK AO2 SLP214 TCU DSNT SW-NW T03170206
LGA,2012-08-04 20:51,-73.8803,40.7794,86.00,71.96,63.01,160.00,12.00,0.00,30.16,1021.30,10.00,M,FEW,SCT,SCT,M,2000.00,4500.00,25000.00,M,M,M,M,M,M,M,M,92.21,KLGA 042051Z 16012KT 10SM FEW020 SCT045 SCT250 30/22 A3016 RMK AO2 SLP213 CB DSNT SW-W T03000222 56007
LGA,2012-08-04 21:51,-73.8803,40.7794,82.94,73.04,72.11,160.00,14.00,0.00,30.16,1021.20,10.00,M,FEW,SCT,BKN,M,2000.00,4500.00,25000.00,M,M,M,M,M,M,M,M,88.84,KLGA 042151Z 16014KT 10SM FEW020 SCT045 BKN250 28/23 A3016 RMK AO2 SLP212 TCU DSNT N T02830228
LGA,2012-08-04 22:51,-73.8803,40.7794,82.94,73.04,72.11,170.00,12.00,0.00,30.16,1021.20,10.00,M,FEW,SCT,BKN,M,1800.00,4000.00,25000.00,M,M,M,M,M,M,M,M,88.84,KLGA 042251Z 17012KT 10SM FEW018 SCT040 BKN250 28/23 A3016 RMK AO2 SLP212 T02830228
LGA,2012-08-04 23:51,-73.8803,40.7794,82.04,73.94,76.53,170.00,10.00,0.00,30.15,1020.90,10.00,M,SCT,BKN,M,M,1600.00,25000.00,M,M,M,M,M,M,M,M,M,88.02,KLGA 042351Z 17010KT 10SM SCT016 BKN250 28/23 A3015 RMK AO2 SLP209 T02780233 10322 20278 58004
LGA,2012-08-05 00:51,-73.8803,40.7794,80.96,73.94,79.27,170.00,12.00,0.00,30.17,1021.60,10.00,18.00,SCT,BKN,M,M,1500.00,25000.00,M,M,M,M,M,M,M,M,M,86.20,KLGA 050051Z 17012G18KT 10SM SCT015 BKN250 27/23 A3017 RMK AO2 SLP216 T02720233
LGA,2012-08-05 01:47,-73.8803,40.7794,80.60,75.20,83.66,170.00,11.00,0.00,30.19,M,10.00,M,BKN,BKN,M,M,1400.00,25000.00,M,M,M,M,M,M,M,M,M,86.17,KLGA 050147Z 17011KT 10SM BKN014 BKN250 27/24 A3019 RMK AO2
LGA,2012-08-05 01:51,-73.8803,40.7794,80.06,75.02,84.64,180.00,12.00,0.00,30.19,1022.10,10.00,M,BKN,BKN,M,M,1400.00,25000.00,M,M,M,M,M,M,M,M,M,85.01,KLGA 050151Z 18012KT 10SM BKN014 BKN250 27/24 A3019 RMK AO2 SLP221 T02670239
LGA,2012-08-05 02:51,-73.8803,40.7794,80.06,75.02,84.64,190.00,11.00,0.00,30.20,1022.50,10.00,M,BKN,BKN,M,M,1400.00,2000.00,M,M,M,M,M,M,M,M,M,85.01,KLGA 050251Z 19011KT 10SM BKN014 BKN020 27/24 A3020 RMK AO2 SLP225 T02670239 51016
LGA,2012-08-05 03:51,-73.8803,40.7794,80.06,75.02,84.64,190.00,9.00,0.00,30.19,1022.40,10.00,M,BKN,BKN,M,M,1400.00,2000.00,M,M,M,M,M,M,M,M,M,85.01,KLGA 050351Z 19009KT 10SM BKN014 BKN020 27/24 A3019 RMK AO2 SLP224 T02670239
LGA,2012-08-05 04:51,-73.8803,40.7794,80.06,75.02,84.64,190.00,8.00,0.00,30.18,1022.00,10.00,M,BKN,BKN,BKN,M,1400.00,2000.00,25000.00,M,M,M,M,M,M,M,M,85.01,KLGA 050451Z 19008KT 10SM BKN014 BKN020 BKN250 27/24 A3018 RMK AO2 SLP220 T02670239 403220256
LGA,2012-08-05 05:41,-73.8803,40.7794,80.60,75.20,83.66,180.00,6.00,0.00,30.17,M,10.00,M,FEW,SCT,M,M,1400.00,25000.00,M,M,M,M,M,M,M,M,M,86.17,KLGA 050541Z 18006KT 10SM FEW014 SCT250 27/24 A3017 RMK AO2
LGA,2012-08-05 05:51,-73.8803,40.7794,78.98,75.02,87.70,180.00,9.00,0.00,30.17,1021.70,10.00,M,FEW,SCT,M,M,1400.00,25000.00,M,M,M,M,M,M,M,M,M,78.98,KLGA 050551Z 18009KT 10SM FEW014 SCT250 26/24 A3017 RMK AO2 SLP217 T02610239 10278 20261 58008
LGA,2012-08-05 06:51,-73.8803,40.7794,78.98,73.94,84.58,190.00,7.00,0.00,30.17,1021.60,10.00,M,FEW,SCT,M,M,1400.00,25000.00,M,M,M,M,M,M,M,M,M,78.98,KLGA 050651Z 19007KT 10SM FEW014 SCT250 26/23 A3017 RMK AO2 SLP216 T02610233
LGA,2012-08-05 07:20,-73.8803,40.7794,80.60,73.40,78.76,210.00,11.00,0.00,30.17,M,10.00,M,BKN,M,M,M,1600.00,M,M,M,M,M,M,M,M,M,M,85.32,KLGA 050720Z 21011KT 10SM BKN016 27/23 A3017 RMK AO2
LGA,2012-08-05 07:51,-73.8803,40.7794,80.06,73.94,81.63,200.00,9.00,0.00,30.16,1021.20,10.00,M,BKN,M,M,M,1800.00,M,M,M,M,M,M,M,M,M,M,84.59,KLGA 050751Z 20009KT 10SM BKN018 27/23 A3016 RMK AO2 SLP212 T02670233
LGA,2012-08-05 08:26,-73.8803,40.7794,80.60,73.40,78.76,190.00,8.00,0.00,30.15,M,10.00,M,SCT,BKN,M,M,2000.00,6000.00,M,M,M,M,M,M,M,M,M,85.32,KLGA 050826Z 19008KT 10SM SCT020 BKN060 27/23 A3015 RMK AO2
LGA,2012-08-05 08:51,-73.8803,40.7794,80.06,73.94,81.63,180.00,5.00,0.00,30.13,1020.30,10.00,M,SCT,BKN,M,M,2000.00,6000.00,M,M,M,M,M,M,M,M,M,84.59,KLGA 050851Z 18005KT 10SM SCT020 BKN060 27/23 A3013 RMK AO2 SLP203 T02670233 58014
LGA,2012-08-05 09:32,-73.8803,40.7794,80.60,75.20,83.66,200.00,8.00,0.00,30.14,M,10.00,M,BKN,BKN,M,M,2000.00,6000.00,M,M,M,M,M,M,M,M,M,86.17,KLGA 050932Z 20008KT 10SM BKN020 BKN060 27/24 A3014 RMK AO2
LGA,2012-08-05 09:51,-73.8803,40.7794,80.06,73.94,81.63,210.00,11.00,0.00,30.14,1020.60,10.00,M,BKN,OVC,M,M,2000.00,6000.00,M,M,M,M,M,M,M,M,M,84.59,KLGA 050951Z 21011KT 10SM BKN020 OVC060 27/23 A3014 RMK AO2 SLP206 T02670233
LGA,2012-08-05 10:51,-73.8803,40.7794,80.06,73.94,81.63,210.00,10.00,0.00,30.14,1020.60,8.00,M,BKN,BKN,BKN,BKN,1700.00,2100.00,6000.00,25000.00,M,M,M,M,M,M,M,84.59,KLGA 051051Z 21010KT 8SM BKN017 BKN021 BKN060 BKN250 27/23 A3014 RMK AO2 SLP206 T02670233
LGA,2012-08-05 11:51,-73.8803,40.7794,80.06,75.02,84.64,210.00,10.00,0.00,30.14,1020.50,8.00,M,FEW,BKN,BKN,BKN,1300.00,1700.00,6000.00,25000.00,M,M,M,M,M,M,M,85.01,KLGA 051151Z 21010KT 8SM FEW013 BKN017 BKN060 BKN250 27/24 A3014 RMK AO2 SLP205 T02670239 10267 20261 50002
LGA,2012-08-05 12:51,-73.8803,40.7794,82.04,75.02,79.35,210.00,8.00,0.00,30.13,1020.30,8.00,M,FEW,BKN,BKN,BKN,1500.00,2000.00,5000.00,25000.00,M,M,M,M,M,M,M,88.72,KLGA 051251Z 21008KT 8SM FEW015 BKN020 BKN050 BKN250 28/24 A3013 RMK AO2 SLP203 T02780239
LGA,2012-08-05 13:51,-73.8803,40.7794,82.94,73.94,74.33,220.00,9.00,0.00,30.11,1019.70,10.00,M,FEW,BKN,BKN,BKN,1500.00,2200.00,5000.00,18000.00,M,M,M,M,M,M,M,89.46,KLGA 051351Z 22009KT 10SM FEW015 BKN022 BKN050 BKN180 BKN250 28/23 A3011 RMK AO2 SLP197 T02830233
LGA,2012-08-05 14:51,-73.8803,40.7794,86.00,73.94,67.36,210.00,8.00,0.00,30.10,1019.30,10.00,M,SCT,BKN,BKN,BKN,2400.00,2700.00,11000.00,17000.00,M,M,M,M,M,M,M,93.95,KLGA 051451Z 21008KT 10SM SCT024 BKN027 BKN110 BKN170 BKN250 30/23 A3010 RMK AO2 SLP193 T03000233 58013
LGA,2012-08-05 15:07,-73.8803,40.7794,87.80,73.40,62.47,220.00,10.00,0.00,30.10,M,10.00,M,SCT,BKN,BKN,BKN,2700.00,3100.00,3500.00,18000.00,M,M,M,M,M,M,M,95.86,KLGA 051507Z 22010KT 10SM SCT027 BKN031 BKN035 BKN180 BKN250 31/23 A3010 RMK AO2
LGA,2012-08-05 15:51,-73.8803,40.7794,87.08,73.94,65.08,200.00,12.00,0.00,30.09,1018.80,10.00,18.00,SCT,BKN,BKN,BKN,2900.00,3100.00,3900.00,18000.00,M,M,M,M,M,M,M,95.43,KLGA 051551Z 20012G18KT 170V230 10SM SCT029 BKN031 BKN039 BKN180 BKN250 31/23 A3009 RMK AO2 SLP188 T03060233
LGA,2012-08-05 16:51,-73.8803,40.7794,87.98,75.02,65.58,170.00,10.00,0.00,30.07,1018.10,10.00,16.00,FEW,BKN,BKN,BKN,2900.00,3600.00,4500.00,17000.00,M,M,M,M,M,M,M,97.81,KLGA 051651Z 17010G16KT 10SM FEW029 BKN036 BKN045 BKN170 BKN250 31/24 A3007 RMK AO2 SLP181 T03110239
LGA,2012-08-05 17:51,-73.8803,40.7794,89.06,73.94,61.13,170.00,11.00,0.00,30.04,1017.20,10.00,17.00,FEW,SCT,BKN,BKN,3600.00,4700.00,5500.00,14000.00,M,M,M,M,M,M,M,98.08,KLGA 051751Z 17011G17KT 10SM FEW036 SCT047 BKN055 BKN140 BKN250 32/23 A3004 RMK AO2 SLP172 T03170233 10328 20267 58021
LGA,2012-08-05 18:51,-73.8803,40.7794,89.96,75.02,61.61,160.00,15.00,0.00,30.01,1016.30,10.00,21.00,BKN,BKN,M,M,4700.00,6000.00,M,M,M,M,M,M,M,M,M,100.50,KLGA 051851Z 16015G21KT 10SM BKN047 BKN060 32/24 A3001 RMK AO2 SLP163 T03220239
LGA,2012-08-05 19:51,-73.8803,40.7794,89.06,75.02,63.38,160.00,14.00,0.00,29.98,1015.20,10.00,19.00,SCT,SCT,BKN,M,4500.00,5500.00,25000.00,M,M,M,M,M,M,M,M,99.29,KLGA 051951Z 16014G19KT 10SM SCT045 SCT055 BKN250 32/24 A2998 RMK AO2 SLP152 T03170239
LGA,2012-08-05 20:51,-73.8803,40.7794,87.98,75.02,65.58,160.00,13.00,0.00,29.96,1014.40,10.00,21.00,SCT,SCT,BKN,BKN,3500.00,5500.00,7500.00,25000.00,M,M,M,M,M,M,M,97.81,KLGA 052051Z 16013G21KT 10SM SCT035 SCT055 BKN075 BKN250 31/24 A2996 RMK AO2 SLP144 T03110239 56027
LGA,2012-08-05 21:51,-73.8803,40.7794,89.06,75.02,63.38,180.00,11.00,0.00,29.96,1014.50,10.00,20.00,FEW,SCT,BKN,BKN,3500.00,6000.00,7000.00,25000.00,M,M,M,M,M,M,M,99.29,KLGA 052151Z 18011G20KT 10SM FEW035 SCT060 BKN070 BKN250 32/24 A2996 RMK AO2 SLP145 TCU DSNT N T03170239
LGA,2012-08-05 22:51,-73.8803,40.7794,87.08,75.02,67.48,180.00,11.00,0.00,29.95,1014.20,10.00,19.00,SCT,BKN,BKN,M,3500.00,6000.00,14000.00,M,M,M,M,M,M,M,M,96.55,KLGA 052251Z 18011G19KT 10SM SCT035TCU BKN060 BKN140 31/24 A2995 RMK AO2 SLP142 TCU N T03060239
LGA,2012-08-05 23:30,-73.8803,40.7794,86.00,75.20,70.27,190.00,11.00,0.00,29.94,M,10.00,M,SCT,BKN,BKN,M,3500.00,6000.00,14000.00,M,TS,M,M,M,M,M,M,95.19,KLGA 052330Z 19011KT 10SM TS SCT035CB BKN060 BKN140 30/24 A2994 RMK AO2 TSB30 OCNL LTGICCCCG W TS W MOV E
LGA,2012-08-05 23:51,-73.8803,40.7794,84.02,69.98,62.77,M,6.00,0.00,29.96,1014.50,10.00,M,SCT,BKN,BKN,M,3500.00,6000.00,14000.00,M,TS,M,M,M,M,M,M,88.32,KLGA 052351Z VRB06KT 10SM TS SCT035CB BKN060 BKN140 29/21 A2996 RMK AO2 TSB30 PRESRR SLP145 FRQ LTGICCCCG OHD TS OHD MOV E T02890211 10328 20289 53001
LGA,2012-08-05 23:59,-73.8803,40.7794,80.60,71.60,74.11,250.00,20.00,0.00,29.97,M,0.25,29.00,BKN,BKN,BKN,M,3500.00,4400.00,6000.00,M,TSRA,M,M,M,M,M,M,84.57,KLGA 052359Z 25020G29KT 1/4SM R04/3500VP6000FT TSRA BKN035CB BKN044 BKN060 27/22 A2997 RMK AO2 PK WND 25029/2357 RAB56 FRQ LTGICCCCG OHD TS OHD MOV E P0000
LGA,2012-08-06 00:08,-73.8803,40.7794,75.20,71.60,88.59,240.00,12.00,0.20,29.98,M,0.25,33.00,BKN,BKN,OVC,M,3000.00,4400.00,5500.00,M,+TSRA,M,M,M,33.00,240.00,2012-08-06 00:00,75.20,KLGA 060008Z 24012G33KT 1/4SM R04/5500VP6000FT +TSRA BKN030CB BKN044 OVC055 24/22 A2998 RMK AO2 PK WND 24033/0000 WSHFT 2353 RAB2356 FRQ LTGICCCCG OHD TS OHD MOV E P0020
LGA,2012-08-06 00:13,-73.8803,40.7794,77.00,71.60,83.44,240.00,9.00,0.23,29.98,M,6.00,M,BKN,BKN,OVC,M,3700.00,4400.00,5500.00,M,TSRA,M,M,M,33.00,240.00,2012-08-06 00:00,77.00,KLGA 060013Z 24009KT 6SM TSRA BKN037CB BKN044 OVC055 25/22 A2998 RMK AO2 PK WND 24033/0000 WSHFT 2353 RAB2356 FRQ LTGICCCCG OHD TS OHD MOV E P0023
LGA,2012-08-06 00:51,-73.8803,40.7794,78.08,71.96,81.50,210.00,9.00,0.26,30.00,1015.80,10.00,M,SCT,BKN,OVC,M,3700.00,7000.00,14000.00,M,-RA,M,M,M,33.00,240.00,2012-08-06 00:00,78.08,KLGA 060051Z 21009KT 10SM -RA SCT037 BKN070 OVC140 26/22 A3000 RMK AO2 PK WND 24033/0000 WSHFT 2353 TSE50RAB2356 SLP158 P0026 T02560222
LGA,2012-08-06 01:51,-73.8803,40.7794,75.92,71.96,87.55,210.00,10.00,0.01,30.02,1016.50,10.00,M,SCT,SCT,SCT,OVC,1700.00,8000.00,9500.00,13000.00,M,M,M,M,M,M,M,75.92,KLGA 060151Z 21010KT 10SM SCT017 SCT080 SCT095 OVC130 24/22 A3002 RMK AO2 RAE51 SLP165 P0001 T02440222
LGA,2012-08-06 02:51,-73.8803,40.7794,75.92,71.96,87.55,220.00,7.00,0.01,29.99,1015.50,10.00,M,FEW,SCT,BKN,M,1700.00,8000.00,11000.00,M,M,M,M,M,M,M,M,75.92,KLGA 060251Z 22007KT 10SM FEW017 SCT080 BKN110 24/22 A2999 RMK AO2 RAB0156E42 SLP155 P0001 60028 T02440222 50010
LGA,2012-08-06 03:51,-73.8803,40.7794,75.92,71.96,87.55,210.00,10.00,0.01,30.00,1016.00,8.00,18.00,FEW,BKN,OVC,M,1500.00,5000.00,11000.00,M,-RA,M,M,M,M,M,M,75.92,KLGA 060351Z 21010G18KT 8SM -RA FEW015 BKN050 OVC110 24/22 A3000 RMK AO2 RAB40 SLP160 CB DSNT SE-S MOV E P0001 T02440222
LGA,2012-08-06 04:51,-73.8803,40.7794,75.92,73.04,90.80,230.00,10.00,0.00,29.99,1015.50,10.00,M,FEW,BKN,OVC,M,1300.00,6000.00,11000.00,M,M,M,M,M,M,M,M,75.92,KLGA 060451Z 23010KT 10SM FEW013 BKN060 OVC110 24/23 A2999 RMK AO2 RAE0358 SLP155 P0000 T02440228 403280239
LGA,2012-08-06 05:51,-73.8803,40.7794,75.92,71.96,87.55,220.00,10.00,0.00,29.98,1015.00,10.00,M,FEW,BKN,OVC,M,1300.00,5500.00,11000.00,M,M,M,M,M,M,M,M,75.92,KLGA 060551Z 22010KT 10SM FEW013 BKN055 OVC110 24/22 A2998 RMK AO2 SLP150 60029 T02440222 10294 20239 58005
LGA,2012-08-06 06:05,-73.8803,40.7794,75.20,73.40,94.14,220.00,12.00,0.00,29.97,M,10.00,18.00,BKN,OVC,M,M,1500.00,6000.00,M,M,M,M,M,M,M,M,M,75.20,KLGA 060605Z 22012G18KT 10SM BKN015 OVC060 24/23 A2997 RMK AO2
LGA,2012-08-06 06:51,-73.8803,40.7794,75.92,73.04,90.80,230.00,7.00,0.00,29.97,1014.80,10.00,M,BKN,BKN,OVC,M,1500.00,4800.00,9000.00,M,M,M,M,M,M,M,M,75.92,KLGA 060651Z 23007KT 10SM BKN015 BKN048 OVC090 24/23 A2997 RMK AO2 SLP148 T02440228
LGA,2012-08-06 07:51,-73.8803,40.7794,75.92,73.04,90.80,240.00,6.00,0.01,29.96,1014.50,10.00,M,BKN,BKN,OVC,M,1500.00,5000.00,9000.00,M,-RA,M,M,M,M,M,M,75.92,KLGA 060751Z 24006KT 10SM -RA BKN015 BKN050 OVC090 24/23 A2996 RMK AO2 RAB32 SLP145 P0001 T02440228
LGA,2012-08-06 08:51,-73.8803,40.7794,75.92,73.04,90.80,260.00,8.00,0.00,29.97,1014.70,10.00,M,BKN,BKN,OVC,M,1500.00,5000.00,9000.00,M,M,M,M,M,M,M,M,75.92,KLGA 060851Z 26008KT 10SM BKN015 BKN050 OVC090 24/23 A2997 RMK AO2 RAE0755 SLP147 P0000 60001 T02440228 55003
LGA,2012-08-06 09:47,-73.8803,40.7794,77.00,73.40,88.67,280.00,4.00,0.00,29.97,M,10.00,M,FEW,SCT,OVC,M,1500.00,5000.00,9000.00,M,M,M,M,M,M,M,M,77.00,KLGA 060947Z 28004KT 10SM FEW015 SCT050 OVC090 25/23 A2997 RMK AO2
LGA,2012-08-06 09:51,-73.8803,40.7794,77.00,73.04,87.60,280.00,5.00,0.00,29.97,1014.90,10.00,M,FEW,SCT,OVC,M,1500.00,5000.00,9000.00,M,M,M,M,M,M,M,M,77.00,KLGA 060951Z 28005KT 10SM FEW015 SCT050 OVC090 25/23 A2997 RMK AO2 SLP149 T02500228
LGA,2012-08-06 10:51,-73.8803,40.7794,75.92,71.96,87.55,290.00,8.00,0.00,29.98,1015.30,10.00,M,FEW,SCT,M,M,2300.00,10000.00,M,M,M,M,M,M,M,M,M,75.92,KLGA 061051Z 29008KT 10SM FEW023 SCT100 24/22 A2998 RMK AO2 SLP153 T02440222
LGA,2012-08-06 11:51,-73.8803,40.7794,78.08,71.06,79.05,320.00,9.00,0.00,30.00,1015.70,10.00,M,FEW,SCT,M,M,2200.00,10000.00,M,M,M,M,M,M,M,M,M,78.08,KLGA 061151Z 32009KT 10SM FEW022 SCT100 26/22 A3000 RMK AO2 SLP157 60001 70030 T02560217 10256 20244 53010
LGA,2012-08-06 12:51,-73.8803,40.7794,80.06,69.08,69.23,360.00,9.00,0.00,30.01,1016.30,10.00,M,FEW,SCT,M,M,2700.00,11000.00,M,M,M,M,M,M,M,M,M,82.95,KLGA 061251Z 36009KT 10SM FEW027 SCT110 27/21 A3001 RMK AO2 SLP163 T02670206
LGA,2012-08-06 13:51,-73.8803,40.7794,82.04,68.00,62.53,330.00,6.00,0.00,30.01,1016.10,10.00,M,FEW,BKN,M,M,2800.00,8000.00,M,M,M,M,M,M,M,M,M,84.97,KLGA 061351Z 33006KT 10SM FEW028 BKN080 28/20 A3001 RMK AO2 SLP161 T02780200
LGA,2012-08-06 14:51,-73.8803,40.7794,82.94,66.02,56.72,30.00,5.00,0.00,30.01,1016.20,10.00,M,FEW,SCT,BKN,M,3800.00,5000.00,18000.00,M,M,M,M,M,M,M,M,85.12,KLGA 061451Z 03005KT 10SM FEW038 SCT050 BKN180 28/19 A3001 RMK AO2 SLP162 T02830189 51005
LGA,2012-08-06 15:51,-73.8803,40.7794,84.02,62.06,47.68,340.00,10.00,0.00,30.01,1016.20,10.00,15.00,SCT,BKN,M,M,4800.00,18000.00,M,M,M,M,M,M,M,M,M,84.68,KLGA 061551Z 34010G15KT 10SM SCT048 BKN180 29/17 A3001 RMK AO2 SLP162 T02890167
LGA,2012-08-06 16:51,-73.8803,40.7794,84.92,60.08,43.18,320.00,12.00,0.00,30.00,1015.70,10.00,19.00,BKN,BKN,M,M,6000.00,18000.00,M,M,M,M,M,M,M,M,M,84.84,KLGA 061651Z 32012G19KT 10SM BKN060 BKN180 29/16 A3000 RMK AO2 SLP157 T02940156
LGA,2012-08-06 17:51,-73.8803,40.7794,84.02,60.98,45.90,310.00,13.00,0.00,29.99,1015.40,10.00,19.00,SCT,BKN,BKN,M,6000.00,8000.00,25000.00,M,M,M,M,M,M,M,M,84.33,KLGA 061751Z 31013G19KT 10SM SCT060 BKN080 BKN250 29/16 A2999 RMK AO2 SLP154 T02890161 10306 20256 58008
LGA,2012-08-06 18:51,-73.8803,40.7794,86.00,59.00,40.14,320.00,15.00,0.00,29.97,1014.90,10.00,M,SCT,BKN,BKN,M,6000.00,8000.00,25000.00,M,M,M,M,M,M,M,M,85.47,KLGA 061851Z 32015KT 10SM SCT060 BKN080 BKN250 30/15 A2997 RMK AO2 SLP149 T03000150
LGA,2012-08-06 19:51,-73.8803,40.7794,87.08,55.94,34.73,270.00,14.00,0.00,29.96,1014.50,10.00,M,SCT,SCT,BKN,M,6000.00,8000.00,25000.00,M,M,M,M,M,M,M,M,87.08,KLGA 061951Z 27014KT 10SM SCT060 SCT080 BKN250 31/13 A2996 RMK AO2 SLP145 T03060133
LGA,2012-08-06 20:51,-73.8803,40.7794,86.00,57.92,38.61,310.00,10.00,0.00,29.95,1014.20,10.00,17.00,FEW,SCT,M,M,6000.00,25000.00,M,M,M,M,M,M,M,M,M,86.00,KLGA 062051Z 31010G17KT 10SM FEW060 SCT250 30/14 A2995 RMK AO2 SLP142 T03000144 56012
LGA,2012-08-06 21:51,-73.8803,40.7794,84.02,59.00,42.77,330.00,9.00,0.00,29.94,1013.80,10.00,M,FEW,SCT,M,M,6000.00,25000.00,M,M,M,M,M,M,M,M,M,83.77,KLGA 062151Z 33009KT 10SM FEW060 SCT250 29/15 A2994 RMK AO2 SLP138 T02890150
LGA,2012-08-06 22:51,-73.8803,40.7794,82.94,57.92,42.60,340.00,11.00,0.00,29.95,1014.10,10.00,M,FEW,SCT,M,M,6000.00,25000.00,M,M,M,M,M,M,M,M,M,82.64,KLGA 062251Z 34011KT 10SM FEW060 SCT250 28/14 A2995 RMK AO2 SLP141 T02830144
LGA,2012-08-06 23:51,-73.8803,40.7794,80.96,57.92,45.44,330.00,8.00,0.00,29.97,1014.80,10.00,M,BKN,M,M,M,25000.00,M,M,M,M,M,M,M,M,M,M,81.18,KLGA 062351Z 33008KT 10SM BKN250 27/14 A2997 RMK AO2 SLP148 T02720144 10311 20272 53006
LGA,2012-08-07 00:51,-73.8803,40.7794,78.98,57.92,48.48,350.00,9.00,0.00,29.98,1015.20,10.00,M,FEW,SCT,M,M,6000.00,25000.00,M,M,M,M,M,M,M,M,M,78.98,KLGA 070051Z 35009KT 10SM FEW060 SCT250 26/14 A2998 RMK AO2 SLP152 T02610144
LGA,2012-08-07 01:51,-73.8803,40.7794,78.08,57.02,48.35,330.00,8.00,0.00,29.99,1015.50,10.00,M,SCT,M,M,M,25000.00,M,M,M,M,M,M,M,M,M,M,78.08,KLGA 070151Z 33008KT 10SM SCT250 26/14 A2999 RMK AO2 SLP155 T02560139
LGA,2012-08-07 02:51,-73.8803,40.7794,78.08,55.94,46.49,340.00,6.00,0.00,29.99,1015.60,10.00,M,FEW,M,M,M,25000.00,M,M,M,M,M,M,M,M,M,M,78.08,KLGA 070251Z 34006KT 10SM FEW250 26/13 A2999 RMK AO2 SLP156 T02560133 51008
LGA,2012-08-07 03:51,-73.8803,40.7794,75.92,57.02,51.94,350.00,6.00,0.00,29.99,1015.70,10.00,M,SCT,M,M,M,25000.00,M,M,M,M,M,M,M,M,M,M,75.92,KLGA 070351Z 35006KT 10SM SCT250 24/14 A2999 RMK AO2 SLP157 T02440139
LGA,2012-08-07 04:51,-73.8803,40.7794,75.92,57.02,51.94,350.00,7.00,0.00,29.99,1015.60,10.00,M,SCT,M,M,M,25000.00,M,M,M,M,M,M,M,M,M,M,75.92,KLGA 070451Z 35007KT 10SM SCT250 24/14 A2999 RMK AO2 SLP156 T02440139 403110244
LGA,2012-08-07 05:51,-73.8803,40.7794,75.92,57.02,51.94,340.00,5.00,0.00,29.99,1015.60,10.00,M,SCT,M,M,M,25000.00,M,M,M,M,M,M,M,M,M,M,75.92,KLGA 070551Z 34005KT 10SM SCT250 24/14 A2999 RMK AO2 SLP156 T02440139 10272 20239 54000
LGA,2012-08-07 06:51,-73.8803,40.7794,73.94,60.08,61.92,30.00,3.00,0.00,29.99,1015.50,10.00,M,SCT,M,M,M,25000.00,M,M,M,M,M,M,M,M,M,M,73.94,KLGA 070651Z 03003KT 10SM SCT250 23/16 A2999 RMK AO2 SLP155 T02330156
LGA,2012-08-07 07:51,-73.8803,40.7794,73.04,59.00,61.41,40.00,4.00,0.00,29.99,1015.40,10.00,M,SCT,M,M,M,25000.00,M,M,M,M,M,M,M,M,M,M,73.04,KLGA 070751Z 04004KT 10SM SCT250 23/15 A2999 RMK AO2 SLP154 T02280150
LGA,2012-08-07 08:51,-73.8803,40.7794,71.96,59.00,63.70,30.00,3.00,0.00,30.00,1015.70,10.00,M,BKN,M,M,M,25000.00,M,M,M,M,M,M,M,M,M,M,71.96,KLGA 070851Z 03003KT 10SM BKN250 22/15 A3000 RMK AO2 SLP157 T02220150 53001
LGA,2012-08-07 09:51,-73.8803,40.7794,71.06,57.92,63.18,50.00,3.00,0.00,30.00,1015.90,10.00,M,BKN,M,M,M,25000.00,M,M,M,M,M,M,M,M,M,M,71.06,KLGA 070951Z 05003KT 10SM BKN250 22/14 A3000 RMK AO2 SLP159 T02170144
LGA,2012-08-07 10:51,-73.8803,40.7794,71.96,59.00,63.70,40.00,4.00,0.00,30.01,1016.10,10.00,M,BKN,M,M,M,25000.00,M,M,M,M,M,M,M,M,M,M,71.96,KLGA 071051Z 04004KT 10SM BKN250 22/15 A3001 RMK AO2 SLP161 T02220150
LGA,2012-08-07 11:51,-73.8803,40.7794,73.04,59.00,61.41,40.00,4.00,0.00,30.01,1016.30,10.00,M,BKN,M,M,M,25000.00,M,M,M,M,M,M,M,M,M,M,73.04,KLGA 071151Z 04004KT 10SM BKN250 23/15 A3001 RMK AO2 SLP163 T02280150 10239 20217 52006
LGA,2012-08-07 12:51,-73.8803,40.7794,73.94,60.98,63.94,40.00,4.00,0.00,30.02,1016.40,10.00,M,BKN,M,M,M,25000.00,M,M,M,M,M,M,M,M,M,M,73.94,KLGA 071251Z 04004KT 10SM BKN250 23/16 A3002 RMK AO2 SLP164 T02330161
LGA,2012-08-07 13:51,-73.8803,40.7794,75.92,57.92,53.65,60.00,7.00,0.00,30.01,1016.30,10.00,M,BKN,M,M,M,25000.00,M,M,M,M,M,M,M,M,M,M,75.92,KLGA 071351Z 06007KT 10SM BKN250 24/14 A3001 RMK AO2 SLP163 T02440144
LGA,2012-08-07 14:51,-73.8803,40.7794,77.00,55.94,48.19,90.00,5.00,0.00,30.01,1016.30,10.00,M,BKN,M,M,M,25000.00,M,M,M,M,M,M,M,M,M,M,77.00,KLGA 071451Z 09005KT 10SM BKN250 25/13 A3001 RMK AO2 SLP163 T02500133 53000
LGA,2012-08-07 15:51,-73.8803,40.7794,80.06,57.02,45.30,50.00,5.00,0.00,30.01,1016.20,10.00,M,FEW,BKN,M,M,17000.00,25000.00,M,M,M,M,M,M,M,M,M,80.42,KLGA 071551Z 05005KT 10SM FEW170 BKN250 27/14 A3001 RMK AO2 SLP162 T02670139
LGA,2012-08-07 16:51,-73.8803,40.7794,82.04,57.02,42.47,60.00,4.00,0.00,30.00,1015.70,10.00,M,FEW,BKN,M,M,17000.00,25000.00,M,M,M,M,M,M,M,M,M,81.78,KLGA 071651Z 06004KT 10SM FEW170 BKN250 28/14 A3000 RMK AO2 SLP157 T02780139
LGA,2012-08-07 17:51,-73.8803,40.7794,82.04,59.00,45.60,170.00,8.00,0.00,29.98,1015.30,10.00,M,FEW,BKN,M,M,17000.00,25000.00,M,M,M,M,M,M,M,M,M,82.19,KLGA 071751Z 17008KT 10SM FEW170 BKN250 28/15 A2998 RMK AO2 SLP153 T02780150 10283 20228 58010
LGA,2012-08-07 18:51,-73.8803,40.7794,82.04,60.98,48.93,170.00,11.00,0.00,29.98,1015.10,10.00,M,FEW,BKN,M,M,5000.00,25000.00,M,M,M,M,M,M,M,M,M,82.65,KLGA 071851Z 17011KT 10SM FEW050 BKN250 28/16 A2998 RMK AO2 SLP151 T02780161
LGA,2012-08-07 19:51,-73.8803,40.7794,82.04,62.06,50.84,180.00,10.00,0.00,29.96,1014.60,10.00,M,FEW,BKN,M,M,4500.00,25000.00,M,M,M,M,M,M,M,M,M,82.94,KLGA 071951Z 18010KT 10SM FEW045 BKN250 28/17 A2996 RMK AO2 SLP146 T02780167
LGA,2012-08-07 20:51,-73.8803,40.7794,80.96,62.06,52.66,170.00,9.00,0.00,29.96,1014.60,10.00,14.00,FEW,BKN,M,M,4500.00,25000.00,M,M,M,M,M,M,M,M,M,82.02,KLGA 072051Z 17009G14KT 10SM FEW045 BKN250 27/17 A2996 RMK AO2 SLP146 T02720167 56007
LGA,2012-08-07 21:51,-73.8803,40.7794,80.06,62.96,55.97,160.00,10.00,0.00,29.96,1014.50,10.00,M,FEW,SCT,BKN,M,4500.00,16000.00,25000.00,M,M,M,M,M,M,M,M,81.45,KLGA 072151Z 16010KT 10SM FEW045 SCT160 BKN250 27/17 A2996 RMK AO2 SLP145 T02670172
LGA,2012-08-07 22:51,-73.8803,40.7794,80.06,62.96,55.97,180.00,8.00,0.00,29.96,1014.40,10.00,M,FEW,SCT,BKN,M,4000.00,16000.00,25000.00,M,M,M,M,M,M,M,M,81.45,KLGA 072251Z 18008KT 10SM FEW040 SCT160 BKN250 27/17 A2996 RMK AO2 SLP144 T02670172
LGA,2012-08-07 23:51,-73.8803,40.7794,78.98,64.04,60.23,180.00,7.00,0.00,29.96,1014.50,10.00,M,FEW,SCT,BKN,M,4000.00,16000.00,25000.00,M,M,M,M,M,M,M,M,78.98,KLGA 072351Z 18007KT 10SM FEW040 SCT160 BKN250 26/18 A2996 RMK AO2 SLP145 T02610178 10278 20261 55001
LGA,2012-08-08 00:51,-73.8803,40.7794,78.08,62.96,59.74,180.00,8.00,0.00,29.97,1014.70,10.00,M,FEW,BKN,M,M,15000.00,25000.00,M,M,M,M,M,M,M,M,M,78.08,KLGA 080051Z 18008KT 10SM FEW150 BKN250 26/17 A2997 RMK AO2 SLP147 T02560172
LGA,2012-08-08 01:51,-73.8803,40.7794,78.08,64.94,64.03,190.00,8.00,0.00,29.97,1015.00,10.00,M,BKN,M,M,M,25000.00,M,M,M,M,M,M,M,M,M,M,78.08,KLGA 080151Z 19008KT 10SM BKN250 26/18 A2997 RMK AO2 SLP150 T02560183
LGA,2012-08-08 02:51,-73.8803,40.7794,78.08,64.94,64.03,190.00,7.00,0.00,29.97,1015.00,10.00,M,BKN,M,M,M,25000.00,M,M,M,M,M,M,M,M,M,M,78.08,KLGA 080251Z 19007KT 10SM BKN250 26/18 A2997 RMK AO2 SLP150 T02560183 51005
LGA,2012-08-08 03:51,-73.8803,40.7794,77.00,66.02,68.90,190.00,6.00,0.00,29.97,1014.90,10.00,M,BKN,M,M,M,25000.00,M,M,M,M,M,M,M,M,M,M,77.00,KLGA 080351Z 19006KT 10SM BKN250 25/19 A2997 RMK AO2 SLP149 T02500189
LGA,2012-08-08 04:51,-73.8803,40.7794,77.00,66.92,71.08,190.00,5.00,0.00,29.98,1015.20,10.00,M,BKN,M,M,M,25000.00,M,M,M,M,M,M,M,M,M,M,77.00,KLGA 080451Z 19005KT 10SM BKN250 25/19 A2998 RMK AO2 SLP152 T02500194 402830217
LGA,2012-08-08 05:51,-73.8803,40.7794,77.00,68.00,73.78,190.00,4.00,0.00,29.98,1015.10,10.00,M,FEW,BKN,M,M,5000.00,25000.00,M,M,M,M,M,M,M,M,M,77.00,KLGA 080551Z 19004KT 10SM FEW050 BKN250 25/20 A2998 RMK AO2 SLP151 T02500200 10261 20250 50001
LGA,2012-08-08 06:51,-73.8803,40.7794,75.92,69.08,79.37,170.00,3.00,0.00,29.97,1014.80,10.00,M,FEW,BKN,M,M,5000.00,25000.00,M,M,M,M,M,M,M,M,M,75.92,KLGA 080651Z 17003KT 10SM FEW050 BKN250 24/21 A2997 RMK AO2 SLP148 T02440206
LGA,2012-08-08 07:51,-73.8803,40.7794,75.92,69.98,81.85,200.00,3.00,0.00,29.97,1014.70,10.00,M,SCT,SCT,M,M,2800.00,25000.00,M,M,M,M,M,M,M,M,M,75.92,KLGA 080751Z 20003KT 10SM SCT028 SCT250 24/21 A2997 RMK AO2 SLP147 T02440211
LGA,2012-08-08 08:51,-73.8803,40.7794,75.92,71.96,87.55,220.00,3.00,0.00,29.96,1014.70,9.00,M,FEW,SCT,M,M,3800.00,25000.00,M,M,M,M,M,M,M,M,M,75.92,KLGA 080851Z 22003KT 9SM FEW038 SCT250 24/22 A2996 RMK AO2 SLP147 T02440222 56004
LGA,2012-08-08 09:51,-73.8803,40.7794,75.92,71.96,87.55,180.00,3.00,0.00,29.97,1014.80,7.00,M,FEW,SCT,BKN,M,5000.00,6000.00,25000.00,M,M,M,M,M,M,M,M,75.92,KLGA 080951Z 18003KT 7SM FEW050 SCT060 BKN250 24/22 A2997 RMK AO2 SLP148 T02440222
LGA,2012-08-08 10:51,-73.8803,40.7794,75.02,71.06,87.50,0.00,0.00,0.00,29.97,1015.00,5.00,M,FEW,OVC,M,M,5000.00,25000.00,M,M,HZ,M,M,M,M,M,M,75.02,KLGA 081051Z 00000KT 5SM HZ FEW050 OVC250 24/22 A2997 RMK AO2 SLP150 T02390217
LGA,2012-08-08 11:51,-73.8803,40.7794,77.00,71.96,84.46,M,3.00,0.00,29.98,1015.20,7.00,M,FEW,BKN,M,M,1600.00,25000.00,M,M,M,M,M,M,M,M,M,77.00,KLGA 081151Z VRB03KT 7SM FEW016 BKN250 25/22 A2998 RMK AO2 SLP152 T02500222 10250 20239 53006
LGA,2012-08-08 12:51,-73.8803,40.7794,78.08,71.96,81.50,50.00,4.00,0.00,29.99,1015.40,6.00,M,FEW,BKN,M,M,1500.00,25000.00,M,M,HZ,M,M,M,M,M,M,78.08,KLGA 081251Z 05004KT 6SM HZ FEW015 BKN250 26/22 A2999 RMK AO2 SLP154 T02560222
LGA,2012-08-08 13:51,-73.8803,40.7794,80.06,71.96,76.36,40.00,5.00,0.00,29.99,1015.40,7.00,M,FEW,SCT,BKN,M,2200.00,4000.00,25000.00,M,M,M,M,M,M,M,M,83.87,KLGA 081351Z 04005KT 7SM FEW022 SCT040 BKN250 27/22 A2999 RMK AO2 SLP154 T02670222
LGA,2012-08-08 14:51,-73.8803,40.7794,82.04,66.92,60.25,60.00,5.00,0.00,29.98,1015.30,10.00,M,FEW,SCT,BKN,M,2300.00,5500.00,25000.00,M,M,M,M,M,M,M,M,84.53,KLGA 081451Z 06005KT 10SM FEW023 SCT055 BKN250 28/19 A2998 RMK AO2 SLP153 T02780194 50001
LGA,2012-08-08 15:51,-73.8803,40.7794,84.02,68.00,58.65,M,3.00,0.00,29.98,1015.00,10.00,M,FEW,SCT,BKN,M,3500.00,5000.00,25000.00,M,M,M,M,M,M,M,M,87.20,KLGA 081551Z VRB03KT 10SM FEW035 SCT050 BKN250 29/20 A2998 RMK AO2 SLP150 T02890200
LGA,2012-08-08 16:51,-73.8803,40.7794,84.02,66.92,56.51,40.00,6.00,0.00,29.97,1014.70,10.00,M,FEW,SCT,BKN,M,4200.00,5000.00,25000.00,M,M,M,M,M,M,M,M,86.66,KLGA 081651Z 04006KT 10SM FEW042 SCT050 BKN250 29/19 A2997 RMK AO2 SLP147 T02890194
LGA,2012-08-08 17:51,-73.8803,40.7794,84.92,68.00,56.98,M,3.00,0.00,29.95,1014.30,10.00,M,SCT,BKN,M,M,4700.00,25000.00,M,M,M,M,M,M,M,M,M,88.21,KLGA 081751Z VRB03KT 10SM SCT047 BKN250 29/20 A2995 RMK AO2 SLP143 T02940200 10294 20250 58010
LGA,2012-08-08 18:51,-73.8803,40.7794,87.08,64.94,47.83,160.00,6.00,0.00,29.94,1013.90,10.00,15.00,SCT,BKN,M,M,5000.00,25000.00,M,M,M,M,M,M,M,M,M,88.86,KLGA 081851Z 16006G15KT 10SM SCT050 BKN250 31/18 A2994 RMK AO2 SLP139 T03060183
LGA,2012-08-08 19:51,-73.8803,40.7794,84.92,64.94,51.25,M,5.00,0.00,29.93,1013.50,10.00,M,FEW,SCT,OVC,M,5000.00,21000.00,25000.00,M,M,M,M,M,M,M,M,86.66,KLGA 081951Z VRB05KT 10SM FEW050 SCT210 OVC250 29/18 A2993 RMK AO2 SLP135 T02940183
LGA,2012-08-08 20:51,-73.8803,40.7794,84.92,64.94,51.25,170.00,8.00,0.00,29.92,1013.20,10.00,M,FEW,OVC,M,M,5000.00,25000.00,M,M,M,M,M,M,M,M,M,86.66,KLGA 082051Z 17008KT 10SM FEW050 OVC250 29/18 A2992 RMK AO2 SLP132 T02940183 56011
LGA,2012-08-08 21:51,-73.8803,40.7794,82.04,69.08,64.90,190.00,10.00,0.00,29.93,1013.30,10.00,M,FEW,BKN,M,M,3500.00,25000.00,M,M,M,M,M,M,M,M,M,85.43,KLGA 082151Z 19010KT 10SM FEW035 BKN250 28/21 A2993 RMK AO2 SLP133 T02780206
LGA,2012-08-08 22:51,-73.8803,40.7794,82.04,71.06,69.43,160.00,9.00,0.00,29.93,1013.50,10.00,M,FEW,BKN,M,M,3000.00,25000.00,M,M,M,M,M,M,M,M,M,86.39,KLGA 082251Z 16009KT 10SM FEW030 BKN250 28/22 A2993 RMK AO2 SLP135 T02780217
LGA,2012-08-08 23:51,-73.8803,40.7794,80.96,71.96,74.15,180.00,7.00,0.00,29.94,1013.80,10.00,M,FEW,BKN,M,M,2500.00,25000.00,M,M,M,M,M,M,M,M,M,85.27,KLGA 082351Z 18007KT 10SM FEW025 BKN250 27/22 A2994 RMK AO2 SLP138 T02720222 10306 20272 53006
LGA,2012-08-09 00:51,-73.8803,40.7794,78.98,73.04,82.06,160.00,7.00,0.00,29.95,1014.00,10.00,M,FEW,BKN,M,M,2000.00,25000.00,M,M,M,M,M,M,M,M,M,78.98,KLGA 090051Z 16007KT 10SM FEW020 BKN250 26/23 A2995 RMK AO2 SLP140 T02610228
LGA,2012-08-09 01:51,-73.8803,40.7794,78.98,73.04,82.06,170.00,9.00,0.00,29.95,1014.20,10.00,M,FEW,BKN,M,M,2000.00,25000.00,M,M,M,M,M,M,M,M,M,78.98,KLGA 090151Z 17009KT 10SM FEW020 BKN250 26/23 A2995 RMK AO2 SLP142 T02610228
LGA,2012-08-09 02:51,-73.8803,40.7794,78.08,73.94,87.12,180.00,9.00,0.00,29.95,1014.20,10.00,M,FEW,OVC,M,M,2000.00,25000.00,M,M,M,M,M,M,M,M,M,78.08,KLGA 090251Z 18009KT 10SM FEW020 OVC250 26/23 A2995 RMK AO2 SLP142 T02560233 50003
LGA,2012-08-09 03:51,-73.8803,40.7794,78.08,73.94,87.12,180.00,8.00,0.00,29.95,1014.10,10.00,M,FEW,BKN,M,M,2000.00,25000.00,M,M,M,M,M,M,M,M,M,78.08,KLGA 090351Z 18008KT 10SM FEW020 BKN250 26/23 A2995 RMK AO2 SLP141 T02560233
LGA,2012-08-09 04:51,-73.8803,40.7794,78.08,73.94,87.12,190.00,4.00,0.00,29.94,1014.00,10.00,M,FEW,SCT,M,M,2000.00,25000.00,M,M,M,M,M,M,M,M,M,78.08,KLGA 090451Z 19004KT 10SM FEW020 SCT250 26/23 A2994 RMK AO2 SLP140 T02560233 403060239
LGA,2012-08-09 05:51,-73.8803,40.7794,78.08,73.94,87.12,210.00,7.00,0.00,29.94,1013.80,10.00,M,FEW,SCT,M,M,2000.00,25000.00,M,M,M,M,M,M,M,M,M,78.08,KLGA 090551Z 21007KT 10SM FEW020 SCT250 26/23 A2994 RMK AO2 SLP138 T02560233 10272 20256 58003
LGA,2012-08-09 06:51,-73.8803,40.7794,77.00,73.94,90.29,210.00,6.00,0.00,29.93,1013.60,10.00,M,FEW,M,M,M,25000.00,M,M,M,M,M,M,M,M,M,M,77.00,KLGA 090651Z 21006KT 10SM FEW250 25/23 A2993 RMK AO2 SLP136 T02500233
LGA,2012-08-09 07:51,-73.8803,40.7794,77.00,73.04,87.60,230.00,3.00,0.00,29.92,1013.30,10.00,M,FEW,M,M,M,25000.00,M,M,M,M,M,M,M,M,M,M,77.00,KLGA 090751Z 23003KT 10SM FEW250 25/23 A2992 RMK AO2 SLP133 T02500228
LGA,2012-08-09 08:51,-73.8803,40.7794,77.00,73.04,87.60,210.00,3.00,0.00,29.92,1013.20,10.00,M,SCT,M,M,M,25000.00,M,M,M,M,M,M,M,M,M,M,77.00,KLGA 090851Z 21003KT 10SM SCT250 25/23 A2992 RMK AO2 SLP132 T02500228 56006
LGA,2012-08-09 09:51,-73.8803,40.7794,75.92,71.96,87.55,200.00,3.00,0.00,29.93,1013.60,10.00,M,SCT,M,M,M,20000.00,M,M,M,M,M,M,M,M,M,M,75.92,KLGA 090951Z 20003KT 10SM SCT200 24/22 A2993 RMK AO2 SLP136 T02440222
LGA,2012-08-09 10:51,-73.8803,40.7794,75.92,71.96,87.55,210.00,4.00,0.00,29.95,1014.00,10.00,M,FEW,M,M,M,20000.00,M,M,M,M,M,M,M,M,M,M,75.92,KLGA 091051Z 21004KT 10SM FEW200 24/22 A2995 RMK AO2 SLP140 T02440222
LGA,2012-08-09 11:51,-73.8803,40.7794,78.98,71.96,79.12,190.00,4.00,0.00,29.95,1014.20,10.00,M,FEW,M,M,M,25000.00,M,M,M,M,M,M,M,M,M,M,78.98,KLGA 091151Z 19004KT 10SM FEW250 26/22 A2995 RMK AO2 SLP142 T02610222 10261 20244 51010
LGA,2012-08-09 12:51,-73.8803,40.7794,80.96,71.06,71.92,190.00,7.00,0.00,29.96,1014.30,10.00,M,FEW,M,M,M,25000.00,M,M,M,M,M,M,M,M,M,M,84.88,KLGA 091251Z 19007KT 10SM FEW250 27/22 A2996 RMK AO2 SLP143 T02720217
LGA,2012-08-09 13:51,-73.8803,40.7794,84.02,68.00,58.65,240.00,6.00,0.00,29.95,1014.10,10.00,M,FEW,M,M,M,1500.00,M,M,M,M,M,M,M,M,M,M,87.20,KLGA 091351Z 24006KT 10SM FEW015 29/20 A2995 RMK AO2 SLP141 T02890200
LGA,2012-08-09 14:51,-73.8803,40.7794,87.08,64.94,47.83,220.00,5.00,0.00,29.93,1013.60,10.00,M,FEW,M,M,M,1900.00,M,M,M,M,M,M,M,M,M,M,88.86,KLGA 091451Z 22005KT 10SM FEW019 31/18 A2993 RMK AO2 SLP136 T03060183 58006
LGA,2012-08-09 15:51,-73.8803,40.7794,87.08,66.02,49.66,230.00,7.00,0.00,29.93,1013.40,10.00,M,FEW,M,M,M,4500.00,M,M,M,M,M,M,M,M,M,M,89.43,KLGA 091551Z 23007KT 10SM FEW045 31/19 A2993 RMK AO2 SLP134 T03060189
LGA,2012-08-09 16:51,-73.8803,40.7794,87.98,69.08,53.64,170.00,10.00,0.00,29.92,1013.30,10.00,14.00,FEW,M,M,M,5500.00,M,M,M,M,M,M,M,M,M,M,92.39,KLGA 091651Z 17010G14KT 10SM FEW055 31/21 A2992 RMK AO2 SLP133 T03110206
LGA,2012-08-09 17:51,-73.8803,40.7794,87.98,66.92,49.79,160.00,12.00,0.00,29.91,1012.90,10.00,18.00,FEW,M,M,M,6500.00,M,M,M,M,M,M,M,M,M,M,90.94,KLGA 091751Z 16012G18KT 130V200 10SM FEW065 31/19 A2991 RMK AO2 SLP129 T03110194 10317 20261 58007
LGA,2012-08-09 18:51,-73.8803,40.7794,87.08,69.08,55.19,180.00,10.00,0.00,29.90,1012.40,10.00,19.00,FEW,SCT,M,M,6500.00,25000.00,M,M,M,M,M,M,M,M,M,91.35,KLGA 091851Z 18010G19KT 10SM FEW065 SCT250 31/21 A2990 RMK AO2 SLP124 T03060206
LGA,2012-08-09 19:51,-73.8803,40.7794,86.00,69.08,57.12,160.00,13.00,0.00,29.89,1012.10,10.00,M,FEW,SCT,M,M,5500.00,25000.00,M,M,M,M,M,M,M,M,M,90.10,KLGA 091951Z 16013KT 10SM FEW055 SCT250 30/21 A2989 RMK AO2 SLP121 TCU DSNT N T03000206
LGA,2012-08-09 20:51,-73.8803,40.7794,84.02,71.06,65.13,180.00,13.00,0.00,29.89,1012.00,10.00,18.00,FEW,SCT,BKN,M,2000.00,4500.00,25000.00,M,M,M,M,M,M,M,M,89.01,KLGA 092051Z 18013G18KT 10SM FEW020 SCT045 BKN250 29/22 A2989 RMK AO2 SLP120 CB DSNT SW-NW T02890217 56009
LGA,2012-08-09 21:51,-73.8803,40.7794,82.04,71.96,71.59,170.00,8.00,0.00,29.90,1012.40,10.00,20.00,FEW,SCT,BKN,BKN,1700.00,4000.00,15000.00,25000.00,M,M,M,M,M,M,M,86.87,KLGA 092151Z 17008G20KT 120V190 10SM FEW017 SCT040CB BKN150 BKN250 28/22 A2990 RMK AO2 SLP124 CB SW-W MOV NE T02780222
LGA,2012-08-09 22:51,-73.8803,40.7794,82.04,69.98,66.93,170.00,8.00,0.00,29.88,1011.80,10.00,20.00,FEW,SCT,SCT,BKN,2000.00,6000.00,11000.00,25000.00,M,M,M,M,M,M,M,85.85,KLGA 092251Z 17008G20KT 130V190 10SM FEW020 SCT060 SCT110 BKN250 28/21 A2988 RMK AO2 RAB33E44 SLP118 P0000 T02780211
LGA,2012-08-09 23:51,-73.8803,40.7794,80.96,71.06,71.92,190.00,10.00,0.00,29.87,1011.60,10.00,17.00,FEW,SCT,BKN,BKN,2000.00,14000.00,18000.00,24000.00,M,M,M,M,M,M,M,84.88,KLGA 092351Z 19010G17KT 10SM FEW020 SCT140 BKN180 BKN240 27/22 A2987 RMK AO2 SLP116 60000 T02720217 10317 20267 58004
LGA,2012-08-10 00:51,-73.8803,40.7794,80.06,73.04,79.20,180.00,9.00,0.00,29.89,1012.00,10.00,17.00,SCT,BKN,BKN,M,1600.00,18000.00,25000.00,M,M,M,M,M,M,M,M,84.25,KLGA 100051Z 18009G17KT 10SM SCT016 BKN180 BKN250 27/23 A2989 RMK AO2 SLP120 T02670228
LGA,2012-08-10 01:51,-73.8803,40.7794,78.98,73.94,84.58,180.00,9.00,0.00,29.90,1012.60,10.00,M,FEW,BKN,M,M,1600.00,25000.00,M,M,M,M,M,M,M,M,M,78.98,KLGA 100151Z 18009KT 10SM FEW016 BKN250 26/23 A2990 RMK AO2 SLP126 T02610233
LGA,2012-08-10 02:51,-73.8803,40.7794,80.06,73.04,79.20,200.00,6.00,0.00,29.90,1012.60,9.00,M,SCT,BKN,M,M,2000.00,25000.00,M,M,M,M,M,M,M,M,M,84.25,KLGA 100251Z 20006KT 9SM SCT020 BKN250 27/23 A2990 RMK AO2 SLP126 T02670228 50009
LGA,2012-08-10 03:51,-73.8803,40.7794,80.06,73.04,79.20,170.00,6.00,0.00,29.90,1012.30,9.00,M,SCT,BKN,M,M,8000.00,25000.00,M,M,M,M,M,M,M,M,M,84.25,KLGA 100351Z 17006KT 9SM SCT080 BKN250 27/23 A2990 RMK AO2 SLP123 T02670228
LGA,2012-08-10 04:51,-73.8803,40.7794,78.98,73.94,84.58,170.00,6.00,0.00,29.88,1012.00,9.00,M,FEW,BKN,M,M,1600.00,25000.00,M,M,M,M,M,M,M,M,M,78.98,KLGA 100451Z 17006KT 9SM FEW016 BKN250 26/23 A2988 RMK AO2 SLP120 T02610233 403170244
LGA,2012-08-10 05:51,-73.8803,40.7794,78.98,73.94,84.58,180.00,8.00,0.00,29.87,1011.60,9.00,M,SCT,BKN,M,M,1200.00,25000.00,M,M,M,M,M,M,M,M,M,78.98,KLGA 100551Z 18008KT 9SM SCT012 BKN250 26/23 A2987 RMK AO2 SLP116 T02610233 10272 20256 58010
LGA,2012-08-10 06:51,-73.8803,40.7794,78.98,75.02,87.70,180.00,7.00,0.00,29.86,1011.10,10.00,M,SCT,SCT,BKN,M,1200.00,1900.00,25000.00,M,M,M,M,M,M,M,M,78.98,KLGA 100651Z 18007KT 10SM SCT012 SCT019 BKN250 26/24 A2986 RMK AO2 SLP111 T02610239
LGA,2012-08-10 07:51,-73.8803,40.7794,78.08,73.94,87.12,190.00,11.00,0.00,29.85,1010.70,10.00,M,SCT,SCT,BKN,M,1200.00,1900.00,25000.00,M,M,M,M,M,M,M,M,78.08,KLGA 100751Z 19011KT 10SM SCT012 SCT019 BKN250 26/23 A2985 RMK AO2 SLP107 T02560233
LGA,2012-08-10 08:47,-73.8803,40.7794,78.80,73.40,83.55,190.00,10.00,0.00,29.84,M,10.00,M,SCT,BKN,BKN,M,1200.00,1700.00,25000.00,M,M,M,M,M,M,M,M,78.80,KLGA 100847Z 19010KT 10SM SCT012 BKN017 BKN250 26/23 A2984 RMK AO2
LGA,2012-08-10 08:51,-73.8803,40.7794,78.08,73.94,87.12,180.00,8.00,0.00,29.84,1010.60,10.00,M,SCT,BKN,BKN,M,1200.00,1700.00,25000.00,M,M,M,M,M,M,M,M,78.08,KLGA 100851Z 18008KT 10SM SCT012 BKN017 BKN250 26/23 A2984 RMK AO2 SLP106 T02560233 56010
LGA,2012-08-10 09:47,-73.8803,40.7794,78.80,75.20,88.75,170.00,7.00,0.00,29.85,M,10.00,M,OVC,M,M,M,1400.00,M,M,M,M,M,M,M,M,M,M,78.80,KLGA 100947Z 17007KT 10SM OVC014 26/24 A2985 RMK AO2
LGA,2012-08-10 09:51,-73.8803,40.7794,78.98,75.02,87.70,180.00,8.00,0.00,29.85,1010.70,10.00,M,OVC,M,M,M,1400.00,M,M,M,M,M,M,M,M,M,M,78.98,KLGA 100951Z 18008KT 10SM OVC014 26/24 A2985 RMK AO2 SLP107 T02610239
LGA,2012-08-10 10:46,-73.8803,40.7794,80.60,75.20,83.66,180.00,11.00,0.00,29.85,M,10.00,16.00,OVC,M,M,M,1600.00,M,M,M,M,M,M,M,M,M,M,86.17,KLGA 101046Z 18011G16KT 10SM OVC016 27/24 A2985 RMK AO2
LGA,2012-08-10 10:51,-73.8803,40.7794,78.98,75.02,87.70,180.00,8.00,0.00,29.85,1010.70,10.00,M,OVC,M,M,M,1600.00,M,M,M,M,M,M,M,M,M,M,78.98,KLGA 101051Z 18008KT 10SM ? OVC016 26/24 A2985 RMK AO2 SLP107 T02610239
LGA,2012-08-10 11:51,-73.8803,40.7794,78.98,75.02,87.70,180.00,9.00,0.00,29.84,1010.40,10.00,14.00,FEW,BKN,BKN,OVC,1400.00,2100.00,3400.00,25000.00,M,M,M,M,M,M,M,78.98,KLGA 101151Z 18009G14KT 10SM FEW014 BKN021 BKN034 OVC250 26/24 A2984 RMK AO2 SLP104 T02610239 10267 20256 58002
LGA,2012-08-10 12:51,-73.8803,40.7794,80.96,75.02,82.19,180.00,7.00,0.00,29.84,1010.40,10.00,15.00,BKN,BKN,OVC,M,1600.00,4200.00,25000.00,M,M,M,M,M,M,M,M,86.76,KLGA 101251Z 18007G15KT 10SM BKN016 BKN042 OVC250 27/24 A2984 RMK AO2 SLP104 T02720239
LGA,2012-08-10 13:51,-73.8803,40.7794,82.04,73.94,76.53,180.00,13.00,0.00,29.83,1010.20,10.00,17.00,BKN,BKN,OVC,M,1600.00,2100.00,15000.00,M,M,M,M,M,M,M,M,88.02,KLGA 101351Z 18013G17KT 10SM BKN016 BKN021 OVC150 28/23 A2983 RMK AO2 SLP102 T02780233
LGA,2012-08-10 14:51,-73.8803,40.7794,82.94,73.94,74.33,170.00,13.00,0.00,29.82,1009.80,10.00,18.00,BKN,BKN,OVC,M,1800.00,5000.00,15000.00,M,M,M,M,M,M,M,M,89.46,KLGA 101451Z 17013G18KT 10SM BKN018 BKN050 OVC150 28/23 A2982 RMK AO2 SLP098 T02830233 58005
LGA,2012-08-10 15:20,-73.8803,40.7794,80.60,73.40,78.76,160.00,13.00,0.00,29.82,M,10.00,20.00,SCT,SCT,OVC,M,1800.00,4500.00,15000.00,M,M,M,M,M,M,M,M,85.32,KLGA 101520Z 16013G20KT 10SM SCT018 SCT045 OVC150 27/23 A2982 RMK AO2
LGA,2012-08-10 15:51,-73.8803,40.7794,82.04,73.04,74.25,170.00,9.00,0.00,29.81,1009.50,10.00,17.00,SCT,SCT,OVC,M,1800.00,11000.00,15000.00,M,M,M,M,M,M,M,M,87.48,KLGA 101551Z 17009G17KT 10SM SCT018 SCT110 OVC150 28/23 A2981 RMK AO2 SLP095 T02780228
LGA,2012-08-10 16:42,-73.8803,40.7794,77.00,73.40,88.67,180.00,13.00,0.07,29.81,M,1.00,M,FEW,BKN,OVC,M,1100.00,2600.00,11000.00,M,+RA BR,M,M,M,M,M,M,77.00,KLGA 101642Z 18013KT 1SM R04/5500VP6000FT +RA BR FEW011 BKN026 OVC110 25/23 A2981 RMK AO2 SFC VIS 2 RAB1554 P0007
LGA,2012-08-10 16:51,-73.8803,40.7794,73.94,69.98,87.45,170.00,10.00,0.15,29.81,1009.30,2.50,M,FEW,BKN,OVC,M,1200.00,4100.00,9000.00,M,+RA BR,M,M,M,M,M,M,73.94,KLGA 101651Z 17010KT 2 1/2SM R04/5500VP6000FT +RA BR FEW012 BKN041 OVC090 23/21 A2981 RMK AO2 RAB1554 SLP093 P0015 T02330211
LGA,2012-08-10 17:17,-73.8803,40.7794,73.40,69.80,88.51,M,4.00,0.12,29.79,M,8.00,M,FEW,BKN,BKN,OVC,1500.00,4800.00,9000.00,14000.00,-RA,M,M,M,M,M,M,73.40,KLGA 101717Z VRB04KT 8SM -RA FEW015 BKN048 BKN090 OVC140 23/21 A2979 RMK AO2 P0012
LGA,2012-08-10 17:51,-73.8803,40.7794,73.04,69.98,90.14,70.00,7.00,0.16,29.79,1008.80,9.00,M,FEW,BKN,BKN,OVC,700.00,5000.00,9500.00,14000.00,-RA,M,M,M,M,M,M,73.04,KLGA 101751Z 07007KT 9SM -RA FEW007 BKN050 BKN095 OVC140 23/21 A2979 RMK AO2 SLP088 P0016 60031 T02280211 10289 20222 58011
LGA,2012-08-10 18:51,-73.8803,40.7794,75.02,71.06,87.50,110.00,4.00,0.00,29.78,1008.30,10.00,M,SCT,BKN,BKN,BKN,1200.00,3100.00,9500.00,14000.00,M,M,M,M,M,M,M,75.02,KLGA 101851Z 11004KT 10SM SCT012 BKN031 BKN095 BKN140 24/22 A2978 RMK AO2 RAE02 SLP083 P0000 T02390217
LGA,2012-08-10 19:34,-73.8803,40.7794,75.20,69.80,83.32,80.00,5.00,0.00,29.76,M,10.00,M,FEW,BKN,BKN,BKN,900.00,1800.00,2500.00,14000.00,M,M,M,M,M,M,M,75.20,KLGA 101934Z 08005KT 10SM FEW009 BKN018 BKN025 BKN140 24/21 A2976 RMK AO2
LGA,2012-08-10 19:51,-73.8803,40.7794,78.98,69.98,73.97,170.00,5.00,0.00,29.75,1007.50,10.00,M,FEW,BKN,BKN,BKN,900.00,1800.00,2500.00,14000.00,M,M,M,M,M,M,M,78.98,KLGA 101951Z 17005KT 10SM FEW009 BKN018 BKN025 BKN140 BKN250 26/21 A2975 RMK AO2 SLP075 T02610211
LGA,2012-08-10 20:29,-73.8803,40.7794,80.60,69.80,69.71,170.00,7.00,0.00,29.75,M,10.00,M,FEW,SCT,BKN,BKN,900.00,1800.00,14000.00,25000.00,M,M,M,M,M,M,M,83.90,KLGA 102029Z 17007KT 10SM FEW009 SCT018 BKN140 BKN250 27/21 A2975 RMK AO2 ACSL S
LGA,2012-08-10 20:51,-73.8803,40.7794,80.06,69.98,71.39,M,5.00,0.00,29.76,1007.60,10.00,M,FEW,SCT,SCT,BKN,900.00,1800.00,2400.00,14000.00,M,M,M,M,M,M,M,83.22,KLGA 102051Z VRB05KT 10SM FEW009 SCT018 SCT024 BKN140 BKN250 27/21 A2976 RMK AO2 SLP076 SCT024 V BKN 60000 T02670211 55012
LGA,2012-08-10 21:51,-73.8803,40.7794,80.96,69.08,67.22,230.00,7.00,0.00,29.75,1007.60,10.00,M,FEW,SCT,BKN,BKN,3000.00,4900.00,8000.00,16000.00,M,M,M,M,M,M,M,84.10,KLGA 102151Z 23007KT 180V240 10SM FEW030 SCT049 BKN080 BKN160 BKN250 27/21 A2975 RMK AO2 SLP076 T02720206
LGA,2012-08-10 22:51,-73.8803,40.7794,80.06,71.06,74.07,170.00,7.00,0.00,29.76,1007.80,10.00,M,FEW,SCT,BKN,BKN,2000.00,3400.00,7500.00,16000.00,M,M,M,M,M,M,M,83.56,KLGA 102251Z 17007KT 10SM FEW020 SCT034 BKN075 BKN160 BKN250 27/22 A2976 RMK AO2 SLP078 T02670217
LGA,2012-08-10 23:51,-73.8803,40.7794,78.98,71.96,79.12,160.00,8.00,0.00,29.77,1008.20,10.00,M,FEW,BKN,BKN,BKN,2000.00,7500.00,15000.00,25000.00,M,M,M,M,M,M,M,78.98,KLGA 102351Z 16008KT 10SM FEW020 BKN075 BKN150 BKN250 26/22 A2977 RMK AO2 SLP082 60000 T02610222 10278 20222 53006
LGA,2012-08-11 00:51,-73.8803,40.7794,78.98,71.96,79.12,170.00,6.00,0.00,29.78,1008.50,10.00,M,FEW,SCT,SCT,BKN,2000.00,7500.00,15000.00,25000.00,M,M,M,M,M,M,M,78.98,KLGA 110051Z 17006KT 10SM FEW020 SCT075 SCT150 BKN250 26/22 A2978 RMK AO2 SLP085 T02610222
LGA,2012-08-11 01:51,-73.8803,40.7794,78.98,73.04,82.06,190.00,6.00,0.00,29.79,1008.70,10.00,M,FEW,SCT,SCT,BKN,3800.00,4700.00,15000.00,25000.00,M,M,M,M,M,M,M,78.98,KLGA 110151Z 19006KT 10SM FEW038 SCT047 SCT150 BKN250 26/23 A2979 RMK AO2 SLP087 T02610228
LGA,2012-08-11 02:51,-73.8803,40.7794,78.98,71.96,79.12,220.00,7.00,0.00,29.79,1008.80,10.00,M,SCT,SCT,M,M,4300.00,25000.00,M,M,M,M,M,M,M,M,M,78.98,KLGA 110251Z 22007KT 10SM SCT043 SCT250 26/22 A2979 RMK AO2 SLP088 T02610222 51006
LGA,2012-08-11 03:51,-73.8803,40.7794,78.98,71.96,79.12,210.00,7.00,0.00,29.79,1008.60,10.00,M,SCT,M,M,M,25000.00,M,M,M,M,M,M,M,M,M,M,78.98,KLGA 110351Z 21007KT 10SM SCT250 26/22 A2979 RMK AO2 SLP086 T02610222
LGA,2012-08-11 04:51,-73.8803,40.7794,78.08,71.96,81.50,220.00,7.00,0.00,29.80,1009.00,10.00,M,FEW,BKN,M,M,18000.00,25000.00,M,M,M,M,M,M,M,M,M,78.08,KLGA 110451Z 22007KT 10SM FEW180 BKN250 26/22 A2980 RMK AO2 SLP090 T02560222 402890222
LGA,2012-08-11 05:51,-73.8803,40.7794,78.08,73.04,84.53,200.00,6.00,0.00,29.80,1009.20,10.00,M,SCT,BKN,BKN,M,7500.00,15000.00,25000.00,M,M,M,M,M,M,M,M,78.08,KLGA 110551Z 20006KT 10SM SCT075 BKN150 BKN250 26/23 A2980 RMK AO2 SLP092 T02560228 10267 20256 53004
LGA,2012-08-11 06:51,-73.8803,40.7794,78.08,73.04,84.53,200.00,4.00,0.00,29.80,1009.00,10.00,M,BKN,M,M,M,25000.00,M,M,M,M,M,M,M,M,M,M,78.08,KLGA 110651Z 20004KT 10SM BKN250 26/23 A2980 RMK AO2 SLP090 T02560228
LGA,2012-08-11 07:51,-73.8803,40.7794,78.08,71.96,81.50,190.00,8.00,0.00,29.80,1009.20,10.00,M,OVC,M,M,M,25000.00,M,M,M,M,M,M,M,M,M,M,78.08,KLGA 110751Z 19008KT 10SM OVC250 26/22 A2980 RMK AO2 SLP092 T02560222
LGA,2012-08-11 08:51,-73.8803,40.7794,77.00,71.96,84.46,190.00,5.00,0.00,29.80,1008.90,10.00,M,FEW,SCT,M,M,6000.00,25000.00,M,M,M,M,M,M,M,M,M,77.00,KLGA 110851Z 19005KT 10SM FEW060 SCT250 25/22 A2980 RMK AO2 SLP089 T02500222 58003
LGA,2012-08-11 09:51,-73.8803,40.7794,77.00,73.04,87.60,200.00,5.00,0.00,29.82,1009.60,10.00,M,FEW,SCT,SCT,SCT,1300.00,5500.00,18000.00,25000.00,M,M,M,M,M,M,M,77.00,KLGA 110951Z 20005KT 10SM FEW013 SCT055 SCT180 SCT250 25/23 A2982 RMK AO2 SLP096 T02500228
LGA,2012-08-11 10:51,-73.8803,40.7794,77.00,73.04,87.60,160.00,3.00,0.00,29.83,1010.10,10.00,M,SCT,SCT,BKN,M,1500.00,5500.00,25000.00,M,M,M,M,M,M,M,M,77.00,KLGA 111051Z 16003KT 10SM SCT015 SCT055 BKN250 25/23 A2983 RMK AO2 SLP101 T02500228
LGA,2012-08-11 11:51,-73.8803,40.7794,78.08,73.04,84.53,180.00,5.00,0.00,29.83,1010.20,10.00,M,SCT,SCT,BKN,M,1600.00,5500.00,25000.00,M,M,M,M,M,M,M,M,78.08,KLGA 111151Z 18005KT 10SM SCT016 SCT055 BKN250 26/23 A2983 RMK AO2 SLP102 70031 T02560228 10256 20250 51013
LGA,2012-08-11 12:51,-73.8803,40.7794,78.98,73.04,82.06,190.00,6.00,0.00,29.84,1010.40,10.00,M,SCT,SCT,BKN,M,1400.00,5500.00,25000.00,M,M,M,M,M,M,M,M,78.98,KLGA 111251Z 19006KT 10SM SCT014 SCT055 BKN250 26/23 A2984 RMK AO2 SLP104 T02610228
LGA,2012-08-11 12:59,-73.8803,40.7794,78.80,73.40,83.55,170.00,5.00,0.00,29.84,M,10.00,M,BKN,BKN,OVC,M,1400.00,10000.00,20000.00,M,M,M,M,M,M,M,M,78.80,KLGA 111259Z 17005KT 10SM BKN014 BKN100 OVC200 26/23 A2984 RMK AO2
LGA,2012-08-11 13:49,-73.8803,40.7794,80.60,73.40,78.76,210.00,8.00,0.00,29.85,M,10.00,M,FEW,SCT,BKN,BKN,1100.00,1800.00,2700.00,25000.00,M,M,M,M,M,M,M,85.32,KLGA 111349Z 21008KT 10SM FEW011 SCT018 BKN027 BKN250 27/23 A2985 RMK AO2 CB DSNT N MOV NE
LGA,2012-08-11 13:51,-73.8803,40.7794,80.06,73.04,79.20,220.00,7.00,0.00,29.85,1010.60,10.00,M,FEW,SCT,BKN,BKN,1100.00,1800.00,2700.00,25000.00,M,M,M,M,M,M,M,84.25,KLGA 111351Z 22007KT 10SM FEW011 SCT018 BKN027 BKN250 27/23 A2985 RMK AO2 SLP106 CB DSNT N MOV NE T02670228
LGA,2012-08-11 14:28,-73.8803,40.7794,80.60,73.40,78.76,210.00,8.00,0.00,29.85,M,10.00,M,FEW,SCT,BKN,BKN,1300.00,2700.00,15000.00,23000.00,M,M,M,M,M,M,M,85.32,KLGA 111428Z 21008KT 10SM FEW013 SCT027 BKN150 BKN230 27/23 A2985 RMK AO2
LGA,2012-08-11 14:51,-73.8803,40.7794,82.04,71.96,71.59,190.00,7.00,0.00,29.85,1010.70,10.00,M,FEW,SCT,BKN,BKN,1300.00,2700.00,15000.00,23000.00,M,M,M,M,M,M,M,86.87,KLGA 111451Z 19007KT 10SM FEW013 SCT027 BKN150 BKN230 28/22 A2985 RMK AO2 SLP107 T02780222 51005
LGA,2012-08-11 15:51,-73.8803,40.7794,82.94,71.06,67.44,160.00,7.00,0.00,29.84,1010.50,10.00,M,FEW,SCT,BKN,BKN,1300.00,2400.00,15000.00,25000.00,M,M,M,M,M,M,M,87.60,KLGA 111551Z 16007KT 10SM FEW013 SCT024 BKN150 BKN250 28/22 A2984 RMK AO2 SLP105 T02830217
LGA,2012-08-11 16:51,-73.8803,40.7794,84.02,71.96,67.15,170.00,10.00,0.00,29.84,1010.30,10.00,M,SCT,BKN,BKN,BKN,3300.00,4100.00,15000.00,25000.00,M,M,M,M,M,M,M,89.62,KLGA 111651Z 17010KT 10SM SCT033 BKN041 BKN150 BKN250 29/22 A2984 RMK AO2 SLP103 T02890222
LGA,2012-08-11 17:51,-73.8803,40.7794,86.00,73.94,67.36,170.00,13.00,0.00,29.83,1010.10,10.00,M,SCT,SCT,BKN,BKN,3300.00,4800.00,15000.00,25000.00,M,M,M,M,M,M,M,93.95,KLGA 111751Z 17013KT 10SM SCT033 SCT048 BKN150 BKN250 30/23 A2983 RMK AO2 SLP101 CB DSNT NW MOV NE T03000233 10306 20256 56006
LGA,2012-08-11 18:51,-73.8803,40.7794,84.92,73.04,67.65,160.00,12.00,0.00,29.84,1010.30,10.00,17.00,FEW,SCT,BKN,BKN,3300.00,4200.00,15000.00,25000.00,M,M,M,M,M,M,M,91.66,KLGA 111851Z 16012G17KT 10SM FEW033 SCT042 BKN150 BKN250 29/23 A2984 RMK AO2 SLP103 T02940228
LGA,2012-08-11 19:51,-73.8803,40.7794,86.00,73.94,67.36,190.00,13.00,0.00,29.83,1010.10,10.00,21.00,FEW,SCT,BKN,BKN,3300.00,5000.00,15000.00,25000.00,M,M,M,M,M,M,M,93.95,KLGA 111951Z 19013G21KT 10SM FEW033 SCT050 BKN150 BKN250 30/23 A2983 RMK AO2 SLP101 T03000233
LGA,2012-08-11 20:51,-73.8803,40.7794,87.98,71.06,57.39,200.00,14.00,0.00,29.83,1010.00,10.00,20.00,SCT,SCT,BKN,BKN,3700.00,5000.00,15000.00,25000.00,M,M,M,M,M,M,M,93.94,KLGA 112051Z 20014G20KT 10SM SCT037 SCT050 BKN150 BKN250 31/22 A2983 RMK AO2 SLP100 T03110217 58001
LGA,2012-08-11 21:51,-73.8803,40.7794,86.00,69.98,58.91,190.00,13.00,0.00,29.84,1010.40,10.00,21.00,FEW,SCT,BKN,BKN,3500.00,5000.00,15000.00,25000.00,M,M,M,M,M,M,M,90.71,KLGA 112151Z 19013G21KT 10SM FEW035 SCT050 BKN150 BKN250 30/21 A2984 RMK AO2 SLP104 T03000211
LGA,2012-08-11 22:51,-73.8803,40.7794,84.02,69.98,62.77,180.00,11.00,0.00,29.85,1010.80,10.00,17.00,FEW,BKN,OVC,M,3500.00,15000.00,20000.00,M,M,M,M,M,M,M,M,88.32,KLGA 112251Z 18011G17KT 10SM FEW035 BKN150 OVC200 29/21 A2985 RMK AO2 SLP108 T02890211
LGA,2012-08-11 23:51,-73.8803,40.7794,82.04,69.08,64.90,190.00,13.00,0.00,29.87,1011.40,10.00,M,FEW,BKN,BKN,M,4500.00,15000.00,20000.00,M,M,M,M,M,M,M,M,85.43,KLGA 112351Z 19013KT 10SM FEW045 BKN150 BKN200 28/21 A2987 RMK AO2 SLP114 T02780206 10311 20278 53015
LGA,2012-08-12 00:51,-73.8803,40.7794,80.06,69.98,71.39,190.00,12.00,0.00,29.88,1011.90,10.00,M,FEW,SCT,BKN,BKN,3500.00,11000.00,16000.00,20000.00,M,M,M,M,M,M,M,83.22,KLGA 120051Z 19012KT 10SM FEW035 SCT110 BKN160 BKN200 27/21 A2988 RMK AO2 SLP119 T02670211
LGA,2012-08-12 01:51,-73.8803,40.7794,80.06,69.98,71.39,230.00,11.00,0.00,29.90,1012.40,10.00,M,FEW,BKN,OVC,M,3500.00,18000.00,24000.00,M,M,M,M,M,M,M,M,83.22,KLGA 120151Z 23011KT 10SM FEW035 BKN180 OVC240 27/21 A2990 RMK AO2 SLP124 T02670211
LGA,2012-08-12 02:51,-73.8803,40.7794,78.98,71.06,76.74,200.00,10.00,0.00,29.90,1012.30,10.00,M,FEW,SCT,OVC,M,3500.00,15000.00,25000.00,M,M,M,M,M,M,M,M,78.98,KLGA 120251Z 20010KT 10SM FEW035 SCT150 OVC250 26/22 A2990 RMK AO2 SLP123 T02610217 50009
LGA,2012-08-12 03:51,-73.8803,40.7794,78.08,71.06,79.05,200.00,7.00,0.00,29.89,1012.20,10.00,M,FEW,BKN,BKN,M,3500.00,15000.00,25000.00,M,M,M,M,M,M,M,M,78.08,KLGA 120351Z 20007KT 10SM FEW035 BKN150 BKN250 26/22 A2989 RMK AO2 SLP122 T02560217
LGA,2012-08-12 04:51,-73.8803,40.7794,78.08,71.06,79.05,200.00,8.00,0.00,29.89,1012.10,10.00,M,FEW,SCT,BKN,M,3000.00,15000.00,25000.00,M,M,M,M,M,M,M,M,78.08,KLGA 120451Z 20008KT 10SM FEW030 SCT150 BKN250 26/22 A2989 RMK AO2 SLP121 T02560217 403110250
LGA,2012-08-12 05:18,-73.8803,40.7794,77.00,71.60,83.44,200.00,7.00,0.00,29.89,M,10.00,M,FEW,BKN,BKN,M,1600.00,2900.00,15000.00,M,M,M,M,M,M,M,M,77.00,KLGA 120518Z 20007KT 10SM FEW016 BKN029 BKN150 25/22 A2989 RMK AO2
LGA,2012-08-12 05:48,-73.8803,40.7794,77.00,71.60,83.44,200.00,7.00,0.00,29.88,M,10.00,M,FEW,SCT,BKN,M,2600.00,3400.00,15000.00,M,M,M,M,M,M,M,M,77.00,KLGA 120548Z 20007KT 10SM FEW026 SCT034 BKN150 25/22 A2988 RMK AO2
LGA,2012-08-12 05:51,-73.8803,40.7794,77.00,71.06,81.92,200.00,8.00,0.00,29.88,1011.80,10.00,M,FEW,SCT,BKN,M,2600.00,3400.00,15000.00,M,M,M,M,M,M,M,M,77.00,KLGA 120551Z 20008KT 10SM FEW026 SCT034 BKN150 25/22 A2988 RMK AO2 SLP118 T02500217 10278 20250 58005
LGA,2012-08-12 06:51,-73.8803,40.7794,77.00,69.98,78.96,220.00,7.00,0.00,29.88,1011.60,10.00,M,SCT,SCT,BKN,BKN,2400.00,7000.00,9500.00,15000.00,M,M,M,M,M,M,M,77.00,KLGA 120651Z 22007KT 10SM SCT024 SCT070 BKN095 BKN150 25/21 A2988 RMK AO2 SLP116 T02500211
LGA,2012-08-12 07:49,-73.8803,40.7794,77.00,69.80,78.48,260.00,3.00,0.00,29.87,M,10.00,M,BKN,BKN,M,M,1900.00,15000.00,M,M,M,M,M,M,M,M,M,77.00,KLGA 120749Z 26003KT 10SM BKN019 BKN150 25/21 A2987 RMK AO2
LGA,2012-08-12 07:51,-73.8803,40.7794,77.00,69.98,78.96,0.00,0.00,0.00,29.87,1011.60,10.00,M,BKN,BKN,M,M,1900.00,15000.00,M,M,M,M,M,M,M,M,M,77.00,KLGA 120751Z 00000KT 10SM BKN019 BKN150 25/21 A2987 RMK AO2 SLP116 T02500211
LGA,2012-08-12 08:51,-73.8803,40.7794,75.92,69.98,81.85,280.00,6.00,0.00,29.89,1012.00,10.00,M,BKN,BKN,OVC,M,2200.00,5000.00,15000.00,M,M,M,M,M,M,M,M,75.92,KLGA 120851Z 28006KT 10SM BKN022 BKN050 OVC150 24/21 A2989 RMK AO2 SLP120 T02440211 53002
LGA,2012-08-12 09:48,-73.8803,40.7794,75.20,68.00,78.34,310.00,6.00,0.00,29.89,M,10.00,M,SCT,BKN,OVC,M,1900.00,3700.00,15000.00,M,M,M,M,M,M,M,M,75.20,KLGA 120948Z 31006KT 10SM SCT019 BKN037 OVC150 24/20 A2989 RMK AO2
LGA,2012-08-12 09:51,-73.8803,40.7794,75.92,68.00,76.48,310.00,5.00,0.00,29.90,1012.30,10.00,M,SCT,BKN,OVC,M,1900.00,3700.00,15000.00,M,M,M,M,M,M,M,M,75.92,KLGA 120951Z 31005KT 10SM SCT019 BKN037 OVC150 24/20 A2990 RMK AO2 SLP123 T02440200
LGA,2012-08-12 10:51,-73.8803,40.7794,75.92,62.96,64.17,320.00,5.00,0.00,29.91,1012.70,10.00,M,SCT,BKN,BKN,BKN,2900.00,5000.00,8000.00,24000.00,M,M,M,M,M,M,M,75.92,KLGA 121051Z 32005KT 10SM SCT029 BKN050 BKN080 BKN240 24/17 A2991 RMK AO2 SLP127 T02440172
LGA,2012-08-12 11:51,-73.8803,40.7794,77.00,60.98,57.73,300.00,7.00,0.00,29.93,1013.40,10.00,M,SCT,BKN,BKN,BKN,3300.00,5000.00,8000.00,23000.00,M,M,M,M,M,M,M,77.00,KLGA 121151Z 30007KT 10SM SCT033 BKN050 BKN080 BKN230 25/16 A2993 RMK AO2 SLP134 T02500161 10250 20239 53014
LGA,2012-08-12 12:51,-73.8803,40.7794,78.08,60.08,53.95,320.00,5.00,0.00,29.93,1013.30,10.00,M,FEW,SCT,SCT,BKN,3600.00,6000.00,8000.00,25000.00,M,M,M,M,M,M,M,78.08,KLGA 121251Z 32005KT 10SM FEW036 SCT060 SCT080 BKN250 26/16 A2993 RMK AO2 SLP133 T02560156
LGA,2012-08-12 13:51,-73.8803,40.7794,80.96,60.08,49.09,0.00,0.00,0.00,29.92,1013.20,10.00,M,FEW,SCT,SCT,M,4700.00,8000.00,25000.00,M,M,M,M,M,M,M,M,81.59,KLGA 121351Z 00000KT 10SM FEW047 SCT080 SCT250 27/16 A2992 RMK AO2 SLP132 T02720156
LGA,2012-08-12 14:51,-73.8803,40.7794,82.04,60.08,47.39,310.00,4.00,0.00,29.91,1012.90,10.00,M,FEW,SCT,SCT,SCT,4900.00,9000.00,20000.00,25000.00,M,M,M,M,M,M,M,82.43,KLGA 121451Z 31004KT 10SM FEW049 SCT090 SCT200 SCT250 28/16 A2991 RMK AO2 SLP129 T02780156 58005
LGA,2012-08-12 15:51,-73.8803,40.7794,84.02,60.98,45.90,310.00,5.00,0.00,29.90,1012.60,10.00,M,FEW,SCT,SCT,SCT,5000.00,9000.00,20000.00,25000.00,M,M,M,M,M,M,M,84.33,KLGA 121551Z 31005KT 10SM FEW050 SCT090 SCT200 SCT250 29/16 A2990 RMK AO2 SLP126 T02890161
LGA,2012-08-12 16:51,-73.8803,40.7794,86.00,60.08,41.71,240.00,7.00,0.00,29.90,1012.40,10.00,M,FEW,SCT,SCT,M,5500.00,20000.00,25000.00,M,M,M,M,M,M,M,M,85.81,KLGA 121651Z 24007KT 200V280 10SM FEW055TCU SCT200 SCT250 30/16 A2990 RMK AO2 SLP124 TCU E T03000156
LGA,2012-08-12 17:51,-73.8803,40.7794,87.08,60.98,41.61,220.00,11.00,0.00,29.90,1012.30,10.00,M,SCT,SCT,BKN,M,6000.00,20000.00,25000.00,M,M,M,M,M,M,M,M,87.13,KLGA 121751Z 22011KT 10SM SCT060 SCT200 BKN250 31/16 A2990 RMK AO2 SLP123 T03060161 10306 20244 56005
LGA,2012-08-12 18:51,-73.8803,40.7794,87.08,57.92,37.31,220.00,8.00,0.00,29.89,1012.00,10.00,17.00,SCT,SCT,BKN,M,7000.00,20000.00,25000.00,M,M,M,M,M,M,M,M,87.08,KLGA 121851Z 22008G17KT 10SM SCT070 SCT200 BKN250 31/14 A2989 RMK AO2 SLP120 T03060144
LGA,2012-08-12 19:51,-73.8803,40.7794,87.98,59.00,37.69,230.00,13.00,0.00,29.87,1011.60,10.00,18.00,SCT,SCT,BKN,BKN,6000.00,10000.00,20000.00,25000.00,M,M,M,M,M,M,M,87.98,KLGA 121951Z 23013G18KT 10SM SCT060 SCT100 BKN200 BKN250 31/15 A2987 RMK AO2 SLP116 T03110150
LGA,2012-08-12 20:51,-73.8803,40.7794,87.08,60.08,40.30,220.00,12.00,0.00,29.88,1011.90,10.00,18.00,SCT,BKN,BKN,BKN,6000.00,10000.00,20000.00,25000.00,M,M,M,M,M,M,M,86.80,KLGA 122051Z 22012G18KT 10SM SCT060TCU BKN100 BKN200 BKN250 31/16 A2988 RMK AO2 SLP119 TCU N-NE T03060156 55004
LGA,2012-08-12 21:51,-73.8803,40.7794,86.00,60.08,41.71,250.00,7.00,0.00,29.89,1012.10,10.00,20.00,SCT,SCT,BKN,BKN,6000.00,7000.00,10000.00,20000.00,M,M,M,M,M,M,M,85.81,KLGA 122151Z 25007G20KT 230V310 10SM SCT060TCU SCT070 BKN100 BKN200 BKN250 30/16 A2989 RMK AO2 SLP121 TCU N-NE T03000156
LGA,2012-08-12 22:51,-73.8803,40.7794,84.92,59.00,41.55,270.00,13.00,0.00,29.89,1012.20,10.00,M,SCT,BKN,M,M,6000.00,25000.00,M,M,M,M,M,M,M,M,M,84.52,KLGA 122251Z 27013KT 10SM SCT060 BKN250 29/15 A2989 RMK AO2 SLP122 T02940150
LGA,2012-08-12 23:51,-73.8803,40.7794,82.94,59.00,44.29,260.00,9.00,0.00,29.91,1012.70,10.00,16.00,FEW,SCT,BKN,M,6000.00,13000.00,25000.00,M,M,M,M,M,M,M,M,82.89,KLGA 122351Z 26009G16KT 10SM FEW060 SCT130 BKN250 28/15 A2991 RMK AO2 SLP127 T02830150 10311 20283 53008
LGA,2012-08-13 00:51,-73.8803,40.7794,82.04,59.00,45.60,260.00,11.00,0.00,29.92,1013.30,10.00,19.00,FEW,SCT,M,M,6000.00,25000.00,M,M,M,M,M,M,M,M,M,82.19,KLGA 130051Z 26011G19KT 10SM FEW060 SCT250 28/15 A2992 RMK AO2 SLP133 T02780150
LGA,2012-08-13 01:51,-73.8803,40.7794,80.96,60.08,49.09,250.00,7.00,0.00,29.94,1013.70,10.00,M,FEW,M,M,M,25000.00,M,M,M,M,M,M,M,M,M,M,81.59,KLGA 130151Z 25007KT 10SM FEW250 27/16 A2994 RMK AO2 SLP137 T02720156
LGA,2012-08-13 02:51,-73.8803,40.7794,78.98,60.98,54.08,290.00,7.00,0.00,29.94,1013.80,10.00,M,FEW,M,M,M,25000.00,M,M,M,M,M,M,M,M,M,M,78.98,KLGA 130251Z 29007KT 10SM FEW250 26/16 A2994 RMK AO2 SLP138 T02610161 51010
LGA,2012-08-13 03:51,-73.8803,40.7794,78.08,62.06,57.87,300.00,5.00,0.00,29.94,1013.80,10.00,M,FEW,M,M,M,25000.00,M,M,M,M,M,M,M,M,M,M,78.08,KLGA 130351Z 30005KT 10SM FEW250 26/17 A2994 RMK AO2 SLP138 T02560167
LGA,2012-08-13 04:51,-73.8803,40.7794,77.00,60.08,55.91,270.00,9.00,0.00,29.95,1014.00,10.00,M,FEW,M,M,M,25000.00,M,M,M,M,M,M,M,M,M,M,77.00,KLGA 130451Z 27009KT 10SM FEW250 25/16 A2995 RMK AO2 SLP140 T02500156 403110239
LGA,2012-08-13 05:51,-73.8803,40.7794,75.92,60.08,57.96,260.00,7.00,0.00,29.95,1014.10,10.00,M,CLR,M,M,M,M,M,M,M,M,M,M,M,M,M,M,75.92,KLGA 130551Z 26007KT 10SM CLR 24/16 A2995 RMK AO2 SLP141 T02440156 10283 20244 53003
LGA,2012-08-13 06:51,-73.8803,40.7794,75.02,60.98,61.66,290.00,7.00,0.00,29.95,1014.20,10.00,M,CLR,M,M,M,M,M,M,M,M,M,M,M,M,M,M,75.02,KLGA 130651Z 29007KT 10SM CLR 24/16 A2995 RMK AO2 SLP142 T02390161
LGA,2012-08-13 07:51,-73.8803,40.7794,73.94,60.98,63.94,310.00,8.00,0.00,29.95,1014.20,10.00,M,CLR,M,M,M,M,M,M,M,M,M,M,M,M,M,M,73.94,KLGA 130751Z 31008KT 10SM CLR 23/16 A2995 RMK AO2 SLP142 T02330161
LGA,2012-08-13 08:51,-73.8803,40.7794,73.04,60.98,65.90,300.00,6.00,0.00,29.96,1014.50,10.00,M,CLR,M,M,M,M,M,M,M,M,M,M,M,M,M,M,73.04,KLGA 130851Z 30006KT 10SM CLR 23/16 A2996 RMK AO2 SLP145 T02280161 53003
LGA,2012-08-13 09:51,-73.8803,40.7794,73.04,60.98,65.90,310.00,7.00,0.00,29.97,1014.80,10.00,M,FEW,M,M,M,25000.00,M,M,M,M,M,M,M,M,M,M,73.04,KLGA 130951Z 31007KT 10SM FEW250 23/16 A2997 RMK AO2 SLP148 T02280161
LGA,2012-08-13 10:51,-73.8803,40.7794,71.96,60.98,68.35,310.00,8.00,0.00,29.99,1015.40,10.00,M,FEW,M,M,M,25000.00,M,M,M,M,M,M,M,M,M,M,71.96,KLGA 131051Z 31008KT 10SM FEW250 22/16 A2999 RMK AO2 SLP154 T02220161
LGA,2012-08-13 11:51,-73.8803,40.7794,73.04,60.98,65.90,310.00,9.00,0.00,30.00,1016.00,10.00,M,FEW,M,M,M,25000.00,M,M,M,M,M,M,M,M,M,M,73.04,KLGA 131151Z 31009KT 10SM FEW250 23/16 A3000 RMK AO2 SLP160 T02280161 10244 20222 53015
LGA,2012-08-13 12:51,-73.8803,40.7794,75.02,60.98,61.66,310.00,7.00,0.00,30.00,1015.90,10.00,M,SCT,M,M,M,25000.00,M,M,M,M,M,M,M,M,M,M,75.02,KLGA 131251Z 31007KT 10SM SCT250 24/16 A3000 RMK AO2 SLP159 T02390161
LGA,2012-08-13 13:51,-73.8803,40.7794,77.00,60.98,57.73,330.00,6.00,0.00,30.00,1016.00,10.00,M,SCT,M,M,M,25000.00,M,M,M,M,M,M,M,M,M,M,77.00,KLGA 131351Z 33006KT 10SM SCT250 25/16 A3000 RMK AO2 SLP160 T02500161
LGA,2012-08-13 14:51,-73.8803,40.7794,78.08,60.98,55.70,320.00,8.00,0.00,29.99,1015.60,10.00,M,FEW,SCT,M,M,4500.00,25000.00,M,M,M,M,M,M,M,M,M,78.08,KLGA 131451Z 32008KT 10SM FEW045 SCT250 26/16 A2999 RMK AO2 SLP156 T02560161 58004
LGA,2012-08-13 15:51,-73.8803,40.7794,80.06,60.08,50.55,320.00,10.00,0.00,29.97,1014.90,10.00,M,FEW,BKN,M,M,4500.00,25000.00,M,M,M,M,M,M,M,M,M,80.91,KLGA 131551Z 32010KT 10SM FEW045 BKN250 27/16 A2997 RMK AO2 SLP149 T02670156
LGA,2012-08-13 16:51,-73.8803,40.7794,84.02,57.02,39.83,310.00,11.00,0.00,29.95,1014.20,10.00,15.00,FEW,BKN,M,M,5500.00,25000.00,M,M,M,M,M,M,M,M,M,84.02,KLGA 131651Z 31011G15KT 10SM FEW055 BKN250 29/14 A2995 RMK AO2 SLP142 T02890139
LGA,2012-08-13 17:51,-73.8803,40.7794,84.92,57.02,38.70,300.00,8.00,0.00,29.94,1013.70,10.00,17.00,FEW,SCT,M,M,7000.00,25000.00,M,M,M,M,M,M,M,M,M,84.92,KLGA 131751Z 30008G17KT 10SM FEW070 SCT250 29/14 A2994 RMK AO2 SLP137 T02940139 10294 20228 56019
LGA,2012-08-13 18:51,-73.8803,40.7794,84.02,57.02,39.83,330.00,7.00,0.00,29.93,1013.60,10.00,M,SCT,BKN,M,M,6500.00,25000.00,M,M,M,M,M,M,M,M,M,84.02,KLGA 131851Z 33007KT 10SM SCT065 BKN250 29/14 A2993 RMK AO2 SLP136 T02890139
LGA,2012-08-13 19:51,-73.8803,40.7794,84.02,57.02,39.83,340.00,9.00,0.00,29.93,1013.50,10.00,M,SCT,BKN,M,M,7000.00,25000.00,M,M,M,M,M,M,M,M,M,84.02,KLGA 131951Z 34009KT 10SM SCT070 BKN250 29/14 A2993 RMK AO2 SLP135 T02890139
LGA,2012-08-13 20:51,-73.8803,40.7794,84.92,57.02,38.70,330.00,10.00,0.00,29.93,1013.60,10.00,M,SCT,BKN,M,M,7000.00,25000.00,M,M,M,M,M,M,M,M,M,84.92,KLGA 132051Z 33010KT 10SM SCT070 BKN250 29/14 A2993 RMK AO2 SLP136 T02940139 55001
LGA,2012-08-13 21:51,-73.8803,40.7794,86.00,57.02,37.38,290.00,11.00,0.00,29.92,1013.30,10.00,M,SCT,BKN,M,M,7000.00,25000.00,M,M,M,M,M,M,M,M,M,86.00,KLGA 132151Z 29011KT 10SM SCT070 BKN250 30/14 A2992 RMK AO2 SLP133 T03000139
LGA,2012-08-13 22:51,-73.8803,40.7794,84.92,55.04,36.02,290.00,10.00,0.00,29.93,1013.40,10.00,M,SCT,SCT,M,M,7500.00,25000.00,M,M,M,M,M,M,M,M,M,84.92,KLGA 132251Z 29010KT 10SM SCT075 SCT250 29/13 A2993 RMK AO2 SLP134 T02940128
LGA,2012-08-13 23:51,-73.8803,40.7794,84.02,57.02,39.83,300.00,9.00,0.00,29.93,1013.50,10.00,M,SCT,SCT,M,M,7500.00,25000.00,M,M,M,M,M,M,M,M,M,84.02,KLGA 132351Z 30009KT 10SM SCT075 SCT250 29/14 A2993 RMK AO2 SLP135 T02890139 10306 20289 55001
LGA,2012-08-14 00:51,-73.8803,40.7794,82.94,57.02,41.25,260.00,7.00,0.00,29.94,1013.90,10.00,M,FEW,SCT,M,M,7000.00,25000.00,M,M,M,M,M,M,M,M,M,82.45,KLGA 140051Z 26007KT 10SM FEW070 SCT250 28/14 A2994 RMK AO2 SLP139 T02830139
LGA,2012-08-14 01:51,-73.8803,40.7794,82.04,55.94,40.84,250.00,8.00,0.00,29.96,1014.50,10.00,M,FEW,M,M,M,25000.00,M,M,M,M,M,M,M,M,M,M,81.58,KLGA 140151Z 25008KT 10SM FEW250 28/13 A2996 RMK AO2 SLP145 T02780133
LGA,2012-08-14 02:51,-73.8803,40.7794,82.04,55.94,40.84,260.00,8.00,0.00,29.96,1014.60,10.00,M,FEW,M,M,M,25000.00,M,M,M,M,M,M,M,M,M,M,81.58,KLGA 140251Z 26008KT 10SM FEW250 28/13 A2996 RMK AO2 SLP146 T02780133 51011
LGA,2012-08-14 03:51,-73.8803,40.7794,80.06,60.08,50.55,280.00,3.00,0.00,29.96,1014.40,10.00,M,FEW,M,M,M,25000.00,M,M,M,M,M,M,M,M,M,M,80.91,KLGA 140351Z 28003KT 10SM FEW250 27/16 A2996 RMK AO2 SLP144 T02670156
LGA,2012-08-14 04:51,-73.8803,40.7794,78.98,59.00,50.39,280.00,3.00,0.00,29.95,1014.30,10.00,M,CLR,M,M,M,M,M,M,M,M,M,M,M,M,M,M,78.98,KLGA 140451Z 28003KT 10SM CLR 26/15 A2995 RMK AO2 SLP143 T02610150 403060222
LGA,2012-08-14 05:51,-73.8803,40.7794,78.10,57.90,49.87,0.00,0.00,0.00,29.95,1014.20,10.00,M,CLR,M,M,M,M,M,M,M,M,M,M,M,M,M,M,78.10,KLGA 140551Z 00000KT 10SM CLR 26/14 A2995 RMK AO2 SLP142 T02560144 10289 20256 58004
LGA,2012-08-14 06:51,-73.8803,40.7794,77.00,61.00,57.77,220.00,8.00,0.00,29.95,1014.20,10.00,M,CLR,M,M,M,M,M,M,M,M,M,M,M,M,M,M,77.00,KLGA 140651Z 22008KT 10SM CLR 25/16 A2995 RMK AO2 SLP142 T02500161
LGA,2012-08-14 07:51,-73.8803,40.7794,77.00,60.10,55.95,210.00,5.00,0.00,29.94,1014.00,10.00,M,SCT,M,M,M,25000.00,M,M,M,M,M,M,M,M,M,M,77.00,KLGA 140751Z 21005KT 10SM SCT250 25/16 A2994 RMK AO2 SLP140 T02500156
LGA,2012-08-14 08:51,-73.8803,40.7794,77.00,59.00,53.80,250.00,4.00,0.00,29.95,1014.10,10.00,M,FEW,SCT,M,M,15000.00,25000.00,M,M,M,M,M,M,M,M,M,77.00,KLGA 140851Z 25004KT 10SM FEW150 SCT250 25/15 A2995 RMK AO2 SLP141 T02500150 55000
LGA,2012-08-14 09:51,-73.8803,40.7794,75.90,64.00,66.60,270.00,4.00,0.00,29.95,1014.20,10.00,M,BKN,BKN,M,M,15000.00,25000.00,M,M,M,M,M,M,M,M,M,75.90,KLGA 140951Z 27004KT 10SM BKN150 BKN250 24/18 A2995 RMK AO2 SLP142 T02440178
LGA,2012-08-14 10:51,-73.8803,40.7794,77.00,64.00,64.21,0.00,0.00,0.00,29.95,1014.30,10.00,M,BKN,BKN,M,M,17000.00,25000.00,M,M,M,M,M,M,M,M,M,77.00,KLGA 141051Z 00000KT 10SM BKN170 BKN250 25/18 A2995 RMK AO2 SLP143 T02500178
LGA,2012-08-14 11:51,-73.8803,40.7794,78.10,64.00,61.92,40.00,4.00,0.00,29.96,1014.40,10.00,M,BKN,BKN,M,M,17000.00,25000.00,M,M,M,M,M,M,M,M,M,78.10,KLGA 141151Z 04004KT 10SM BKN170 BKN250 26/18 A2996 RMK AO2 SLP144 T02560178 10261 20244 51003
LGA,2012-08-14 12:51,-73.8803,40.7794,78.10,64.90,63.90,50.00,5.00,0.00,29.95,1014.10,10.00,M,FEW,SCT,BKN,OVC,4200.00,10000.00,17000.00,25000.00,M,M,M,M,M,M,M,78.10,KLGA 141251Z 05005KT 10SM FEW042 SCT100 BKN170 OVC250 26/18 A2995 RMK AO2 SLP141 T02560183
LGA,2012-08-14 13:51,-73.8803,40.7794,78.10,64.90,63.90,40.00,6.00,0.00,29.95,1014.30,10.00,M,FEW,SCT,OVC,M,4500.00,10000.00,15000.00,M,M,M,M,M,M,M,M,78.10,KLGA 141351Z 04006KT 10SM FEW045 SCT100 OVC150 26/18 A2995 RMK AO2 SLP143 T02560183
LGA,2012-08-14 14:51,-73.8803,40.7794,79.00,66.00,64.45,60.00,7.00,0.00,29.96,1014.50,10.00,M,FEW,SCT,BKN,OVC,2700.00,9500.00,16000.00,23000.00,M,M,M,M,M,M,M,79.00,KLGA 141451Z 06007KT 10SM FEW027 SCT095 BKN160 OVC230 26/19 A2996 RMK AO2 SLP145 T02610189 53002
LGA,2012-08-14 15:51,-73.8803,40.7794,79.00,66.90,66.49,20.00,7.00,0.00,29.95,1014.20,10.00,M,FEW,SCT,SCT,BKN,2800.00,4300.00,7000.00,16000.00,M,M,M,M,M,M,M,79.00,KLGA 141551Z 02007KT 10SM FEW028 SCT043 SCT070 BKN160 OVC250 26/19 A2995 RMK AO2 SLP142 T02610194
LGA,2012-08-14 16:51,-73.8803,40.7794,75.90,69.10,79.47,M,4.00,0.05,29.95,1014.00,9.00,M,SCT,BKN,BKN,OVC,3300.00,5500.00,16000.00,25000.00,-RA,M,M,M,M,M,M,75.90,KLGA 141651Z VRB04KT 9SM -RA SCT033 BKN055 BKN160 OVC250 24/21 A2995 RMK AO2 RAB09 SLP140 P0005 T02440206
LGA,2012-08-14 17:51,-73.8803,40.7794,78.10,68.00,71.14,320.00,3.00,0.00,29.94,1013.70,10.00,M,FEW,BKN,BKN,OVC,2700.00,3500.00,12000.00,16000.00,M,M,M,M,M,M,M,78.10,KLGA 141751Z 32003KT 10SM FEW027 BKN035 BKN120 OVC160 26/20 A2994 RMK AO2 RAE01B29E38 SLP137 VCSH E-S P0000 60005 T02560200 10278 20239 56008
LGA,2012-08-14 18:51,-73.8803,40.7794,79.00,66.00,64.45,190.00,12.00,0.00,29.93,1013.50,10.00,M,SCT,SCT,BKN,BKN,2800.00,4800.00,11000.00,25000.00,M,M,M,M,M,M,M,79.00,KLGA 141851Z 19012KT 10SM SCT028 SCT048 BKN110 BKN250 26/19 A2993 RMK AO2 RAB24E34 SLP135 P0000 T02610189
LGA,2012-08-14 19:51,-73.8803,40.7794,79.00,64.90,62.03,160.00,9.00,0.00,29.91,1012.70,10.00,M,FEW,BKN,BKN,BKN,3000.00,8000.00,12000.00,25000.00,M,M,M,M,M,M,M,79.00,KLGA 141951Z 16009KT 10SM FEW030CB BKN080 BKN120 BKN250 26/18 A2991 RMK AO2 SLP127 CB SE-S MOV NE T02610183
LGA,2012-08-14 20:51,-73.8803,40.7794,79.00,68.00,69.07,160.00,12.00,0.00,29.91,1012.80,10.00,M,FEW,BKN,OVC,M,2500.00,8000.00,13000.00,M,M,M,M,M,M,M,M,79.00,KLGA 142051Z 16012KT 10SM FEW025 BKN080 OVC130 26/20 A2991 RMK AO2 SLP128 VCSH N 60000 T02610200 55009
LGA,2012-08-14 21:51,-73.8803,40.7794,79.00,69.10,71.72,170.00,9.00,0.00,29.89,1012.00,10.00,M,SCT,BKN,BKN,BKN,2400.00,10000.00,12000.00,25000.00,M,M,M,M,M,M,M,79.00,KLGA 142151Z 17009KT 10SM SCT024 BKN100 BKN120 BKN250 26/21 A2989 RMK AO2 SLP120 T02610206
LGA,2012-08-14 22:51,-73.8803,40.7794,79.00,69.10,71.72,190.00,11.00,0.00,29.89,1012.20,10.00,16.00,SCT,BKN,BKN,BKN,2300.00,6000.00,12000.00,20000.00,M,M,M,M,M,M,M,79.00,KLGA 142251Z 19011G16KT 10SM SCT023 BKN060 BKN120 BKN200 26/21 A2989 RMK AO2 SLP122 T02610206
LGA,2012-08-14 23:51,-73.8803,40.7794,78.10,69.10,73.88,170.00,8.00,0.00,29.89,1012.00,10.00,M,SCT,SCT,BKN,M,2300.00,12000.00,20000.00,M,M,M,M,M,M,M,M,78.10,KLGA 142351Z 17008KT 10SM SCT023 SCT120 BKN200 26/21 A2989 RMK AO2 SLP120 60000 T02560206 10267 20256 56008
LGA,2012-08-15 00:51,-73.8803,40.7794,78.10,70.00,76.19,180.00,7.00,0.00,29.88,1011.80,10.00,M,BKN,BKN,BKN,M,2700.00,7000.00,20000.00,M,M,M,M,M,M,M,M,78.10,KLGA 150051Z 18007KT 10SM BKN027 BKN070 BKN200 26/21 A2988 RMK AO2 SLP118 T02560211
LGA,2012-08-15 01:51,-73.8803,40.7794,78.10,71.10,79.10,170.00,6.00,0.00,29.89,1012.20,10.00,M,BKN,BKN,BKN,M,2100.00,3000.00,25000.00,M,M,M,M,M,M,M,M,78.10,KLGA 150151Z 17006KT 10SM BKN021 BKN030 BKN250 26/22 A2989 RMK AO2 SLP122 T02560217
LGA,2012-08-15 02:51,-73.8803,40.7794,78.10,72.00,81.55,190.00,5.00,0.00,29.89,1012.10,10.00,M,BKN,BKN,M,M,2100.00,3000.00,M,M,M,M,M,M,M,M,M,78.10,KLGA 150251Z 19005KT 10SM BKN021 BKN030 26/22 A2989 RMK AO2 SLP121 T02560222 53001
LGA,2012-08-15 03:41,-73.8803,40.7794,78.80,73.40,83.55,190.00,5.00,0.00,29.90,M,10.00,M,SCT,SCT,BKN,M,1600.00,2500.00,25000.00,M,M,M,M,M,M,M,M,78.80,KLGA 150341Z 19005KT 10SM SCT016 SCT025 BKN250 26/23 A2990 RMK AO2
LGA,2012-08-15 03:51,-73.8803,40.7794,78.10,72.00,81.55,190.00,6.00,0.00,29.90,1012.40,10.00,M,SCT,BKN,M,M,1600.00,25000.00,M,M,M,M,M,M,M,M,M,78.10,KLGA 150351Z 19006KT 10SM SCT016 BKN250 26/22 A2990 RMK AO2 SLP124 T02560222
LGA,2012-08-15 04:51,-73.8803,40.7794,78.10,72.00,81.55,180.00,5.00,0.00,29.88,1011.80,10.00,M,FEW,SCT,BKN,M,2000.00,4000.00,17000.00,M,M,M,M,M,M,M,M,78.10,KLGA 150451Z 18005KT 10SM FEW020 SCT040 BKN170 26/22 A2988 RMK AO2 SLP118 FRQ LTGICCC DSNT E CB DSNT E T02560222 402780239
LGA,2012-08-15 05:36,-73.8803,40.7794,78.80,71.60,78.62,180.00,4.00,0.00,29.87,M,10.00,M,BKN,BKN,OVC,M,1800.00,2400.00,4800.00,M,M,M,M,M,M,M,M,78.80,KLGA 150536Z 18004KT 10SM BKN018 BKN024 OVC048 26/22 A2987 RMK AO2
LGA,2012-08-15 05:51,-73.8803,40.7794,78.08,71.96,81.50,170.00,5.00,0.00,29.86,1011.20,10.00,M,BKN,BKN,OVC,M,1800.00,2400.00,4800.00,M,M,M,M,M,M,M,M,78.08,KLGA 150551Z 17005KT 10SM BKN018 BKN024 OVC048 26/22 A2986 RMK AO2 SLP112 T02560222 10267 20250 58010
LGA,2012-08-15 06:46,-73.8803,40.7794,77.00,71.60,83.44,180.00,6.00,0.00,29.84,M,10.00,M,FEW,SCT,SCT,BKN,1700.00,2200.00,2700.00,25000.00,M,M,M,M,M,M,M,77.00,KLGA 150646Z 18006KT 10SM FEW017 SCT022 SCT027 BKN250 25/22 A2984 RMK AO2
LGA,2012-08-15 06:51,-73.8803,40.7794,77.00,71.96,84.46,180.00,7.00,0.00,29.84,1010.50,10.00,M,FEW,SCT,SCT,BKN,1700.00,2200.00,15000.00,25000.00,M,M,M,M,M,M,M,77.00,KLGA 150651Z 18007KT 10SM FEW017 SCT022 SCT150 BKN250 25/22 A2984 RMK AO2 SLP105 T02500222
LGA,2012-08-15 07:51,-73.8803,40.7794,77.00,71.96,84.46,170.00,5.00,0.00,29.82,1009.80,10.00,M,SCT,SCT,BKN,M,1500.00,15000.00,25000.00,M,M,M,M,M,M,M,M,77.00,KLGA 150751Z 17005KT 10SM SCT015 SCT150 BKN250 25/22 A2982 RMK AO2 SLP098 T02500222
LGA,2012-08-15 08:51,-73.8803,40.7794,77.00,71.96,84.46,210.00,5.00,0.00,29.83,1010.00,10.00,M,FEW,SCT,BKN,BKN,1500.00,2100.00,3200.00,15000.00,M,M,M,M,M,M,M,77.00,KLGA 150851Z 21005KT 10SM FEW015 SCT021 BKN032 BKN150 25/22 A2983 RMK AO2 SLP100 T02500222 55006
LGA,2012-08-15 09:51,-73.8803,40.7794,77.00,69.98,78.96,320.00,4.00,0.00,29.84,1010.40,10.00,M,FEW,SCT,SCT,M,1700.00,2300.00,13000.00,M,M,M,M,M,M,M,M,77.00,KLGA 150951Z 32004KT 10SM FEW017 SCT023 SCT130 25/21 A2984 RMK AO2 RAB07E16 SLP104 P0000 T02500211
LGA,2012-08-15 10:51,-73.8803,40.7794,75.92,69.98,81.85,320.00,4.00,0.00,29.84,1010.40,10.00,M,FEW,SCT,SCT,BKN,2400.00,6000.00,14000.00,25000.00,M,M,M,M,M,M,M,75.92,KLGA 151051Z 32004KT 10SM FEW024 SCT060 SCT140 BKN250 24/21 A2984 RMK AO2 SLP104 T02440211
LGA,2012-08-15 11:37,-73.8803,40.7794,75.20,69.80,83.32,40.00,10.00,0.00,29.86,M,9.00,M,FEW,BKN,OVC,M,1400.00,1800.00,3300.00,M,M,M,M,M,M,M,M,75.20,KLGA 151137Z 04010KT 9SM FEW014 BKN018 OVC033 24/21 A2986 RMK AO2
LGA,2012-08-15 11:51,-73.8803,40.7794,75.02,69.08,81.79,50.00,11.00,0.00,29.86,1011.20,10.00,M,FEW,SCT,SCT,BKN,1400.00,2000.00,3300.00,14000.00,M,M,M,M,M,M,M,75.02,KLGA 151151Z 05011KT 10SM FEW014 SCT020 SCT033 BKN140 24/21 A2986 RMK AO2 SLP112 60000 70005 T02390206 10256 20239 53011
LGA,2012-08-15 12:51,-73.8803,40.7794,75.02,68.00,78.81,50.00,11.00,0.00,29.87,1011.30,10.00,21.00,FEW,BKN,BKN,M,2200.00,9000.00,16000.00,M,M,M,M,M,M,M,M,75.02,KLGA 151251Z 05011G21KT 10SM FEW022 BKN090 BKN160 24/20 A2987 RMK AO2 SLP113 T02390200
LGA,2012-08-15 13:51,-73.8803,40.7794,75.92,69.08,79.37,50.00,7.00,0.00,29.87,1011.40,10.00,M,FEW,SCT,SCT,BKN,2300.00,4000.00,9000.00,25000.00,M,M,M,M,M,M,M,75.92,KLGA 151351Z 05007KT 10SM FEW023 SCT040 SCT090 BKN250 24/21 A2987 RMK AO2 SLP114 T02440206
LGA,2012-08-15 14:51,-73.8803,40.7794,77.00,69.08,76.57,50.00,9.00,0.00,29.87,1011.40,10.00,M,FEW,SCT,M,M,4000.00,9000.00,M,M,M,M,M,M,M,M,M,77.00,KLGA 151451Z 05009KT 10SM FEW040CB SCT090 25/21 A2987 RMK AO2 SLP114 CB SE MOV E TCU E T02500206 50002
LGA,2012-08-15 15:51,-73.8803,40.7794,78.08,71.06,79.05,50.00,14.00,0.00,29.87,1011.50,10.00,M,SCT,SCT,M,M,3500.00,9000.00,M,M,M,M,M,M,M,M,M,78.08,KLGA 151551Z 05014KT 10SM SCT035CB SCT090 26/22 A2987 RMK AO2 SLP115 CB E-SE STNRY TCU SW VCSH SW T02560217
LGA,2012-08-15 16:51,-73.8803,40.7794,77.00,66.92,71.08,50.00,9.00,0.00,29.86,1011.10,10.00,M,FEW,BKN,M,M,2400.00,3300.00,M,M,M,M,M,M,M,M,M,77.00,KLGA 151651Z 05009KT 10SM FEW024 BKN033TCU 25/19 A2986 RMK AO2 SLP111 TCU SE T02500194
LGA,2012-08-15 17:15,-73.8803,40.7794,77.00,68.00,73.78,80.00,9.00,0.00,29.86,M,10.00,M,BKN,OVC,M,M,3600.00,10000.00,M,M,-TSRA,M,M,M,M,M,M,77.00,KLGA 151715Z 08009KT 10SM -TSRA BKN036CB OVC100 25/20 A2986 RMK AO2 TSB13RAB04 OCNL LTGIC OHD AND E-S-SW TS OHD AND E-S-SW MOV E P0000
LGA,2012-08-15 17:51,-73.8803,40.7794,73.04,66.92,81.14,170.00,9.00,0.05,29.88,1011.70,3.00,M,BKN,OVC,M,M,3600.00,10000.00,M,M,+TSRA,M,M,M,M,M,M,73.04,KLGA 151751Z 17009KT 3SM R04/4500VP6000FT +TSRA BKN036CB OVC100 23/19 A2988 RMK AO2 TSB13RAB04 SLP117 OCNL LTGIC OHD TS OHD MOV E VIS 2 NW-NE P0005 60005 T02280194 10261 20228 53003
LGA,2012-08-15 18:32,-73.8803,40.7794,73.40,69.80,88.51,60.00,9.00,0.26,29.85,M,9.00,M,SCT,BKN,BKN,M,3600.00,4900.00,6500.00,M,M,M,M,M,M,M,M,73.40,KLGA 151832Z 06009KT 9SM SCT036CB BKN049 BKN065 23/21 A2985 RMK AO2 TSE28RAE17 CB N-SE MOV NE VCSH N-SE P0026
LGA,2012-08-15 18:51,-73.8803,40.7794,75.02,69.98,84.34,60.00,8.00,0.26,29.84,1010.50,10.00,M,SCT,SCT,BKN,BKN,3600.00,6500.00,11000.00,25000.00,-RA,M,M,M,M,M,M,75.02,KLGA 151851Z 06008KT 10SM -RA SCT036CB SCT065 BKN110 BKN250 24/21 A2984 RMK AO2 TSE28RAE17B51 SLP105 CB NW MOV NE P0026 T02390211
LGA,2012-08-15 19:26,-73.8803,40.7794,73.40,69.80,88.51,70.00,7.00,0.00,29.85,M,10.00,M,SCT,BKN,BKN,BKN,3600.00,5500.00,10000.00,25000.00,-TSRA,M,M,M,M,M,M,73.40,KLGA 151926Z 07007KT 10SM -TSRA SCT036CB BKN055 BKN100 BKN250 23/21 A2985 RMK AO2 TSB26 OCNL LTGIC SW TS SW MOV E P0000
LGA,2012-08-15 19:51,-73.8803,40.7794,73.94,71.06,90.73,60.00,4.00,0.01,29.86,1011.10,8.00,M,SCT,BKN,BKN,OVC,3400.00,5500.00,10000.00,25000.00,-TSRA,M,M,M,M,M,M,73.94,KLGA 151951Z 06004KT 8SM -TSRA SCT034CB BKN055 BKN100 OVC250 23/22 A2986 RMK AO2 TSB26 PRESRR SLP111 FRQ LTGCGIC S-SW TS S-SW MOV E P0001 T02330217
LGA,2012-08-15 20:05,-73.8803,40.7794,71.60,68.00,88.43,190.00,21.00,0.00,29.86,M,2.00,27.00,FEW,BKN,OVC,M,2000.00,3400.00,10000.00,M,+TSRA BR,M,M,M,27.00,190.00,2012-08-15 20:05,71.60,KLGA 152005Z 19021G27KT 2SM R04/5000VP6000FT +TSRA BR FEW020 BKN034CB OVC100 22/20 A2986 RMK AO2 PK WND 19027/2005 FRQ LTGCGIC OHD TS OHD MOV NE P0000
LGA,2012-08-15 20:17,-73.8803,40.7794,71.60,66.20,83.09,140.00,15.00,0.08,29.85,M,3.00,27.00,SCT,BKN,OVC,M,1500.00,3400.00,10000.00,M,TSRA BR,M,M,M,27.00,150.00,2012-08-15 20:14,71.60,KLGA 152017Z 14015G27KT 3SM R04/2200VP6000FT TSRA BR SCT015 BKN034CB OVC100 22/19 A2985 RMK AO2 PK WND 15027/2014 WSHFT 2001 FRQ LTGCGIC OHD TS OHD MOV NE P0008 $
LGA,2012-08-15 20:51,-73.8803,40.7794,71.06,66.02,84.10,0.00,0.00,0.11,29.83,1010.10,10.00,M,SCT,BKN,BKN,BKN,3400.00,6000.00,10000.00,25000.00,-TSRA,M,M,M,27.00,150.00,2012-08-15 20:14,71.06,KLGA 152051Z 00000KT 10SM -TSRA SCT034CB BKN060 BKN100 BKN250 22/19 A2983 RMK AO2 PK WND 15027/2014 WSHFT 2001 SLP101 OCNL LTGCGIC W-NW TS W-NW MOV NE P0011 60038 T02170189 56016
LGA,2012-08-15 21:15,-73.8803,40.7794,73.40,66.20,78.19,340.00,7.00,0.00,29.84,M,10.00,M,SCT,SCT,BKN,BKN,3400.00,6000.00,10000.00,25000.00,M,M,M,M,M,M,M,73.40,KLGA 152115Z 34007KT 10SM SCT034CB SCT060 BKN100 BKN250 23/19 A2984 RMK AO2 TSE10RAE10 CB W-NW MOV NE P0000
LGA,2012-08-15 21:51,-73.8803,40.7794,73.94,68.00,81.71,320.00,8.00,0.00,29.86,1011.00,10.00,M,FEW,SCT,BKN,BKN,2000.00,2900.00,8500.00,25000.00,M,M,M,M,M,M,M,73.94,KLGA 152151Z 32008KT 10SM FEW020 SCT029CB BKN085 BKN250 23/20 A2986 RMK AO2 TSE10RAE10 SLP110 CB W-NW MOV E P0000 T02330200
LGA,2012-08-15 22:30,-73.8803,40.7794,73.40,66.20,78.19,350.00,8.00,0.00,29.85,M,8.00,M,BKN,BKN,OVC,M,3000.00,7000.00,8500.00,M,-TSRA,M,M,M,M,M,M,73.40,KLGA 152230Z 35008KT 8SM -TSRA BKN030CB BKN070 OVC085 23/19 A2985 RMK AO2 TSB26RAB26 VIS 2 SW-N FRQ LTGCGICCA OHD TS OHD MOV E P0000
LGA,2012-08-15 22:51,-73.8803,40.7794,71.06,66.02,84.10,M,3.00,0.12,29.84,1010.30,4.00,M,BKN,BKN,BKN,OVC,3000.00,7000.00,11000.00,25000.00,TSRA,M,M,M,M,M,M,71.06,KLGA 152251Z VRB03KT 4SM TSRA BKN030CB BKN070 BKN110 OVC250 22/19 A2984 RMK AO2 TSB26RAB26 SLP103 OCNL LTGCGICCA OHD TS OHD MOV E P0012 T02170189
LGA,2012-08-15 23:20,-73.8803,40.7794,71.60,66.20,83.09,250.00,5.00,0.02,29.86,M,6.00,M,FEW,SCT,BKN,BKN,3000.00,6500.00,11000.00,25000.00,-RA BR,M,M,M,M,M,M,71.60,KLGA 152320Z 25005KT 6SM -RA BR FEW030 SCT065 BKN110 BKN250 22/19 A2986 RMK AO2 TSE14 P0002
LGA,2012-08-15 23:51,-73.8803,40.7794,71.96,64.94,78.57,190.00,3.00,0.05,29.86,1011.00,8.00,M,FEW,SCT,BKN,BKN,3000.00,6000.00,11000.00,25000.00,-RA,M,M,M,M,M,M,71.96,KLGA 152351Z 19003KT 8SM -RA FEW030 SCT060 BKN110 BKN250 22/18 A2986 RMK AO2 TSE14 SLP110 P0005 60055 T02220183 10244 20211 51009
LGA,2012-08-16 00:51,-73.8803,40.7794,71.06,66.02,84.10,0.00,0.00,0.02,29.85,1010.80,10.00,M,FEW,SCT,BKN,BKN,3000.00,8000.00,14000.00,20000.00,M,M,M,M,M,M,M,71.06,KLGA 160051Z 00000KT 10SM FEW030 SCT080 BKN140 BKN200 22/19 A2985 RMK AO2 RAE39 SLP108 OCNL LTGIC DSNT NW CB DSNT NW P0002 T02170189
LGA,2012-08-16 01:51,-73.8803,40.7794,71.96,68.00,87.35,310.00,8.00,0.00,29.85,1010.80,10.00,M,FEW,BKN,BKN,M,2000.00,15000.00,25000.00,M,M,M,M,M,M,M,M,71.96,KLGA 160151Z 31008KT 10SM FEW020 BKN150 BKN250 22/20 A2985 RMK AO2 SLP108 T02220200
LGA,2012-08-16 02:51,-73.8803,40.7794,71.06,68.00,90.06,340.00,5.00,0.00,29.85,1010.80,10.00,M,BKN,M,M,M,22000.00,M,M,M,M,M,M,M,M,M,M,71.06,KLGA 160251Z 34005KT 10SM BKN220 22/20 A2985 RMK AO2 SLP108 60002 T02170200 56002
LGA,2012-08-16 03:51,-73.8803,40.7794,71.06,69.08,93.47,0.00,0.00,0.00,29.86,1011.10,6.00,M,FEW,M,M,M,1900.00,M,M,M,BR,M,M,M,M,M,M,71.06,KLGA 160351Z 00000KT 6SM BR FEW019 22/21 A2986 RMK AO2 SLP111 T02170206
LGA,2012-08-16 04:16,-73.8803,40.7794,71.60,69.80,94.06,0.00,0.00,0.00,29.86,M,6.00,M,SCT,M,M,M,700.00,M,M,M,BR,M,M,M,M,M,M,71.60,KLGA 160416Z 00000KT 6SM BR SCT007 22/21 A2986 RMK AO2
LGA,2012-08-16 04:51,-73.8803,40.7794,71.06,69.08,93.47,0.00,0.00,0.00,29.87,1011.40,4.00,M,FEW,M,M,M,700.00,M,M,M,BR,M,M,M,M,M,M,71.06,KLGA 160451Z 00000KT 4SM BR FEW007 22/21 A2987 RMK AO2 SLP114 T02170206 402610211
LGA,2012-08-16 05:51,-73.8803,40.7794,69.98,69.08,96.97,280.00,3.00,0.00,29.86,1011.00,3.00,M,FEW,SCT,M,M,700.00,1900.00,M,M,BR,M,M,M,M,M,M,69.98,KLGA 160551Z 28003KT 3SM BR FEW007 SCT019 21/21 A2986 RMK AO2 SLP110 60002 T02110206 10233 20211 50002
LGA,2012-08-16 06:51,-73.8803,40.7794,71.06,68.00,90.06,0.00,0.00,0.00,29.86,1011.20,6.00,M,FEW,SCT,M,M,700.00,16000.00,M,M,BR,M,M,M,M,M,M,71.06,KLGA 160651Z 00000KT 6SM BR FEW007 SCT160 22/20 A2986 RMK AO2 SLP112 T02170200
LGA,2012-08-16 07:51,-73.8803,40.7794,71.06,68.00,90.06,0.00,0.00,0.00,29.86,1011.00,6.00,M,CLR,M,M,M,M,M,M,M,BR,M,M,M,M,M,M,71.06,KLGA 160751Z 00000KT 6SM BR CLR 22/20 A2986 RMK AO2 SLP110 T02170200
LGA,2012-08-16 08:51,-73.8803,40.7794,71.06,66.92,86.77,300.00,6.00,0.00,29.86,1011.20,10.00,M,CLR,M,M,M,M,M,M,M,M,M,M,M,M,M,M,71.06,KLGA 160851Z 30006KT 10SM CLR 22/19 A2986 RMK AO2 SLP112 T02170194 53002
LGA,2012-08-16 09:51,-73.8803,40.7794,69.98,66.02,87.26,290.00,4.00,0.00,29.88,1011.80,10.00,M,FEW,M,M,M,14000.00,M,M,M,M,M,M,M,M,M,M,69.98,KLGA 160951Z 29004KT 10SM FEW140 21/19 A2988 RMK AO2 SLP118 T02110189
LGA,2012-08-16 10:51,-73.8803,40.7794,71.06,64.94,81.00,300.00,8.00,0.00,29.89,1012.10,10.00,M,FEW,M,M,M,14000.00,M,M,M,M,M,M,M,M,M,M,71.06,KLGA 161051Z 30008KT 10SM FEW140 22/18 A2989 RMK AO2 SLP121 T02170183
LGA,2012-08-16 11:51,-73.8803,40.7794,71.96,62.96,73.30,310.00,10.00,0.00,29.90,1012.60,10.00,M,FEW,M,M,M,7500.00,M,M,M,M,M,M,M,M,M,M,71.96,KLGA 161151Z 31010KT 10SM FEW075 22/17 A2990 RMK AO2 SLP126 70062 T02220172 10222 20211 51014
LGA,2012-08-16 12:51,-73.8803,40.7794,73.04,62.96,70.68,310.00,7.00,0.00,29.91,1012.70,10.00,M,CLR,M,M,M,M,M,M,M,M,M,M,M,M,M,M,73.04,KLGA 161251Z 31007KT 10SM CLR 23/17 A2991 RMK AO2 SLP127 T02280172
LGA,2012-08-16 13:51,-73.8803,40.7794,75.02,64.04,68.69,330.00,8.00,0.00,29.91,1012.70,10.00,M,CLR,M,M,M,M,M,M,M,M,M,M,M,M,M,M,75.02,KLGA 161351Z 33008KT 10SM CLR 24/18 A2991 RMK AO2 SLP127 T02390178
LGA,2012-08-16 14:51,-73.8803,40.7794,77.00,64.94,66.36,330.00,9.00,0.00,29.90,1012.60,10.00,M,FEW,M,M,M,5000.00,M,M,M,M,M,M,M,M,M,M,77.00,KLGA 161451Z 33009KT 10SM FEW050 25/18 A2990 RMK AO2 SLP126 T02500183 58000
LGA,2012-08-16 15:51,-73.8803,40.7794,80.06,64.04,58.14,340.00,8.00,0.00,29.89,1012.20,10.00,16.00,FEW,M,M,M,5000.00,M,M,M,M,M,M,M,M,M,M,81.68,KLGA 161551Z 34008G16KT 10SM FEW050 27/18 A2989 RMK AO2 SLP122 T02670178
LGA,2012-08-16 16:51,-73.8803,40.7794,80.96,62.06,52.66,330.00,8.00,0.00,29.88,1011.80,10.00,M,SCT,M,M,M,4200.00,M,M,M,M,M,M,M,M,M,M,82.02,KLGA 161651Z 33008KT 10SM SCT042 27/17 A2988 RMK AO2 SLP118 T02720167
LGA,2012-08-16 17:51,-73.8803,40.7794,82.94,60.98,47.52,310.00,8.00,0.00,29.87,1011.50,10.00,M,FEW,M,M,M,5000.00,M,M,M,M,M,M,M,M,M,M,83.40,KLGA 161751Z 31008KT 10SM FEW050 28/16 A2987 RMK AO2 SLP115 T02830161 10283 20222 56011
LGA,2012-08-16 18:51,-73.8803,40.7794,84.02,59.00,42.77,310.00,11.00,0.00,29.87,1011.50,10.00,M,SCT,M,M,M,6000.00,M,M,M,M,M,M,M,M,M,M,83.77,KLGA 161851Z 31011KT 10SM SCT060 29/15 A2987 RMK AO2 SLP115 T02890150
LGA,2012-08-16 19:51,-73.8803,40.7794,84.92,59.00,41.55,310.00,11.00,0.00,29.87,1011.30,10.00,M,SCT,M,M,M,6000.00,M,M,M,M,M,M,M,M,M,M,84.52,KLGA 161951Z 31011KT 10SM SCT060 29/15 A2987 RMK AO2 SLP113 T02940150
LGA,2012-08-16 20:51,-73.8803,40.7794,84.02,55.94,38.31,320.00,5.00,0.00,29.85,1010.90,10.00,M,SCT,M,M,M,6500.00,M,M,M,M,M,M,M,M,M,M,84.02,KLGA 162051Z 32005KT 10SM SCT065 29/13 A2985 RMK AO2 SLP109 T02890133 58006
LGA,2012-08-16 21:51,-73.8803,40.7794,84.92,57.02,38.70,260.00,11.00,0.00,29.85,1010.80,10.00,M,SCT,BKN,M,M,6500.00,9000.00,M,M,M,M,M,M,M,M,M,84.92,KLGA 162151Z 26011KT 10SM SCT065 BKN090 29/14 A2985 RMK AO2 CIG 065 R22 SW SLP108 T02940139
LGA,2012-08-16 22:51,-73.8803,40.7794,84.02,55.94,38.31,290.00,10.00,0.00,29.85,1010.90,10.00,M,FEW,SCT,M,M,6000.00,9000.00,M,M,M,M,M,M,M,M,M,84.02,KLGA 162251Z 29010KT 10SM FEW060 SCT090 29/13 A2985 RMK AO2 SLP109 T02890133
LGA,2012-08-16 23:51,-73.8803,40.7794,82.94,55.94,39.67,290.00,6.00,0.00,29.85,1010.70,10.00,M,FEW,M,M,M,6000.00,M,M,M,M,M,M,M,M,M,M,82.94,KLGA 162351Z 29006KT 10SM FEW060 28/13 A2985 RMK AO2 SLP107 T02830133 10300 20278 58002
LGA,2012-08-17 00:51,-73.8803,40.7794,82.04,57.02,42.47,280.00,4.00,0.00,29.86,1011.20,10.00,M,FEW,M,M,M,25000.00,M,M,M,M,M,M,M,M,M,M,81.78,KLGA 170051Z 28004KT 10SM FEW250 28/14 A2986 RMK AO2 SLP112 T02780139
LGA,2012-08-17 01:51,-73.8803,40.7794,80.96,57.02,43.99,250.00,7.00,0.00,29.86,1011.30,10.00,M,FEW,M,M,M,25000.00,M,M,M,M,M,M,M,M,M,M,81.02,KLGA 170151Z 25007KT 10SM FEW250 27/14 A2986 RMK AO2 SLP113 T02720139
LGA,2012-08-17 02:51,-73.8803,40.7794,80.06,59.00,48.64,270.00,5.00,0.00,29.87,1011.60,10.00,M,FEW,M,M,M,25000.00,M,M,M,M,M,M,M,M,M,M,80.73,KLGA 170251Z 27005KT 10SM FEW250 27/15 A2987 RMK AO2 SLP116 T02670150 51009
LGA,2012-08-17 03:51,-73.8803,40.7794,78.98,59.00,50.39,270.00,6.00,0.00,29.88,1011.90,10.00,M,FEW,M,M,M,25000.00,M,M,M,M,M,M,M,M,M,M,78.98,KLGA 170351Z 27006KT 10SM FEW250 26/15 A2988 RMK AO2 SLP119 T02610150
LGA,2012-08-17 04:51,-73.8803,40.7794,78.08,59.00,51.91,300.00,3.00,0.00,29.88,1011.90,10.00,M,CLR,M,M,M,M,M,M,M,M,M,M,M,M,M,M,78.08,KLGA 170451Z 30003KT 10SM CLR 26/15 A2988 RMK AO2 SLP119 T02560150 403000211
LGA,2012-08-17 05:51,-73.8803,40.7794,77.00,60.08,55.91,310.00,3.00,0.00,29.88,1011.70,10.00,M,FEW,M,M,M,25000.00,M,M,M,M,M,M,M,M,M,M,77.00,KLGA 170551Z 31003KT 10SM FEW250 25/16 A2988 RMK AO2 SLP117 T02500156 10283 20244 50001
LGA,2012-08-17 06:51,-73.8803,40.7794,75.92,60.08,57.96,0.00,0.00,0.00,29.88,1011.80,10.00,M,FEW,M,M,M,25000.00,M,M,M,M,M,M,M,M,M,M,75.92,KLGA 170651Z 00000KT 10SM FEW250 24/16 A2988 RMK AO2 SLP118 T02440156
LGA,2012-08-17 07:51,-73.8803,40.7794,75.92,57.02,51.94,250.00,7.00,0.00,29.87,1011.40,10.00,M,FEW,M,M,M,25000.00,M,M,M,M,M,M,M,M,M,M,75.92,KLGA 170751Z 25007KT 10SM FEW250 24/14 A2987 RMK AO2 SLP114 T02440139
LGA,2012-08-17 08:51,-73.8803,40.7794,73.94,59.00,59.58,0.00,0.00,0.00,29.86,1011.00,10.00,M,FEW,M,M,M,25000.00,M,M,M,M,M,M,M,M,M,M,73.94,KLGA 170851Z 00000KT 10SM FEW250 23/15 A2986 RMK AO2 SLP110 T02330150 58007
LGA,2012-08-17 09:51,-73.8803,40.7794,73.94,59.00,59.58,210.00,4.00,0.00,29.86,1011.00,10.00,M,CLR,M,M,M,M,M,M,M,M,M,M,M,M,M,M,73.94,KLGA 170951Z 21004KT 10SM CLR 23/15 A2986 RMK AO2 SLP110 T02330150
LGA,2012-08-17 10:51,-73.8803,40.7794,73.94,59.00,59.58,210.00,6.00,0.00,29.86,1011.20,10.00,M,BKN,M,M,M,25000.00,M,M,M,M,M,M,M,M,M,M,73.94,KLGA 171051Z 21006KT 10SM BKN250 23/15 A2986 RMK AO2 SLP112 T02330150
LGA,2012-08-17 11:51,-73.8803,40.7794,75.92,60.98,59.84,190.00,6.00,0.00,29.86,1011.20,10.00,M,SCT,M,M,M,25000.00,M,M,M,M,M,M,M,M,M,M,75.92,KLGA 171151Z 19006KT 10SM SCT250 24/16 A2986 RMK AO2 SLP112 T02440161 10250 20228 53001
LGA,2012-08-17 12:51,-73.8803,40.7794,78.98,62.06,56.18,220.00,6.00,0.00,29.86,1011.00,10.00,M,FEW,M,M,M,25000.00,M,M,M,M,M,M,M,M,M,M,78.98,KLGA 171251Z 22006KT 10SM FEW250 26/17 A2986 RMK AO2 SLP110 T02610167
LGA,2012-08-17 13:51,-73.8803,40.7794,82.04,64.04,54.50,230.00,8.00,0.00,29.85,1010.90,10.00,M,FEW,M,M,M,25000.00,M,M,M,M,M,M,M,M,M,M,83.52,KLGA 171351Z 23008KT 10SM FEW250 28/18 A2985 RMK AO2 SLP109 T02780178
LGA,2012-08-17 14:51,-73.8803,40.7794,82.94,62.96,50.97,210.00,8.00,0.00,29.84,1010.30,10.00,M,FEW,M,M,M,25000.00,M,M,M,M,M,M,M,M,M,M,84.00,KLGA 171451Z 21008KT 10SM FEW250 28/17 A2984 RMK AO2 SLP103 T02830172 58009
LGA,2012-08-17 15:51,-73.8803,40.7794,87.08,62.96,44.63,220.00,8.00,0.00,29.84,1010.30,10.00,M,CLR,M,M,M,M,M,M,M,M,M,M,M,M,M,M,87.92,KLGA 171551Z 22008KT 190V250 10SM CLR 31/17 A2984 RMK AO2 SLP103 T03060172
LGA,2012-08-17 16:51,-73.8803,40.7794,87.08,62.96,44.63,220.00,8.00,0.00,29.82,1009.80,10.00,14.00,FEW,M,M,M,6000.00,M,M,M,M,M,M,M,M,M,M,87.92,KLGA 171651Z 22008G14KT 10SM FEW060 31/17 A2982 RMK AO2 SLP098 T03060172
LGA,2012-08-17 17:51,-73.8803,40.7794,87.98,62.06,42.02,240.00,8.00,0.00,29.81,1009.30,10.00,15.00,FEW,M,M,M,6000.00,M,M,M,M,M,M,M,M,M,M,88.43,KLGA 171751Z 24008G15KT 10SM FEW060 31/17 A2981 RMK AO2 SLP093 T03110167 10317 20244 58010
LGA,2012-08-17 18:51,-73.8803,40.7794,89.06,62.06,40.60,190.00,14.00,0.00,29.79,1008.70,10.00,20.00,SCT,SCT,M,M,6000.00,25000.00,M,M,M,M,M,M,M,M,M,89.52,KLGA 171851Z 19014G20KT 10SM SCT060 SCT250 32/17 A2979 RMK AO2 SLP087 T03170167
LGA,2012-08-17 19:51,-73.8803,40.7794,89.06,62.06,40.60,200.00,15.00,0.00,29.77,1008.20,10.00,21.00,SCT,BKN,M,M,6000.00,25000.00,M,M,M,M,M,M,M,M,M,89.52,KLGA 171951Z 20015G21KT 10SM SCT060 BKN250 32/17 A2977 RMK AO2 SLP082 T03170167
LGA,2012-08-17 20:51,-73.8803,40.7794,87.98,66.92,49.79,170.00,14.00,0.00,29.76,1007.70,10.00,M,SCT,SCT,BKN,M,5500.00,15000.00,25000.00,M,M,M,M,M,M,M,M,90.94,KLGA 172051Z 17014KT 10SM SCT055 SCT150 BKN250 31/19 A2976 RMK AO2 SLP077 T03110194 56016
LGA,2012-08-17 21:51,-73.8803,40.7794,84.92,69.08,59.13,150.00,12.00,0.00,29.77,1007.90,10.00,M,SCT,SCT,BKN,M,6000.00,15000.00,25000.00,M,M,M,M,M,M,M,M,88.84,KLGA 172151Z 15012KT 10SM SCT060 SCT150 BKN250 29/21 A2977 RMK AO2 SLP079 T02940206
LGA,2012-08-17 22:51,-73.8803,40.7794,84.02,69.98,62.77,170.00,10.00,0.00,29.77,1007.90,10.00,M,SCT,SCT,BKN,M,6000.00,15000.00,25000.00,M,M,M,M,M,M,M,M,88.32,KLGA 172251Z 17010KT 10SM SCT060 SCT150 BKN250 29/21 A2977 RMK AO2 SLP079 TCU DSNT W-NW T02890211
LGA,2012-08-17 23:32,-73.8803,40.7794,80.60,66.20,61.58,M,3.00,0.00,29.78,M,9.00,14.00,SCT,BKN,BKN,BKN,4500.00,6500.00,15000.00,25000.00,-TSRA,M,M,M,M,M,M,82.75,KLGA 172332Z VRB03G14KT 9SM -TSRA SCT045CB BKN065 BKN150 BKN250 27/19 A2978 RMK AO2 TSB31RAB30 OCNL LTGICCCCG OHD TS OHD MOV NE CB DSNT W-N MOV NE P0000
LGA,2012-08-17 23:51,-73.8803,40.7794,80.96,68.00,64.77,270.00,7.00,0.00,29.78,1008.50,10.00,M,SCT,BKN,BKN,OVC,3700.00,6000.00,15000.00,25000.00,TS,M,M,M,M,M,M,83.72,KLGA 172351Z 27007KT 10SM TS SCT037CB BKN060 BKN150 OVC250 27/20 A2978 RMK AO2 TSB31RAB30E50 SLP085 OCNL LTGICCCCG OHD-NE TS OHD-NE MOV NE CB DSNT W-N MOV NE P0000 60000 T02720200 10333 20261 53008
LGA,2012-08-18 00:26,-73.8803,40.7794,84.20,69.80,62.03,310.00,11.00,0.00,29.80,M,10.00,17.00,FEW,BKN,BKN,BKN,4000.00,6000.00,11000.00,25000.00,M,M,M,M,M,M,M,88.43,KLGA 180026Z 31011G17KT 10SM FEW040 BKN060 BKN110 BKN250 29/21 A2980 RMK AO2 TSE25 CB DSNT NE MOV NE
LGA,2012-08-18 00:51,-73.8803,40.7794,80.06,66.02,62.29,330.00,5.00,0.00,29.81,1009.50,10.00,M,FEW,BKN,BKN,BKN,4000.00,6000.00,11000.00,25000.00,TS,M,M,M,M,M,M,82.14,KLGA 180051Z 33005KT 10SM TS FEW040CB BKN060 BKN110 BKN250 27/19 A2981 RMK AO2 TSE25B51 SLP095 OCNL LTGICCCCG NE AND SW TS NE AND SW MOV NE T02670189
LGA,2012-08-18 01:49,-73.8803,40.7794,77.00,66.20,69.33,30.00,6.00,0.00,29.83,M,10.00,M,FEW,SCT,BKN,BKN,4000.00,6000.00,14000.00,25000.00,M,M,M,M,M,M,M,77.00,KLGA 180149Z 03006KT 10SM FEW040 SCT060 BKN140 BKN250 25/19 A2983 RMK AO2 TSE49 OCNL LTGICCG DSNT NE-E CB DSNT NE-E MOV NE
LGA,2012-08-18 01:51,-73.8803,40.7794,77.00,66.92,71.08,20.00,5.00,0.00,29.83,1010.00,10.00,M,FEW,SCT,BKN,BKN,4000.00,6000.00,14000.00,25000.00,M,M,M,M,M,M,M,77.00,KLGA 180151Z 02005KT 10SM FEW040 SCT060 BKN140 BKN250 25/19 A2983 RMK AO2 TSE49 SLP100 OCNL LTGICCG DSNT NE-E CB DSNT NE-E MOV NE T02500194
LGA,2012-08-18 02:51,-73.8803,40.7794,77.00,66.02,68.90,330.00,7.00,0.00,29.83,1010.00,10.00,M,FEW,OVC,M,M,7000.00,15000.00,M,M,M,M,M,M,M,M,M,77.00,KLGA 180251Z 33007KT 10SM FEW070 OVC150 25/19 A2983 RMK AO2 SLP100 T02500189 50015
LGA,2012-08-18 03:51,-73.8803,40.7794,75.02,68.00,78.81,40.00,4.00,0.00,29.83,1010.20,10.00,M,SCT,OVC,M,M,6500.00,15000.00,M,M,M,M,M,M,M,M,M,75.02,KLGA 180351Z 04004KT 10SM SCT065 OVC150 24/20 A2983 RMK AO2 SLP102 T02390200
LGA,2012-08-18 04:49,-73.8803,40.7794,73.40,64.40,73.44,310.00,13.00,0.00,29.86,M,10.00,M,OVC,M,M,M,4700.00,M,M,M,-TSRA,M,M,M,M,M,M,73.40,KLGA 180449Z 31013KT 10SM -TSRA OVC047CB 23/18 A2986 RMK AO2 TSB49RAB29 PRESRR FRQ LTGICCC OHD-SW TS OHD-SW MOV NE P0000 403330228
LGA,2012-08-18 04:51,-73.8803,40.7794,73.04,64.94,75.75,300.00,15.00,0.00,29.86,1011.10,10.00,M,OVC,M,M,M,4700.00,M,M,M,-TSRA,M,M,M,M,M,M,73.04,KLGA 180451Z 30015KT 10SM -TSRA OVC047CB 23/18 A2986 RMK AO2 TSB49RAB29 PRESRR SLP111 FRQ LTGICCC OHD-SW TS OHD-SW MOV NE P0000 T02280183 403330228
LGA,2012-08-18 05:51,-73.8803,40.7794,66.92,62.96,87.10,340.00,8.00,0.12,29.85,1010.70,10.00,M,SCT,BKN,OVC,M,4500.00,7000.00,11000.00,M,-RA,M,M,M,M,M,M,66.92,KLGA 180551Z 34008KT 10SM -RA SCT045 BKN070 OVC110 19/17 A2985 RMK AO2 TSE49 SLP107 OCNL LTGICCC DSNT E CB DSNT E MOV NE P0012 60012 T01940172 10289 20194 50007
LGA,2012-08-18 06:51,-73.8803,40.7794,68.00,64.94,89.94,330.00,7.00,0.09,29.84,1010.60,10.00,M,BKN,OVC,M,M,5000.00,11000.00,M,M,M,M,M,M,M,M,M,68.00,KLGA 180651Z 33007KT 10SM BKN050 OVC110 20/18 A2984 RMK AO2 RAE22 SLP106 P0009 T02000183
LGA,2012-08-18 07:31,-73.8803,40.7794,69.80,64.40,82.98,330.00,9.00,0.00,29.84,M,10.00,M,BKN,OVC,M,M,1500.00,4800.00,M,M,-RA,M,M,M,M,M,M,69.80,KLGA 180731Z 33009KT 10SM -RA BKN015 OVC048 21/18 A2984 RMK AO2 RAB23 P0000
LGA,2012-08-18 07:47,-73.8803,40.7794,68.00,64.40,88.26,340.00,9.00,0.00,29.84,M,10.00,M,SCT,OVC,M,M,1500.00,4800.00,M,M,-RA,M,M,M,M,M,M,68.00,KLGA 180747Z 34009KT 10SM -RA SCT015 OVC048 20/18 A2984 RMK AO2 RAB23 P0000
LGA,2012-08-18 07:51,-73.8803,40.7794,68.00,64.04,87.16,340.00,9.00,0.00,29.84,1010.50,10.00,M,SCT,OVC,M,M,1500.00,4800.00,M,M,-RA,M,M,M,M,M,M,68.00,KLGA 180751Z 34009KT 10SM -RA SCT015 OVC048 20/18 A2984 RMK AO2 RAB23 SLP105 P0000 T02000178
LGA,2012-08-18 08:16,-73.8803,40.7794,68.00,64.40,88.26,350.00,8.00,0.00,29.84,M,10.00,M,BKN,BKN,OVC,M,1300.00,1700.00,4400.00,M,-RA,M,M,M,M,M,M,68.00,KLGA 180816Z 35008KT 10SM -RA BKN013 BKN017 OVC044 20/18 A2984 RMK AO2 P0000
LGA,2012-08-18 08:29,-73.8803,40.7794,66.20,60.80,82.74,10.00,13.00,0.01,29.85,M,10.00,19.00,SCT,BKN,OVC,M,1300.00,1700.00,2300.00,M,-RA,M,M,M,M,M,M,66.20,KLGA 180829Z 01013G19KT 10SM -RA SCT013 BKN017 OVC023 19/16 A2985 RMK AO2 P0001
LGA,2012-08-18 08:51,-73.8803,40.7794,66.92,60.98,81.22,10.00,9.00,0.01,29.86,1011.20,10.00,M,OVC,M,M,M,2500.00,M,M,M,-RA,M,M,M,M,M,M,66.92,KLGA 180851Z 01009KT 10SM -RA OVC025 19/16 A2986 RMK AO2 SLP112 P0001 60010 T01940161 53005
LGA,2012-08-18 09:32,-73.8803,40.7794,66.20,60.80,82.74,30.00,9.00,0.01,29.86,M,10.00,M,FEW,BKN,BKN,OVC,2600.00,3300.00,5000.00,13000.00,-RA,M,M,M,M,M,M,66.20,KLGA 180932Z 03009KT 10SM -RA FEW026 BKN033 BKN050 OVC130 19/16 A2986 RMK AO2 P0001
LGA,2012-08-18 09:51,-73.8803,40.7794,66.02,62.06,87.05,40.00,8.00,0.01,29.86,1011.10,10.00,M,SCT,BKN,BKN,OVC,3300.00,8000.00,9000.00,13000.00,-RA,M,M,M,M,M,M,66.02,KLGA 180951Z 04008KT 10SM -RA SCT033 BKN080 BKN090 OVC130 19/17 A2986 RMK AO2 SLP111 P0001 T01890167
LGA,2012-08-18 10:51,-73.8803,40.7794,66.02,62.06,87.05,10.00,8.00,0.02,29.88,1011.80,10.00,M,FEW,SCT,OVC,M,3500.00,6500.00,11000.00,M,-RA,M,M,M,M,M,M,66.02,KLGA 181051Z 01008KT 10SM -RA FEW035 SCT065 OVC110 19/17 A2988 RMK AO2 SLP118 P0002 T01890167
LGA,2012-08-18 11:51,-73.8803,40.7794,66.02,62.06,87.05,40.00,7.00,0.00,29.89,1012.20,8.00,M,FEW,BKN,OVC,M,3500.00,6500.00,8500.00,M,-RA,M,M,M,M,M,M,66.02,KLGA 181151Z 04007KT 8SM -RA FEW035 BKN065 OVC085 19/17 A2989 RMK AO2 SLP122 P0000 60013 70025 T01890167 10206 20189 53009
LGA,2012-08-18 12:51,-73.8803,40.7794,66.02,62.06,87.05,30.00,6.00,0.07,29.90,1012.50,7.00,M,FEW,BKN,OVC,M,2000.00,6500.00,8500.00,M,-RA,M,M,M,M,M,M,66.02,KLGA 181251Z 03006KT 7SM -RA FEW020 BKN065 OVC085 19/17 A2990 RMK AO2 SLP125 P0007 T01890167
LGA,2012-08-18 13:51,-73.8803,40.7794,66.92,62.06,84.38,30.00,8.00,0.06,29.90,1012.40,10.00,M,FEW,SCT,BKN,BKN,2500.00,6500.00,11000.00,15000.00,-RA,M,M,M,M,M,M,66.92,KLGA 181351Z 03008KT 10SM -RA FEW025 SCT065 BKN110 BKN150 19/17 A2990 RMK AO2 SLP124 P0006 T01940167
LGA,2012-08-18 14:51,-73.8803,40.7794,69.08,60.98,75.40,10.00,7.00,0.00,29.91,1012.90,10.00,M,SCT,BKN,BKN,M,1900.00,11000.00,15000.00,M,M,M,M,M,M,M,M,69.08,KLGA 181451Z 01007KT 10SM SCT019 BKN110 BKN150 21/16 A2991 RMK AO2 RAE1357 SLP129 P0000 60013 T02060161 53008
LGA,2012-08-18 15:51,-73.8803,40.7794,71.06,60.08,68.25,50.00,8.00,0.00,29.92,1013.00,10.00,M,SCT,BKN,BKN,M,2400.00,13000.00,18000.00,M,M,M,M,M,M,M,M,71.06,KLGA 181551Z 05008KT 10SM SCT024 BKN130 BKN180 22/16 A2992 RMK AO2 SLP130 T02170156
LGA,2012-08-18 16:51,-73.8803,40.7794,73.04,60.98,65.90,80.00,6.00,0.00,29.89,1012.20,10.00,M,SCT,BKN,BKN,M,3500.00,10000.00,15000.00,M,M,M,M,M,M,M,M,73.04,KLGA 181651Z 08006KT 10SM SCT035 BKN100 BKN150 23/16 A2989 RMK AO2 SLP122 SCT V BKN T02280161
LGA,2012-08-18 17:51,-73.8803,40.7794,75.02,62.06,64.07,M,5.00,0.00,29.88,1011.80,10.00,M,SCT,BKN,BKN,M,5000.00,11000.00,15000.00,M,M,M,M,M,M,M,M,75.02,KLGA 181751Z VRB05KT 10SM SCT050 BKN110 BKN150 24/17 A2988 RMK AO2 SLP118 60013 T02390167 10239 20183 58011
LGA,2012-08-18 18:51,-73.8803,40.7794,77.00,60.98,57.73,M,5.00,0.00,29.87,1011.40,10.00,M,FEW,BKN,BKN,BKN,5000.00,5500.00,11000.00,15000.00,M,M,M,M,M,M,M,77.00,KLGA 181851Z VRB05KT 10SM FEW050 BKN055 BKN110 BKN150 25/16 A2987 RMK AO2 SLP114 T02500161
LGA,2012-08-18 19:51,-73.8803,40.7794,77.00,60.98,57.73,0.00,0.00,0.00,29.86,1011.00,10.00,M,FEW,BKN,BKN,BKN,4900.00,6000.00,11000.00,15000.00,M,M,M,M,M,M,M,77.00,KLGA 181951Z 00000KT 10SM FEW049 BKN060 BKN110 BKN150 25/16 A2986 RMK AO2 SLP110 T02500161
LGA,2012-08-18 20:51,-73.8803,40.7794,78.08,57.92,49.94,M,3.00,0.00,29.84,1010.60,10.00,M,FEW,BKN,M,M,5000.00,6000.00,M,M,M,M,M,M,M,M,M,78.08,KLGA 182051Z VRB03KT 10SM FEW050 BKN060 26/14 A2984 RMK AO2 SLP106 T02560144 56012
LGA,2012-08-18 21:51,-73.8803,40.7794,80.06,57.02,45.30,350.00,7.00,0.00,29.84,1010.40,10.00,M,BKN,BKN,BKN,M,6000.00,7000.00,15000.00,M,M,M,M,M,M,M,M,80.42,KLGA 182151Z 35007KT 10SM BKN060 BKN070 BKN150 27/14 A2984 RMK AO2 SLP104 T02670139
LGA,2012-08-18 22:51,-73.8803,40.7794,78.98,55.04,43.68,20.00,6.00,0.00,29.85,1010.80,10.00,M,SCT,BKN,BKN,M,6000.00,7000.00,15000.00,M,M,M,M,M,M,M,M,78.98,KLGA 182251Z 02006KT 10SM SCT060 BKN070 BKN150 26/13 A2985 RMK AO2 SLP108 T02610128
LGA,2012-08-18 23:51,-73.8803,40.7794,77.00,51.98,41.69,330.00,10.00,0.00,29.87,1011.30,10.00,M,SCT,SCT,M,M,6000.00,25000.00,M,M,M,M,M,M,M,M,M,77.00,KLGA 182351Z 33010KT 10SM SCT060 SCT250 25/11 A2987 RMK AO2 SLP113 T02500111 10272 20239 53007
LGA,2012-08-19 00:51,-73.8803,40.7794,75.92,50.00,40.16,330.00,7.00,0.00,29.88,1011.90,10.00,M,SCT,SCT,M,M,7000.00,25000.00,M,M,M,M,M,M,M,M,M,75.92,KLGA 190051Z 33007KT 10SM SCT070 SCT250 24/10 A2988 RMK AO2 SLP119 T02440100
LGA,2012-08-19 01:51,-73.8803,40.7794,75.02,53.06,46.34,320.00,7.00,0.00,29.90,1012.30,10.00,M,SCT,BKN,BKN,M,7500.00,10000.00,25000.00,M,M,M,M,M,M,M,M,75.02,KLGA 190151Z 32007KT 10SM SCT075 BKN100 BKN250 24/12 A2990 RMK AO2 SLP123 T02390117
LGA,2012-08-19 02:51,-73.8803,40.7794,73.94,53.06,48.04,330.00,7.00,0.00,29.92,1013.00,10.00,M,FEW,SCT,M,M,7500.00,25000.00,M,M,M,M,M,M,M,M,M,73.94,KLGA 190251Z 33007KT 10SM FEW075 SCT250 23/12 A2992 RMK AO2 SLP130 T02330117 53017
LGA,2012-08-19 03:51,-73.8803,40.7794,71.96,55.04,55.22,350.00,4.00,0.00,29.92,1013.20,10.00,M,FEW,M,M,M,25000.00,M,M,M,M,M,M,M,M,M,M,71.96,KLGA 190351Z 35004KT 10SM FEW250 22/13 A2992 RMK AO2 SLP132 T02220128
LGA,2012-08-19 04:51,-73.8803,40.7794,71.06,55.04,56.93,30.00,3.00,0.00,29.92,1013.20,10.00,M,FEW,M,M,M,25000.00,M,M,M,M,M,M,M,M,M,M,71.06,KLGA 190451Z 03003KT 10SM FEW250 22/13 A2992 RMK AO2 SLP132 T02170128 402720183
LGA,2012-08-19 05:51,-73.8803,40.7794,71.06,55.04,56.93,360.00,4.00,0.00,29.93,1013.30,10.00,M,FEW,M,M,M,25000.00,M,M,M,M,M,M,M,M,M,M,71.06,KLGA 190551Z 36004KT 10SM FEW250 22/13 A2993 RMK AO2 SLP133 T02170128 10250 20211 51003
LGA,2012-08-19 06:51,-73.8803,40.7794,69.08,55.94,62.93,30.00,5.00,0.00,29.93,1013.60,10.00,M,FEW,M,M,M,25000.00,M,M,M,M,M,M,M,M,M,M,69.08,KLGA 190651Z 03005KT 10SM FEW250 21/13 A2993 RMK AO2 SLP136 T02060133
LGA,2012-08-19 07:51,-73.8803,40.7794,68.00,53.96,60.77,50.00,7.00,0.00,29.94,1013.90,10.00,M,FEW,M,M,M,25000.00,M,M,M,M,M,M,M,M,M,M,68.00,KLGA 190751Z 05007KT 10SM FEW250 20/12 A2994 RMK AO2 SLP139 T02000122
LGA,2012-08-19 08:51,-73.8803,40.7794,66.92,53.06,61.03,0.00,0.00,0.00,29.95,1014.10,10.00,M,CLR,M,M,M,M,M,M,M,M,M,M,M,M,M,M,66.92,KLGA 190851Z 00000KT 10SM CLR 19/12 A2995 RMK AO2 SLP141 T01940117 52008
LGA,2012-08-19 09:51,-73.8803,40.7794,66.02,53.96,65.07,20.00,5.00,0.00,29.96,1014.50,10.00,M,SCT,M,M,M,25000.00,M,M,M,M,M,M,M,M,M,M,66.02,KLGA 190951Z 02005KT 10SM SCT250 19/12 A2996 RMK AO2 SLP145 T01890122
LGA,2012-08-19 10:51,-73.8803,40.7794,66.02,53.06,62.96,30.00,4.00,0.00,29.96,1014.30,10.00,M,FEW,SCT,BKN,M,9000.00,18000.00,25000.00,M,M,M,M,M,M,M,M,66.02,KLGA 191051Z 03004KT 10SM FEW090 SCT180 BKN250 19/12 A2996 RMK AO2 SLP143 T01890117
LGA,2012-08-19 11:51,-73.8803,40.7794,68.00,51.98,56.51,0.00,0.00,0.00,29.97,1015.00,10.00,M,FEW,SCT,BKN,BKN,9000.00,16000.00,20000.00,25000.00,M,M,M,M,M,M,M,68.00,KLGA 191151Z 00000KT 10SM FEW090 SCT160 BKN200 BKN250 20/11 A2997 RMK AO2 SLP150 ACC S 70013 T02000111 10217 20189 53008
LGA,2012-08-19 12:51,-73.8803,40.7794,69.08,51.98,54.45,0.00,0.00,0.00,29.98,1015.20,10.00,M,FEW,SCT,SCT,BKN,9000.00,16000.00,20000.00,25000.00,M,M,M,M,M,M,M,69.08,KLGA 191251Z 00000KT 10SM FEW090 SCT160 SCT200 BKN250 21/11 A2998 RMK AO2 SLP152 T02060111
LGA,2012-08-19 13:51,-73.8803,40.7794,71.06,53.06,52.95,60.00,7.00,0.00,29.97,1014.80,10.00,M,FEW,SCT,BKN,BKN,9000.00,15000.00,20000.00,25000.00,M,M,M,M,M,M,M,71.06,KLGA 191351Z 06007KT 10SM FEW090 SCT150 BKN200 BKN250 22/12 A2997 RMK AO2 SLP148 T02170117
LGA,2012-08-19 14:51,-73.8803,40.7794,71.96,53.06,51.36,50.00,5.00,0.00,29.98,1015.10,10.00,M,FEW,SCT,BKN,BKN,9000.00,13000.00,22000.00,25000.00,M,M,M,M,M,M,M,71.96,KLGA 191451Z 05005KT 10SM FEW090 SCT130 BKN220 BKN250 22/12 A2998 RMK AO2 SLP151 VIRGA OHD-SW T02220117 53001
LGA,2012-08-19 15:51,-73.8803,40.7794,73.94,53.96,49.66,10.00,5.00,0.00,29.97,1015.00,10.00,M,FEW,SCT,BKN,BKN,4400.00,12000.00,19000.00,25000.00,M,M,M,M,M,M,M,73.94,KLGA 191551Z 01005KT 10SM FEW044 SCT120 BKN190 BKN250 23/12 A2997 RMK AO2 SLP150 VIRGA OHD T02330122
LGA,2012-08-19 16:51,-73.8803,40.7794,73.04,51.98,47.59,330.00,3.00,0.00,29.98,1015.20,10.00,M,FEW,SCT,BKN,BKN,5000.00,14000.00,18000.00,25000.00,M,M,M,M,M,M,M,73.04,KLGA 191651Z 33003KT 10SM FEW050 SCT140 BKN180 BKN250 23/11 A2998 RMK AO2 SLP152 VIRGA OHD-SW T02280111
LGA,2012-08-19 17:51,-73.8803,40.7794,73.94,48.92,41.21,320.00,5.00,0.00,29.97,1014.80,10.00,M,FEW,SCT,BKN,BKN,4900.00,14000.00,19000.00,25000.00,M,M,M,M,M,M,M,73.94,KLGA 191751Z 32005KT 10SM FEW049 SCT140 BKN190 BKN250 23/09 A2997 RMK AO2 SLP148 VIRGA OHD-SW T02330094 10233 20194 58002
LGA,2012-08-19 18:51,-73.8803,40.7794,75.02,51.08,43.08,360.00,3.00,0.00,29.95,1014.20,10.00,M,FEW,SCT,BKN,BKN,5000.00,12000.00,16000.00,25000.00,M,M,M,M,M,M,M,75.02,KLGA 191851Z 36003KT 10SM FEW050 SCT120 BKN160 BKN250 24/11 A2995 RMK AO2 SLP142 VIRGA OHD-SW T02390106
LGA,2012-08-19 19:51,-73.8803,40.7794,75.02,51.08,43.08,320.00,7.00,0.00,29.94,1013.80,10.00,M,FEW,SCT,BKN,BKN,5000.00,12000.00,18000.00,25000.00,M,M,M,M,M,M,M,75.02,KLGA 191951Z 32007KT 10SM FEW050 SCT120 BKN180 BKN250 24/11 A2994 RMK AO2 SLP138 VIRGA SW T02390106
LGA,2012-08-19 20:51,-73.8803,40.7794,75.02,51.98,44.53,40.00,3.00,0.00,29.93,1013.40,10.00,M,FEW,SCT,BKN,BKN,5000.00,12000.00,16000.00,25000.00,M,M,M,M,M,M,M,75.02,KLGA 192051Z 04003KT 10SM FEW050 SCT120 BKN160 BKN250 24/11 A2993 RMK AO2 SLP134 VIRGA SW T02390111 56015
LGA,2012-08-19 21:51,-73.8803,40.7794,73.94,51.98,46.17,360.00,3.00,0.00,29.92,1013.20,10.00,M,FEW,SCT,BKN,BKN,5000.00,12000.00,15000.00,25000.00,M,M,M,M,M,M,M,73.94,KLGA 192151Z 36003KT 10SM FEW050 SCT120 BKN150 BKN250 23/11 A2992 RMK AO2 SLP132 VIRGA SW T02330111
LGA,2012-08-19 22:51,-73.8803,40.7794,73.94,51.98,46.17,0.00,0.00,0.00,29.92,1013.20,10.00,M,FEW,SCT,BKN,BKN,5000.00,12000.00,20000.00,25000.00,M,M,M,M,M,M,M,73.94,KLGA 192251Z 00000KT 10SM FEW050 SCT120 BKN200 BKN250 23/11 A2992 RMK AO2 SLP132 T02330111
LGA,2012-08-19 23:51,-73.8803,40.7794,73.94,51.98,46.17,80.00,5.00,0.00,29.92,1013.10,10.00,M,BKN,OVC,M,M,11000.00,20000.00,M,M,M,M,M,M,M,M,M,73.94,KLGA 192351Z 08005KT 10SM BKN110 OVC200 23/11 A2992 RMK AO2 SLP131 T02330111 10244 20233 56003
LGA,2012-08-20 00:51,-73.8803,40.7794,73.04,53.96,51.18,60.00,4.00,0.00,29.93,1013.40,10.00,M,BKN,BKN,M,M,11000.00,20000.00,M,M,M,M,M,M,M,M,M,73.04,KLGA 200051Z 06004KT 10SM BKN110 BKN200 23/12 A2993 RMK AO2 SLP134 T02280122
LGA,2012-08-20 01:51,-73.8803,40.7794,73.04,55.94,55.01,M,3.00,0.00,29.93,1013.60,10.00,M,BKN,BKN,M,M,11000.00,20000.00,M,M,M,M,M,M,M,M,M,73.04,KLGA 200151Z VRB03KT 10SM BKN110 BKN200 23/13 A2993 RMK AO2 SLP136 T02280133
LGA,2012-08-20 02:51,-73.8803,40.7794,73.04,57.02,57.20,60.00,3.00,0.00,29.92,1013.30,10.00,M,BKN,BKN,M,M,11000.00,20000.00,M,M,M,M,M,M,M,M,M,73.04,KLGA 200251Z 06003KT 10SM BKN110 BKN200 23/14 A2992 RMK AO2 SLP133 T02280139 50002
LGA,2012-08-20 03:51,-73.8803,40.7794,73.04,55.94,55.01,0.00,0.00,0.00,29.93,1013.40,10.00,M,BKN,BKN,M,M,10000.00,20000.00,M,M,M,M,M,M,M,M,M,73.04,KLGA 200351Z 00000KT 10SM BKN100 BKN200 23/13 A2993 RMK AO2 SLP134 T02280133
LGA,2012-08-20 04:51,-73.8803,40.7794,71.96,57.02,59.32,50.00,3.00,0.00,29.93,1013.40,10.00,M,BKN,BKN,M,M,10000.00,20000.00,M,M,M,M,M,M,M,M,M,71.96,KLGA 200451Z 05003KT 10SM BKN100 BKN200 22/14 A2993 RMK AO2 SLP134 T02220139 402440189
LGA,2012-08-20 05:51,-73.8803,40.7794,71.96,55.94,57.05,310.00,3.00,0.00,29.92,1013.00,10.00,M,BKN,BKN,M,M,10000.00,20000.00,M,M,M,M,M,M,M,M,M,71.96,KLGA 200551Z 31003KT 10SM BKN100 BKN200 22/13 A2992 RMK AO2 SLP130 T02220133 10233 20222 58003
LGA,2012-08-20 06:51,-73.8803,40.7794,71.96,57.02,59.32,360.00,3.00,0.00,29.91,1012.70,10.00,M,OVC,M,M,M,10000.00,M,M,M,M,M,M,M,M,M,M,71.96,KLGA 200651Z 36003KT 10SM OVC100 22/14 A2991 RMK AO2 SLP127 T02220139
LGA,2012-08-20 07:51,-73.8803,40.7794,69.98,59.00,68.13,50.00,3.00,0.00,29.90,1012.30,10.00,M,BKN,BKN,M,M,10000.00,20000.00,M,M,M,M,M,M,M,M,M,69.98,KLGA 200751Z 05003KT 10SM BKN100 BKN200 21/15 A2990 RMK AO2 SLP123 T02110150
LGA,2012-08-20 08:51,-73.8803,40.7794,69.08,59.00,70.26,30.00,3.00,0.00,29.88,1011.90,10.00,M,SCT,BKN,M,M,10000.00,20000.00,M,M,M,M,M,M,M,M,M,69.08,KLGA 200851Z 03003KT 10SM SCT100 BKN200 21/15 A2988 RMK AO2 SLP119 T02060150 58011
LGA,2012-08-20 09:51,-73.8803,40.7794,69.08,57.92,67.59,40.00,5.00,0.00,29.89,1012.10,10.00,M,SCT,BKN,M,M,10000.00,25000.00,M,M,M,M,M,M,M,M,M,69.08,KLGA 200951Z 04005KT 10SM SCT100 BKN250 21/14 A2989 RMK AO2 SLP121 T02060144
LGA,2012-08-20 10:51,-73.8803,40.7794,68.00,60.08,75.78,50.00,4.00,0.00,29.91,1012.70,10.00,M,BKN,BKN,M,M,13000.00,25000.00,M,M,M,M,M,M,M,M,M,68.00,KLGA 201051Z 05004KT 10SM BKN130 BKN250 20/16 A2991 RMK AO2 SLP127 T02000156
LGA,2012-08-20 11:51,-73.8803,40.7794,69.08,60.08,73.02,40.00,5.00,0.00,29.91,1012.70,10.00,M,FEW,BKN,M,M,13000.00,25000.00,M,M,M,M,M,M,M,M,M,69.08,KLGA 201151Z 04005KT 10SM FEW130 BKN250 21/16 A2991 RMK AO2 SLP127 T02060156 10222 20200 51008
LGA,2012-08-20 12:51,-73.8803,40.7794,71.96,60.08,66.20,20.00,3.00,0.00,29.91,1012.90,10.00,M,FEW,BKN,M,M,4500.00,25000.00,M,M,M,M,M,M,M,M,M,71.96,KLGA 201251Z 02003KT 10SM FEW045 BKN250 22/16 A2991 RMK AO2 SLP129 T02220156
LGA,2012-08-20 13:51,-73.8803,40.7794,73.04,59.00,61.41,60.00,6.00,0.00,29.90,1012.50,10.00,M,FEW,BKN,M,M,13000.00,19000.00,M,M,M,M,M,M,M,M,M,73.04,KLGA 201351Z 06006KT 10SM FEW130 BKN190 23/15 A2990 RMK AO2 SLP125 T02280150
LGA,2012-08-20 14:51,-73.8803,40.7794,75.02,57.92,55.28,70.00,4.00,0.00,29.90,1012.30,10.00,M,FEW,SCT,BKN,M,4500.00,13000.00,19000.00,M,M,M,M,M,M,M,M,75.02,KLGA 201451Z 07004KT 10SM FEW045 SCT130 BKN190 24/14 A2990 RMK AO2 SLP123 T02390144 58004
LGA,2012-08-20 15:51,-73.8803,40.7794,75.92,55.04,48.34,M,4.00,0.00,29.90,1012.60,10.00,M,FEW,SCT,SCT,BKN,5000.00,13000.00,19000.00,25000.00,M,M,M,M,M,M,M,75.92,KLGA 201551Z VRB04KT 10SM FEW050 SCT130 SCT190 BKN250 24/13 A2990 RMK AO2 SLP126 T02440128
LGA,2012-08-20 16:51,-73.8803,40.7794,77.00,53.96,44.84,80.00,5.00,0.00,29.89,1012.10,10.00,M,FEW,SCT,OVC,M,5000.00,13000.00,23000.00,M,M,M,M,M,M,M,M,77.00,KLGA 201651Z 08005KT 10SM FEW050 SCT130 OVC230 25/12 A2989 RMK AO2 SLP121 T02500122
LGA,2012-08-20 17:51,-73.8803,40.7794,78.98,53.96,42.00,M,3.00,0.00,29.88,1011.70,10.00,M,FEW,BKN,OVC,M,5000.00,12000.00,25000.00,M,M,M,M,M,M,M,M,78.98,KLGA 201751Z VRB03KT 10SM FEW050 BKN120 OVC250 26/12 A2988 RMK AO2 SLP117 T02610122 10261 20206 58007
LGA,2012-08-20 18:51,-73.8803,40.7794,78.98,59.00,50.39,170.00,7.00,0.00,29.86,1011.20,10.00,M,FEW,BKN,BKN,M,5000.00,11000.00,25000.00,M,M,M,M,M,M,M,M,78.98,KLGA 201851Z 17007KT 10SM FEW050 BKN110 BKN250 26/15 A2986 RMK AO2 SLP112 T02610150
LGA,2012-08-20 19:51,-73.8803,40.7794,78.08,57.92,49.94,140.00,9.00,0.00,29.84,1010.50,10.00,M,FEW,BKN,BKN,M,5000.00,11000.00,25000.00,M,M,M,M,M,M,M,M,78.08,KLGA 201951Z 14009KT 10SM FEW050 BKN110 BKN250 26/14 A2984 RMK AO2 SLP105 T02560144
LGA,2012-08-20 20:51,-73.8803,40.7794,78.08,59.00,51.91,180.00,8.00,0.00,29.84,1010.50,10.00,M,FEW,SCT,SCT,M,5000.00,11000.00,25000.00,M,M,M,M,M,M,M,M,78.08,KLGA 202051Z 18008KT 140V200 10SM FEW050 SCT110 SCT250 26/15 A2984 RMK AO2 SLP105 T02560150 56012
LGA,2012-08-20 21:51,-73.8803,40.7794,77.00,59.00,53.80,170.00,8.00,0.00,29.85,1010.90,10.00,M,FEW,SCT,BKN,M,5000.00,10000.00,25000.00,M,M,M,M,M,M,M,M,77.00,KLGA 202151Z 17008KT 10SM FEW050 SCT100 BKN250 25/15 A2985 RMK AO2 SLP109 T02500150
LGA,2012-08-20 22:51,-73.8803,40.7794,75.92,59.00,55.77,160.00,9.00,0.00,29.86,1011.10,10.00,M,FEW,BKN,BKN,M,5000.00,10000.00,25000.00,M,M,M,M,M,M,M,M,75.92,KLGA 202251Z 16009KT 10SM FEW050 BKN100 BKN250 24/15 A2986 RMK AO2 SLP111 T02440150
LGA,2012-08-20 23:51,-73.8803,40.7794,75.92,60.08,57.96,160.00,6.00,0.00,29.88,1011.70,10.00,M,FEW,BKN,BKN,M,5000.00,10000.00,25000.00,M,M,M,M,M,M,M,M,75.92,KLGA 202351Z 16006KT 10SM FEW050 BKN100 BKN250 24/16 A2988 RMK AO2 SLP117 T02440156 10267 20244 53013
LGA,2012-08-21 00:51,-73.8803,40.7794,75.02,60.08,59.72,190.00,6.00,0.00,29.90,1012.30,10.00,M,SCT,BKN,M,M,11000.00,25000.00,M,M,M,M,M,M,M,M,M,75.02,KLGA 210051Z 19006KT 10SM SCT110 BKN250 24/16 A2990 RMK AO2 SLP123 T02390156
LGA,2012-08-21 01:51,-73.8803,40.7794,73.94,59.00,59.58,210.00,5.00,0.00,29.91,1012.90,10.00,M,BKN,BKN,BKN,M,5000.00,10000.00,25000.00,M,M,M,M,M,M,M,M,73.94,KLGA 210151Z 21005KT 10SM BKN050 BKN100 BKN250 23/15 A2991 RMK AO2 SLP129 T02330150
LGA,2012-08-21 02:51,-73.8803,40.7794,73.04,60.98,65.90,360.00,5.00,0.00,29.92,1013.20,10.00,M,SCT,SCT,OVC,M,3900.00,6000.00,15000.00,M,M,M,M,M,M,M,M,73.04,KLGA 210251Z 36005KT 10SM SCT039 SCT060 OVC150 23/16 A2992 RMK AO2 SLP132 T02280161 51015
LGA,2012-08-21 03:51,-73.8803,40.7794,73.04,60.98,65.90,360.00,3.00,0.00,29.92,1013.20,10.00,M,FEW,BKN,M,M,3900.00,15000.00,M,M,M,M,M,M,M,M,M,73.04,KLGA 210351Z 36003KT 10SM FEW039 BKN150 23/16 A2992 RMK AO2 SLP132 T02280161
LGA,2012-08-21 04:51,-73.8803,40.7794,73.04,62.06,68.47,20.00,3.00,0.00,29.93,1013.30,10.00,M,FEW,BKN,BKN,M,9000.00,11000.00,15000.00,M,M,M,M,M,M,M,M,73.04,KLGA 210451Z 02003KT 10SM FEW090 BKN110 BKN150 23/17 A2993 RMK AO2 SLP133 T02280167 402670200
LGA,2012-08-21 05:51,-73.8803,40.7794,71.96,60.98,68.35,340.00,3.00,0.00,29.93,1013.40,10.00,M,FEW,SCT,BKN,OVC,4200.00,10000.00,12000.00,25000.00,M,M,M,M,M,M,M,71.96,KLGA 210551Z 34003KT 10SM FEW042 SCT100 BKN120 OVC250 22/16 A2993 RMK AO2 SLP134 T02220161 10244 20222 52002
LGA,2012-08-21 06:51,-73.8803,40.7794,71.96,60.08,66.20,320.00,7.00,0.00,29.94,1013.80,10.00,M,BKN,BKN,OVC,M,3600.00,5000.00,8000.00,M,M,M,M,M,M,M,M,71.96,KLGA 210651Z 32007KT 10SM BKN036 BKN050 OVC080 22/16 A2994 RMK AO2 SLP138 T02220156
LGA,2012-08-21 07:51,-73.8803,40.7794,71.06,60.08,68.25,310.00,5.00,0.00,29.95,1014.20,10.00,M,BKN,OVC,M,M,8000.00,25000.00,M,M,M,M,M,M,M,M,M,71.06,KLGA 210751Z 31005KT 10SM BKN080 OVC250 22/16 A2995 RMK AO2 SLP142 T02170156
LGA,2012-08-21 08:51,-73.8803,40.7794,71.96,60.08,66.20,310.00,9.00,0.00,29.95,1014.10,10.00,M,FEW,SCT,OVC,M,4600.00,8500.00,25000.00,M,M,M,M,M,M,M,M,71.96,KLGA 210851Z 31009KT 10SM FEW046 SCT085 OVC250 22/16 A2995 RMK AO2 SLP141 T02220156 50007
LGA,2012-08-21 09:51,-73.8803,40.7794,69.98,60.08,70.81,320.00,8.00,0.00,29.97,1014.80,10.00,M,BKN,M,M,M,25000.00,M,M,M,M,M,M,M,M,M,M,69.98,KLGA 210951Z 32008KT 10SM BKN250 21/16 A2997 RMK AO2 SLP148 T02110156
LGA,2012-08-21 10:51,-73.8803,40.7794,69.08,60.08,73.02,330.00,7.00,0.00,29.98,1015.10,10.00,M,BKN,M,M,M,25000.00,M,M,M,M,M,M,M,M,M,M,69.08,KLGA 211051Z 33007KT 10SM BKN250 21/16 A2998 RMK AO2 SLP151 T02060156
LGA,2012-08-21 11:51,-73.8803,40.7794,69.08,60.08,73.02,330.00,6.00,0.00,30.00,1015.80,10.00,M,BKN,M,M,M,25000.00,M,M,M,M,M,M,M,M,M,M,69.08,KLGA 211151Z 33006KT 10SM BKN250 21/16 A3000 RMK AO2 SLP158 T02060156 10222 20206 51017
LGA,2012-08-21 12:51,-73.8803,40.7794,71.96,60.98,68.35,360.00,4.00,0.00,30.01,1016.30,10.00,M,BKN,M,M,M,25000.00,M,M,M,M,M,M,M,M,M,M,71.96,KLGA 211251Z 36004KT 10SM BKN250 22/16 A3001 RMK AO2 SLP163 T02220161
LGA,2012-08-21 13:51,-73.8803,40.7794,73.94,59.00,59.58,40.00,5.00,0.00,30.01,1016.30,10.00,M,BKN,M,M,M,25000.00,M,M,M,M,M,M,M,M,M,M,73.94,KLGA 211351Z 04005KT 10SM BKN250 23/15 A3001 RMK AO2 SLP163 T02330150
LGA,2012-08-21 14:51,-73.8803,40.7794,75.02,60.98,61.66,70.00,6.00,0.00,30.02,1016.60,10.00,M,FEW,BKN,M,M,5500.00,25000.00,M,M,M,M,M,M,M,M,M,75.02,KLGA 211451Z 07006KT 10SM FEW055 BKN250 24/16 A3002 RMK AO2 SLP166 T02390161 51007
LGA,2012-08-21 15:51,-73.8803,40.7794,77.00,60.08,55.91,40.00,5.00,0.00,30.03,1016.80,10.00,M,FEW,BKN,M,M,5500.00,25000.00,M,M,M,M,M,M,M,M,M,77.00,KLGA 211551Z 04005KT 10SM FEW055 BKN250 25/16 A3003 RMK AO2 SLP168 T02500156
LGA,2012-08-21 16:51,-73.8803,40.7794,78.08,57.92,49.94,50.00,6.00,0.00,30.03,1016.90,10.00,M,FEW,BKN,M,M,5500.00,25000.00,M,M,M,M,M,M,M,M,M,78.08,KLGA 211651Z 05006KT 10SM FEW055 BKN250 26/14 A3003 RMK AO2 SLP169 T02560144
LGA,2012-08-21 17:51,-73.8803,40.7794,80.06,55.04,42.16,0.00,0.00,0.00,30.04,1017.10,10.00,M,FEW,BKN,M,M,5500.00,25000.00,M,M,M,M,M,M,M,M,M,80.15,KLGA 211751Z 00000KT 10SM FEW055 BKN250 27/13 A3004 RMK AO2 SLP171 T02670128 10267 20206 53005
LGA,2012-08-21 18:51,-73.8803,40.7794,82.04,51.98,35.34,30.00,4.00,0.00,30.03,1016.70,10.00,M,FEW,BKN,M,M,5500.00,25000.00,M,M,M,M,M,M,M,M,M,82.04,KLGA 211851Z 03004KT 10SM FEW055 BKN250 28/11 A3003 RMK AO2 SLP167 T02780111
LGA,2012-08-21 19:51,-73.8803,40.7794,80.96,53.06,38.08,40.00,6.00,0.00,30.02,1016.40,10.00,18.00,SCT,BKN,M,M,7000.00,25000.00,M,M,M,M,M,M,M,M,M,80.96,KLGA 211951Z 04006G18KT 10SM SCT070 BKN250 27/12 A3002 RMK AO2 SLP164 T02720117
LGA,2012-08-21 20:51,-73.8803,40.7794,80.96,53.96,39.36,50.00,7.00,0.00,30.02,1016.50,10.00,M,SCT,BKN,M,M,7000.00,25000.00,M,M,M,M,M,M,M,M,M,80.96,KLGA 212051Z 05007KT 10SM SCT070 BKN250 27/12 A3002 RMK AO2 SLP165 T02720122 55006
LGA,2012-08-21 21:51,-73.8803,40.7794,78.98,59.00,50.39,M,5.00,0.00,30.02,1016.60,10.00,M,SCT,BKN,M,M,6000.00,25000.00,M,M,M,M,M,M,M,M,M,78.98,KLGA 212151Z VRB05KT 10SM ? SCT060 BKN250 26/15 A3002 RMK AO2 SLP166 T02610150
LGA,2012-08-21 22:51,-73.8803,40.7794,78.98,57.92,48.48,180.00,5.00,0.00,30.03,1016.80,10.00,M,SCT,SCT,BKN,M,5500.00,10000.00,25000.00,M,M,M,M,M,M,M,M,78.98,KLGA 212251Z 18005KT 10SM SCT055 SCT100 BKN250 26/14 A3003 RMK AO2 SLP168 T02610144
LGA,2012-08-21 23:51,-73.8803,40.7794,77.00,60.08,55.91,180.00,9.00,0.00,30.04,1017.10,10.00,M,FEW,SCT,BKN,M,5500.00,10000.00,25000.00,M,M,M,M,M,M,M,M,77.00,KLGA 212351Z 18009KT 10SM FEW055 SCT100 BKN250 25/16 A3004 RMK AO2 SLP171 T02500156 10283 20250 53006
LGA,2012-08-22 00:51,-73.8803,40.7794,75.92,62.06,62.17,190.00,7.00,0.00,30.07,1018.10,10.00,M,SCT,SCT,BKN,M,6500.00,10000.00,25000.00,M,M,M,M,M,M,M,M,75.92,KLGA 220051Z 19007KT 130V220 10SM SCT065 SCT100 BKN250 24/17 A3007 RMK AO2 SLP181 T02440167
LGA,2012-08-22 01:51,-73.8803,40.7794,75.92,60.98,59.84,180.00,6.00,0.00,30.08,1018.60,10.00,M,SCT,BKN,M,M,6500.00,25000.00,M,M,M,M,M,M,M,M,M,75.92,KLGA 220151Z 18006KT 10SM SCT065 BKN250 24/16 A3008 RMK AO2 SLP186 T02440161
LGA,2012-08-22 02:51,-73.8803,40.7794,75.02,60.08,59.72,210.00,6.00,0.00,30.09,1018.90,10.00,M,FEW,OVC,M,M,6500.00,25000.00,M,M,M,M,M,M,M,M,M,75.02,KLGA 220251Z 21006KT 10SM FEW065 OVC250 24/16 A3009 RMK AO2 SLP189 T02390156 51018
LGA,2012-08-22 03:51,-73.8803,40.7794,75.02,57.92,55.28,200.00,6.00,0.00,30.09,1018.80,10.00,M,BKN,M,M,M,25000.00,M,M,M,M,M,M,M,M,M,M,75.02,KLGA 220351Z 20006KT 10SM BKN250 24/14 A3009 RMK AO2 SLP188 T02390144
LGA,2012-08-22 04:51,-73.8803,40.7794,73.94,60.08,61.92,210.00,4.00,0.00,30.08,1018.70,10.00,M,SCT,M,M,M,25000.00,M,M,M,M,M,M,M,M,M,M,73.94,KLGA 220451Z 21004KT 10SM SCT250 23/16 A3008 RMK AO2 SLP187 T02330156 402830206
LGA,2012-08-22 05:51,-73.8803,40.7794,73.94,60.08,61.92,220.00,4.00,0.00,30.09,1018.80,10.00,M,FEW,M,M,M,25000.00,M,M,M,M,M,M,M,M,M,M,73.94,KLGA 220551Z 22004KT 10SM FEW250 23/16 A3009 RMK AO2 SLP188 T02330156 10250 20228 55001
LGA,2012-08-22 06:51,-73.8803,40.7794,73.04,60.98,65.90,230.00,4.00,0.00,30.10,1019.20,10.00,M,FEW,M,M,M,25000.00,M,M,M,M,M,M,M,M,M,M,73.04,KLGA 220651Z 23004KT 10SM FEW250 23/16 A3010 RMK AO2 SLP192 T02280161
LGA,2012-08-22 07:51,-73.8803,40.7794,71.96,62.06,71.01,0.00,0.00,0.00,30.10,1019.10,10.00,M,FEW,M,M,M,25000.00,M,M,M,M,M,M,M,M,M,M,71.96,KLGA 220751Z 00000KT 10SM FEW250 22/17 A3010 RMK AO2 SLP191 T02220167
LGA,2012-08-22 08:51,-73.8803,40.7794,71.96,62.96,73.30,0.00,0.00,0.00,30.09,1018.90,10.00,M,FEW,M,M,M,25000.00,M,M,M,M,M,M,M,M,M,M,71.96,KLGA 220851Z 00000KT 10SM FEW250 22/17 A3009 RMK AO2 SLP189 T02220172 50001
LGA,2012-08-22 09:51,-73.8803,40.7794,71.96,64.04,76.13,0.00,0.00,0.00,30.09,1019.00,10.00,M,CLR,M,M,M,M,M,M,M,M,M,M,M,M,M,M,71.96,KLGA 220951Z 00000KT 10SM CLR 22/18 A3009 RMK AO2 SLP190 T02220178
LGA,2012-08-22 10:51,-73.8803,40.7794,71.96,64.94,78.57,40.00,4.00,0.00,30.10,1019.30,10.00,M,BKN,M,M,M,25000.00,M,M,M,M,M,M,M,M,M,M,71.96,KLGA 221051Z 04004KT 10SM BKN250 22/18 A3010 RMK AO2 SLP193 T02220183
LGA,2012-08-22 11:51,-73.8803,40.7794,71.96,66.02,81.57,70.00,4.00,0.00,30.12,1020.00,9.00,M,FEW,BKN,M,M,6500.00,25000.00,M,M,M,M,M,M,M,M,M,71.96,KLGA 221151Z 07004KT 9SM FEW065 BKN250 22/19 A3012 RMK AO2 SLP200 T02220189 10233 20222 53011
LGA,2012-08-22 12:51,-73.8803,40.7794,75.02,66.02,73.59,40.00,4.00,0.00,30.13,1020.20,9.00,M,FEW,BKN,M,M,7000.00,25000.00,M,M,M,M,M,M,M,M,M,75.02,KLGA 221251Z 04004KT 9SM FEW070 BKN250 24/19 A3013 RMK AO2 SLP202 T02390189
LGA,2012-08-22 13:51,-73.8803,40.7794,78.08,62.96,59.74,0.00,0.00,0.00,30.14,1020.60,10.00,M,FEW,BKN,M,M,7000.00,25000.00,M,M,M,M,M,M,M,M,M,78.08,KLGA 221351Z 00000KT 10SM FEW070 BKN250 26/17 A3014 RMK AO2 SLP206 T02560172
LGA,2012-08-22 14:51,-73.8803,40.7794,80.96,60.08,49.09,50.00,5.00,0.00,30.14,1020.60,10.00,M,SCT,BKN,M,M,6000.00,25000.00,M,M,M,M,M,M,M,M,M,81.59,KLGA 221451Z 05005KT 10SM SCT060TCU BKN250 27/16 A3014 RMK AO2 SLP206 TCU OHD T02720156 51006
LGA,2012-08-22 15:51,-73.8803,40.7794,82.04,59.00,45.60,20.00,4.00,0.00,30.13,1020.40,10.00,M,SCT,BKN,M,M,5000.00,25000.00,M,M,M,M,M,M,M,M,M,82.19,KLGA 221551Z 02004KT 10SM SCT050TCU BKN250 28/15 A3013 RMK AO2 SLP204 TCU SE-SW T02780150
LGA,2012-08-22 16:51,-73.8803,40.7794,80.96,59.00,47.23,170.00,5.00,0.00,30.13,1020.30,10.00,M,SCT,BKN,M,M,7000.00,25000.00,M,M,M,M,M,M,M,M,M,81.38,KLGA 221651Z 17005KT 10SM SCT070TCU BKN250 27/15 A3013 RMK AO2 SLP203 TCU OHD AND S T02720150
LGA,2012-08-22 17:51,-73.8803,40.7794,80.06,60.08,50.55,130.00,15.00,0.00,30.12,1020.00,10.00,18.00,BKN,BKN,BKN,M,7000.00,10000.00,25000.00,M,M,M,M,M,M,M,M,80.91,KLGA 221751Z 13015G18KT 10SM BKN070TCU BKN100 BKN250 27/16 A3012 RMK AO2 SLP200 TCU OHD AND SE T02670156 10278 20222 58005
LGA,2012-08-22 18:51,-73.8803,40.7794,80.96,57.92,45.44,160.00,8.00,0.00,30.11,1019.70,10.00,16.00,SCT,BKN,BKN,M,7000.00,10000.00,25000.00,M,M,M,M,M,M,M,M,81.18,KLGA 221851Z 16008G16KT 10SM SCT070TCU BKN100 BKN250 27/14 A3011 RMK AO2 SLP197 TCU W-OHD-N AND DSNT NE T02720144
LGA,2012-08-22 19:51,-73.8803,40.7794,82.04,57.92,43.87,170.00,10.00,0.00,30.11,1019.50,10.00,M,SCT,BKN,BKN,M,7000.00,10000.00,25000.00,M,M,M,M,M,M,M,M,81.96,KLGA 221951Z 17010KT 10SM SCT070TCU BKN100 BKN250 28/14 A3011 RMK AO2 SLP195 TCU W-N AND DSNT NE T02780144
LGA,2012-08-22 20:51,-73.8803,40.7794,80.96,57.92,45.44,160.00,9.00,0.00,30.11,1019.60,10.00,M,SCT,BKN,BKN,M,6500.00,12000.00,25000.00,M,M,M,M,M,M,M,M,81.18,KLGA 222051Z 16009KT 10SM SCT065CB BKN120 BKN250 27/14 A3011 RMK AO2 SLP196 CB W-N MOV E T02720144 55005
LGA,2012-08-22 21:51,-73.8803,40.7794,78.98,62.06,56.18,180.00,9.00,0.00,30.10,1019.30,10.00,M,FEW,BKN,BKN,M,6500.00,11000.00,25000.00,M,M,M,M,M,M,M,M,78.98,KLGA 222151Z 18009KT 10SM FEW065 BKN110 BKN250 26/17 A3010 RMK AO2 SLP193 TCU DSNT N T02610167
LGA,2012-08-22 22:51,-73.8803,40.7794,78.08,62.06,57.87,170.00,9.00,0.00,30.10,1019.10,10.00,M,FEW,SCT,SCT,M,6500.00,11000.00,25000.00,M,M,M,M,M,M,M,M,78.08,KLGA 222251Z 17009KT 10SM FEW065 SCT110 SCT250 26/17 A3010 RMK AO2 SLP191 T02560167
LGA,2012-08-22 23:51,-73.8803,40.7794,77.00,62.96,61.91,180.00,9.00,0.00,30.10,1019.30,10.00,M,FEW,SCT,M,M,6500.00,25000.00,M,M,M,M,M,M,M,M,M,77.00,KLGA 222351Z 18009KT 10SM FEW065 SCT250 25/17 A3010 RMK AO2 SLP193 T02500172 10283 20244 55002
LGA,2012-08-23 00:51,-73.8803,40.7794,75.92,64.94,68.78,190.00,6.00,0.00,30.12,1020.00,10.00,M,FEW,M,M,M,25000.00,M,M,M,M,M,M,M,M,M,M,75.92,KLGA 230051Z 19006KT 10SM FEW250 24/18 A3012 RMK AO2 SLP200 T02440183
LGA,2012-08-23 01:51,-73.8803,40.7794,75.02,64.04,68.69,190.00,7.00,0.00,30.13,1020.20,10.00,M,FEW,SCT,M,M,12000.00,25000.00,M,M,M,M,M,M,M,M,M,75.02,KLGA 230151Z 19007KT 10SM FEW120 SCT250 24/18 A3013 RMK AO2 SLP202 T02390178
LGA,2012-08-23 02:51,-73.8803,40.7794,75.02,64.94,70.88,200.00,5.00,0.00,30.13,1020.40,10.00,M,FEW,M,M,M,25000.00,M,M,M,M,M,M,M,M,M,M,75.02,KLGA 230251Z 20005KT 10SM FEW250 24/18 A3013 RMK AO2 SLP204 T02390183 51010
LGA,2012-08-23 03:51,-73.8803,40.7794,73.94,64.04,71.22,220.00,3.00,0.00,30.14,1020.60,10.00,M,FEW,M,M,M,25000.00,M,M,M,M,M,M,M,M,M,M,73.94,KLGA 230351Z 22003KT 10SM FEW250 23/18 A3014 RMK AO2 SLP206 T02330178
LGA,2012-08-23 04:51,-73.8803,40.7794,73.94,64.04,71.22,210.00,4.00,0.00,30.13,1020.40,10.00,M,FEW,M,M,M,25000.00,M,M,M,M,M,M,M,M,M,M,73.94,KLGA 230451Z 21004KT 10SM FEW250 23/18 A3013 RMK AO2 SLP204 T02330178 402830222
LGA,2012-08-23 05:51,-73.8803,40.7794,73.94,64.04,71.22,210.00,3.00,0.00,30.13,1020.30,10.00,M,FEW,M,M,M,25000.00,M,M,M,M,M,M,M,M,M,M,73.94,KLGA 230551Z 21003KT 10SM FEW250 23/18 A3013 RMK AO2 SLP203 T02330178 10256 20228 58001
LGA,2012-08-23 06:51,-73.8803,40.7794,73.04,62.96,70.68,200.00,3.00,0.00,30.13,1020.20,10.00,M,FEW,M,M,M,25000.00,M,M,M,M,M,M,M,M,M,M,73.04,KLGA 230651Z 20003KT 10SM FEW250 23/17 A3013 RMK AO2 SLP202 T02280172
LGA,2012-08-23 07:51,-73.8803,40.7794,73.04,62.96,70.68,0.00,0.00,0.00,30.13,1020.30,10.00,M,FEW,M,M,M,25000.00,M,M,M,M,M,M,M,M,M,M,73.04,KLGA 230751Z 00000KT 10SM FEW250 23/17 A3013 RMK AO2 SLP203 T02280172
LGA,2012-08-23 08:51,-73.8803,40.7794,73.04,64.04,73.41,0.00,0.00,0.00,30.13,1020.40,10.00,M,FEW,M,M,M,25000.00,M,M,M,M,M,M,M,M,M,M,73.04,KLGA 230851Z 00000KT 10SM FEW250 23/18 A3013 RMK AO2 SLP204 T02280178 53001
LGA,2012-08-23 09:51,-73.8803,40.7794,73.04,64.94,75.75,310.00,3.00,0.00,30.13,1020.40,10.00,M,SCT,M,M,M,25000.00,M,M,M,M,M,M,M,M,M,M,73.04,KLGA 230951Z 31003KT 10SM SCT250 23/18 A3013 RMK AO2 SLP204 T02280183
LGA,2012-08-23 10:51,-73.8803,40.7794,73.04,64.94,75.75,0.00,0.00,0.00,30.15,1020.80,10.00,M,BKN,M,M,M,25000.00,M,M,M,M,M,M,M,M,M,M,73.04,KLGA 231051Z 00000KT 10SM BKN250 23/18 A3015 RMK AO2 SLP208 T02280183
LGA,2012-08-23 11:51,-73.8803,40.7794,75.02,66.02,73.59,320.00,3.00,0.00,30.15,1020.80,8.00,M,BKN,M,M,M,25000.00,M,M,M,M,M,M,M,M,M,M,75.02,KLGA 231151Z 32003KT 8SM BKN250 24/19 A3015 RMK AO2 SLP208 T02390189 10239 20222 53004
LGA,2012-08-23 12:51,-73.8803,40.7794,75.02,64.04,68.69,M,4.00,0.00,30.16,1021.10,10.00,M,BKN,M,M,M,25000.00,M,M,M,M,M,M,M,M,M,M,75.02,KLGA 231251Z VRB04KT 10SM BKN250 24/18 A3016 RMK AO2 SLP211 T02390178
LGA,2012-08-23 13:51,-73.8803,40.7794,78.08,62.06,57.87,0.00,0.00,0.00,30.16,1021.30,10.00,M,BKN,M,M,M,25000.00,M,M,M,M,M,M,M,M,M,M,78.08,KLGA 231351Z 00000KT 10SM BKN250 26/17 A3016 RMK AO2 SLP213 T02560167
LGA,2012-08-23 14:51,-73.8803,40.7794,80.96,62.06,52.66,M,4.00,0.00,30.16,1021.20,10.00,M,FEW,BKN,M,M,5500.00,25000.00,M,M,M,M,M,M,M,M,M,82.02,KLGA 231451Z VRB04KT 10SM FEW055 BKN250 27/17 A3016 RMK AO2 SLP212 T02720167 50003
LGA,2012-08-23 15:51,-73.8803,40.7794,82.04,62.96,52.47,M,4.00,0.00,30.15,1020.90,10.00,M,FEW,BKN,M,M,5500.00,25000.00,M,M,M,M,M,M,M,M,M,83.19,KLGA 231551Z VRB04KT 10SM FEW055 BKN250 28/17 A3015 RMK AO2 SLP209 T02780172
LGA,2012-08-23 16:51,-73.8803,40.7794,84.02,59.00,42.77,70.00,6.00,0.00,30.13,1020.30,10.00,M,FEW,BKN,M,M,7000.00,25000.00,M,M,M,M,M,M,M,M,M,83.77,KLGA 231651Z 07006KT 10SM FEW070 BKN250 29/15 A3013 RMK AO2 SLP203 T02890150
LGA,2012-08-23 17:51,-73.8803,40.7794,82.94,62.96,50.97,170.00,10.00,0.00,30.12,1020.00,10.00,M,FEW,SCT,BKN,M,6000.00,8000.00,25000.00,M,M,M,M,M,M,M,M,84.00,KLGA 231751Z 17010KT 10SM FEW060TCU SCT080 BKN250 28/17 A3012 RMK AO2 SLP200 TCU OHD T02830172 10294 20233 58012
LGA,2012-08-23 18:51,-73.8803,40.7794,82.94,64.04,52.93,170.00,9.00,0.00,30.11,1019.60,10.00,M,FEW,SCT,BKN,M,6000.00,7500.00,25000.00,M,M,M,M,M,M,M,M,84.37,KLGA 231851Z 17009KT 10SM FEW060 SCT075TCU BKN250 28/18 A3011 RMK AO2 SLP196 TCU E T02830178
LGA,2012-08-23 19:51,-73.8803,40.7794,84.02,59.00,42.77,180.00,9.00,0.00,30.11,1019.40,10.00,M,FEW,SCT,BKN,M,6000.00,8000.00,25000.00,M,M,M,M,M,M,M,M,83.77,KLGA 231951Z 18009KT 10SM FEW060 SCT080 BKN250 29/15 A3011 RMK AO2 SLP194 T02890150
LGA,2012-08-23 20:51,-73.8803,40.7794,82.94,62.06,49.37,160.00,9.00,0.00,30.10,1019.20,10.00,14.00,FEW,SCT,BKN,M,6000.00,8000.00,25000.00,M,M,M,M,M,M,M,M,83.72,KLGA 232051Z 16009G14KT 10SM FEW060 SCT080 BKN250 28/17 A3010 RMK AO2 SLP192 T02830167 56008
LGA,2012-08-23 21:51,-73.8803,40.7794,80.96,62.06,52.66,160.00,10.00,0.00,30.10,1019.40,10.00,M,FEW,BKN,M,M,5500.00,25000.00,M,M,M,M,M,M,M,M,M,82.02,KLGA 232151Z 16010KT 10SM FEW055 BKN250 27/17 A3010 RMK AO2 SLP194 T02720167
LGA,2012-08-23 22:51,-73.8803,40.7794,80.96,60.98,50.68,160.00,8.00,0.00,30.10,1019.30,10.00,M,FEW,SCT,M,M,9000.00,25000.00,M,M,M,M,M,M,M,M,M,81.78,KLGA 232251Z 16008KT 10SM FEW090 SCT250 27/16 A3010 RMK AO2 SLP193 T02720161
LGA,2012-08-23 23:51,-73.8803,40.7794,78.08,62.06,57.87,190.00,10.00,0.00,30.11,1019.50,10.00,M,SCT,M,M,M,25000.00,M,M,M,M,M,M,M,M,M,M,78.08,KLGA 232351Z 19010KT 10SM SCT250 26/17 A3011 RMK AO2 SLP195 T02560167 10294 20256 52003
LGA,2012-08-24 00:51,-73.8803,40.7794,77.00,62.06,59.98,180.00,9.00,0.00,30.12,1019.90,10.00,M,FEW,M,M,M,25000.00,M,M,M,M,M,M,M,M,M,M,77.00,KLGA 240051Z 18009KT 10SM FEW250 25/17 A3012 RMK AO2 SLP199 T02500167
LGA,2012-08-24 01:51,-73.8803,40.7794,77.00,64.94,66.36,190.00,7.00,0.00,30.13,1020.10,10.00,M,SCT,M,M,M,25000.00,M,M,M,M,M,M,M,M,M,M,77.00,KLGA 240151Z 19007KT 10SM SCT250 25/18 A3013 RMK AO2 SLP201 T02500183
LGA,2012-08-24 02:51,-73.8803,40.7794,77.00,64.04,64.30,210.00,6.00,0.00,30.13,1020.30,10.00,M,SCT,M,M,M,25000.00,M,M,M,M,M,M,M,M,M,M,77.00,KLGA 240251Z 21006KT 10SM SCT250 25/18 A3013 RMK AO2 SLP203 T02500178 51008
LGA,2012-08-24 03:51,-73.8803,40.7794,77.00,64.04,64.30,190.00,5.00,0.00,30.13,1020.30,10.00,M,SCT,M,M,M,25000.00,M,M,M,M,M,M,M,M,M,M,77.00,KLGA 240351Z 19005KT 10SM SCT250 25/18 A3013 RMK AO2 SLP203 T02500178
LGA,2012-08-24 04:51,-73.8803,40.7794,75.92,64.04,66.65,210.00,5.00,0.00,30.13,1020.30,10.00,M,BKN,M,M,M,25000.00,M,M,M,M,M,M,M,M,M,M,75.92,KLGA 240451Z 21005KT 10SM BKN250 24/18 A3013 RMK AO2 SLP203 T02440178 402940222
LGA,2012-08-24 05:51,-73.8803,40.7794,75.92,64.04,66.65,210.00,3.00,0.00,30.12,1019.80,10.00,M,BKN,M,M,M,25000.00,M,M,M,M,M,M,M,M,M,M,75.92,KLGA 240551Z 21003KT 10SM BKN250 24/18 A3012 RMK AO2 SLP198 T02440178 10267 20244 58004
LGA,2012-08-24 06:51,-73.8803,40.7794,75.02,64.04,68.69,0.00,0.00,0.00,30.12,1019.90,10.00,M,BKN,M,M,M,25000.00,M,M,M,M,M,M,M,M,M,M,75.02,KLGA 240651Z 00000KT 10SM BKN250 24/18 A3012 RMK AO2 SLP199 T02390178
LGA,2012-08-24 07:51,-73.8803,40.7794,75.02,62.96,66.13,260.00,4.00,0.00,30.11,1019.70,10.00,M,OVC,M,M,M,25000.00,M,M,M,M,M,M,M,M,M,M,75.02,KLGA 240751Z 26004KT 10SM OVC250 24/17 A3011 RMK AO2 SLP197 T02390172
LGA,2012-08-24 08:51,-73.8803,40.7794,73.94,64.04,71.22,0.00,0.00,0.00,30.12,1019.90,10.00,M,OVC,M,M,M,25000.00,M,M,M,M,M,M,M,M,M,M,73.94,KLGA 240851Z 00000KT 10SM OVC250 23/18 A3012 RMK AO2 SLP199 T02330178 53000
LGA,2012-08-24 09:51,-73.8803,40.7794,73.94,66.02,76.31,330.00,3.00,0.00,30.12,1020.10,10.00,M,CLR,M,M,M,M,M,M,M,M,M,M,M,M,M,M,73.94,KLGA 240951Z 33003KT 10SM CLR 23/19 A3012 RMK AO2 SLP201 T02330189
LGA,2012-08-24 10:51,-73.8803,40.7794,73.04,64.94,75.75,0.00,0.00,0.00,30.14,1020.60,8.00,M,BKN,M,M,M,25000.00,M,M,M,M,M,M,M,M,M,M,73.04,KLGA 241051Z 00000KT 8SM BKN250 23/18 A3014 RMK AO2 SLP206 T02280183
LGA,2012-08-24 11:51,-73.8803,40.7794,75.02,64.94,70.88,40.00,3.00,0.00,30.15,1021.00,8.00,M,BKN,M,M,M,25000.00,M,M,M,M,M,M,M,M,M,M,75.02,KLGA 241151Z 04003KT 8SM BKN250 24/18 A3015 RMK AO2 SLP210 T02390183 10244 20228 53011
LGA,2012-08-24 12:51,-73.8803,40.7794,75.92,64.94,68.78,50.00,4.00,0.00,30.16,1021.10,10.00,M,BKN,M,M,M,25000.00,M,M,M,M,M,M,M,M,M,M,75.92,KLGA 241251Z 05004KT 10SM BKN250 24/18 A3016 RMK AO2 SLP211 T02440183
LGA,2012-08-24 13:51,-73.8803,40.7794,77.00,64.04,64.30,60.00,7.00,0.00,30.16,1021.30,10.00,M,FEW,BKN,M,M,8500.00,25000.00,M,M,M,M,M,M,M,M,M,77.00,KLGA 241351Z 06007KT 10SM FEW085 BKN250 25/18 A3016 RMK AO2 SLP213 T02500178
LGA,2012-08-24 14:51,-73.8803,40.7794,78.98,62.06,56.18,50.00,7.00,0.00,30.17,1021.50,10.00,M,OVC,M,M,M,25000.00,M,M,M,M,M,M,M,M,M,M,78.98,KLGA 241451Z 05007KT 10SM OVC250 26/17 A3017 RMK AO2 SLP215 T02610167 53006
LGA,2012-08-24 15:51,-73.8803,40.7794,80.96,60.98,50.68,40.00,7.00,0.00,30.17,1021.50,10.00,M,FEW,OVC,M,M,5500.00,25000.00,M,M,M,M,M,M,M,M,M,81.78,KLGA 241551Z 04007KT 10SM FEW055 OVC250 27/16 A3017 RMK AO2 SLP215 T02720161
LGA,2012-08-24 16:51,-73.8803,40.7794,84.02,62.06,47.68,40.00,7.00,0.00,30.16,1021.20,10.00,M,FEW,OVC,M,M,5500.00,25000.00,M,M,M,M,M,M,M,M,M,84.68,KLGA 241651Z 04007KT 10SM FEW055 OVC250 29/17 A3016 RMK AO2 SLP212 T02890167
LGA,2012-08-24 17:51,-73.8803,40.7794,84.02,59.00,42.77,50.00,8.00,0.00,30.15,1021.00,10.00,M,FEW,OVC,M,M,6000.00,25000.00,M,M,M,M,M,M,M,M,M,83.77,KLGA 241751Z 05008KT 10SM FEW060 OVC250 29/15 A3015 RMK AO2 SLP210 T02890150 10300 20239 58005
LGA,2012-08-24 18:51,-73.8803,40.7794,86.00,57.02,37.38,50.00,9.00,0.00,30.14,1020.60,10.00,M,FEW,OVC,M,M,6000.00,25000.00,M,M,M,M,M,M,M,M,M,86.00,KLGA 241851Z 05009KT 10SM FEW060 OVC250 30/14 A3014 RMK AO2 SLP206 T03000139
LGA,2012-08-24 19:51,-73.8803,40.7794,84.92,55.04,36.02,50.00,8.00,0.00,30.13,1020.40,10.00,M,SCT,BKN,M,M,6000.00,25000.00,M,M,M,M,M,M,M,M,M,84.92,KLGA 241951Z 05008KT 10SM SCT060 BKN250 29/13 A3013 RMK AO2 SLP204 T02940128
LGA,2012-08-24 20:51,-73.8803,40.7794,84.92,60.08,43.18,150.00,6.00,0.00,30.13,1020.30,10.00,M,FEW,BKN,M,M,6000.00,26000.00,M,M,M,M,M,M,M,M,M,84.84,KLGA 242051Z 15006KT 10SM FEW060 BKN260 29/16 A3013 RMK AO2 SLP203 T02940156 56007
LGA,2012-08-24 21:51,-73.8803,40.7794,84.92,60.08,43.18,190.00,6.00,0.00,30.13,1020.40,10.00,M,FEW,BKN,M,M,5500.00,26000.00,M,M,M,M,M,M,M,M,M,84.84,KLGA 242151Z 19006KT 10SM FEW055 BKN260 29/16 A3013 RMK AO2 SLP204 T02940156
LGA,2012-08-24 22:51,-73.8803,40.7794,82.04,60.08,47.39,180.00,7.00,0.00,30.14,1020.40,10.00,M,FEW,BKN,M,M,5500.00,26000.00,M,M,M,M,M,M,M,M,M,82.43,KLGA 242251Z 18007KT 10SM FEW055 BKN260 28/16 A3014 RMK AO2 SLP204 T02780156
LGA,2012-08-24 23:51,-73.8803,40.7794,80.06,62.96,55.97,170.00,8.00,0.00,30.15,1020.80,10.00,M,FEW,BKN,M,M,10000.00,26000.00,M,M,M,M,M,M,M,M,M,81.45,KLGA 242351Z 17008KT 10SM FEW100 BKN260 27/17 A3015 RMK AO2 SLP208 T02670172 10306 20267 53004
LGA,2012-08-25 00:51,-73.8803,40.7794,78.98,66.02,64.54,160.00,5.00,0.00,30.16,1021.30,10.00,M,FEW,BKN,M,M,10000.00,25000.00,M,M,M,M,M,M,M,M,M,78.98,KLGA 250051Z 16005KT 10SM FEW100 BKN250 26/19 A3016 RMK AO2 SLP213 T02610189
LGA,2012-08-25 01:51,-73.8803,40.7794,78.08,64.04,62.05,200.00,6.00,0.00,30.17,1021.70,10.00,M,FEW,BKN,M,M,12000.00,26000.00,M,M,M,M,M,M,M,M,M,78.08,KLGA 250151Z 20006KT 10SM FEW120 BKN260 26/18 A3017 RMK AO2 SLP217 T02560178
LGA,2012-08-25 02:51,-73.8803,40.7794,77.00,66.02,68.90,180.00,4.00,0.00,30.17,1021.70,10.00,M,SCT,BKN,M,M,12000.00,25000.00,M,M,M,M,M,M,M,M,M,77.00,KLGA 250251Z 18004KT 10SM SCT120 BKN250 25/19 A3017 RMK AO2 SLP217 T02500189 51009
LGA,2012-08-25 03:51,-73.8803,40.7794,77.00,66.92,71.08,190.00,3.00,0.00,30.18,1021.90,10.00,M,BKN,BKN,M,M,13000.00,25000.00,M,M,M,M,M,M,M,M,M,77.00,KLGA 250351Z 19003KT 10SM BKN130 BKN250 25/19 A3018 RMK AO2 SLP219 T02500194
LGA,2012-08-25 04:51,-73.8803,40.7794,77.00,66.92,71.08,150.00,3.00,0.00,30.18,1021.90,10.00,M,BKN,BKN,M,M,13000.00,25000.00,M,M,M,M,M,M,M,M,M,77.00,KLGA 250451Z 15003KT 10SM BKN130 BKN250 25/19 A3018 RMK AO2 SLP219 T02500194 403060228
LGA,2012-08-25 05:51,-73.8803,40.7794,75.92,68.00,76.48,0.00,0.00,0.00,30.19,1022.20,10.00,M,FEW,BKN,M,M,14000.00,24000.00,M,M,M,M,M,M,M,M,M,75.92,KLGA 250551Z 00000KT 10SM FEW140 BKN240 24/20 A3019 RMK AO2 SLP222 T02440200 10267 20244 53005
LGA,2012-08-25 06:51,-73.8803,40.7794,77.00,66.92,71.08,180.00,3.00,0.00,30.19,1022.20,10.00,M,BKN,M,M,M,22000.00,M,M,M,M,M,M,M,M,M,M,77.00,KLGA 250651Z 18003KT 10SM BKN220 25/19 A3019 RMK AO2 SLP222 T02500194
LGA,2012-08-25 07:51,-73.8803,40.7794,77.00,66.02,68.90,0.00,0.00,0.00,30.19,1022.40,10.00,M,BKN,M,M,M,22000.00,M,M,M,M,M,M,M,M,M,M,77.00,KLGA 250751Z 00000KT 10SM BKN220 25/19 A3019 RMK AO2 SLP224 T02500189
LGA,2012-08-25 08:51,-73.8803,40.7794,73.94,71.06,90.73,60.00,6.00,0.00,30.19,1022.40,7.00,M,BKN,M,M,M,22000.00,M,M,M,M,M,M,M,M,M,M,73.94,KLGA 250851Z 06006KT 7SM BKN220 23/22 A3019 RMK AO2 SLP224 T02330217 52003
LGA,2012-08-25 09:51,-73.8803,40.7794,73.04,71.06,93.52,50.00,5.00,0.00,30.21,1022.80,5.00,M,BKN,M,M,M,22000.00,M,M,M,BR,M,M,M,M,M,M,73.04,KLGA 250951Z 05005KT 5SM BR BKN220 23/22 A3021 RMK AO2 SLP228 T02280217
LGA,2012-08-25 10:51,-73.8803,40.7794,73.04,71.06,93.52,50.00,6.00,0.00,30.22,1023.30,6.00,M,BKN,M,M,M,20000.00,M,M,M,BR,M,M,M,M,M,M,73.04,KLGA 251051Z 05006KT 6SM BR BKN200 23/22 A3022 RMK AO2 SLP233 T02280217
LGA,2012-08-25 11:51,-73.8803,40.7794,73.94,69.08,84.80,50.00,6.00,0.00,30.23,1023.70,8.00,M,BKN,M,M,M,20000.00,M,M,M,M,M,M,M,M,M,M,73.94,KLGA 251151Z 05006KT 8SM BKN200 23/21 A3023 RMK AO2 SLP237 T02330206 10250 20228 53013
LGA,2012-08-25 12:49,-73.8803,40.7794,75.20,71.60,88.59,50.00,8.00,0.00,30.25,M,5.00,M,FEW,SCT,BKN,M,800.00,7000.00,20000.00,M,BR,M,M,M,M,M,M,75.20,KLGA 251249Z 05008KT 5SM BR FEW008 SCT070 BKN200 24/22 A3025 RMK AO2
LGA,2012-08-25 12:51,-73.8803,40.7794,75.02,71.06,87.50,50.00,8.00,0.00,30.25,1024.30,5.00,M,FEW,SCT,BKN,M,800.00,7000.00,20000.00,M,BR,M,M,M,M,M,M,75.02,KLGA 251251Z 05008KT 5SM BR FEW008 SCT070 BKN200 24/22 A3025 RMK AO2 SLP243 T02390217
LGA,2012-08-25 13:51,-73.8803,40.7794,78.08,71.06,79.05,40.00,6.00,0.00,30.26,1024.50,6.00,M,FEW,BKN,BKN,M,1500.00,20000.00,25000.00,M,HZ,M,M,M,M,M,M,78.08,KLGA 251351Z 04006KT 6SM HZ FEW015 BKN200 BKN250 26/22 A3026 RMK AO2 SLP245 T02560217
LGA,2012-08-25 14:51,-73.8803,40.7794,78.98,69.98,73.97,40.00,8.00,0.00,30.26,1024.80,9.00,M,FEW,SCT,SCT,BKN,1500.00,13000.00,20000.00,25000.00,M,M,M,M,M,M,M,78.98,KLGA 251451Z 04008KT 9SM FEW015 SCT130 SCT200 BKN250 26/21 A3026 RMK AO2 SLP248 T02610211 51010
LGA,2012-08-25 15:51,-73.8803,40.7794,78.98,69.98,73.97,50.00,12.00,0.00,30.25,1024.50,10.00,M,FEW,SCT,SCT,BKN,1500.00,13000.00,20000.00,25000.00,M,M,M,M,M,M,M,78.98,KLGA 251551Z 05012KT 10SM FEW015 SCT130 SCT200 BKN250 26/21 A3025 RMK AO2 SLP245 T02610211
LGA,2012-08-25 16:51,-73.8803,40.7794,78.08,69.98,76.19,50.00,14.00,0.00,30.25,1024.20,9.00,M,SCT,BKN,BKN,M,4000.00,15000.00,25000.00,M,M,M,M,M,M,M,M,78.08,KLGA 251651Z 05014KT 9SM SCT040 BKN150 BKN250 26/21 A3025 RMK AO2 SLP242 T02560211
LGA,2012-08-25 17:51,-73.8803,40.7794,78.98,69.98,73.97,50.00,13.00,0.00,30.24,1024.10,10.00,M,SCT,BKN,BKN,M,4000.00,15000.00,25000.00,M,M,M,M,M,M,M,M,78.98,KLGA 251751Z 05013KT 10SM SCT040 BKN150 BKN250 26/21 A3024 RMK AO2 SLP241 T02610211 10267 20233 56007
LGA,2012-08-25 18:51,-73.8803,40.7794,78.08,69.98,76.19,50.00,12.00,0.00,30.24,1024.10,10.00,M,SCT,BKN,BKN,M,4600.00,19000.00,26000.00,M,M,M,M,M,M,M,M,78.08,KLGA 251851Z 05012KT 10SM SCT046 BKN190 BKN260 26/21 A3024 RMK AO2 SLP241 CB DSNT SW TCU DSNT NE-N T02560211
LGA,2012-08-25 19:51,-73.8803,40.7794,80.96,64.04,56.45,110.00,7.00,0.00,30.24,1023.90,10.00,M,FEW,BKN,BKN,M,4400.00,16000.00,19000.00,M,M,M,M,M,M,M,M,82.52,KLGA 251951Z 11007KT 070V140 10SM FEW044 BKN160 BKN190 27/18 A3024 RMK AO2 SLP239 CB DSNT W T02720178
LGA,2012-08-25 20:51,-73.8803,40.7794,82.04,59.00,45.60,110.00,11.00,0.00,30.24,1023.90,10.00,M,FEW,BKN,BKN,M,4500.00,16000.00,19000.00,M,M,M,M,M,M,M,M,82.19,KLGA 252051Z 11011KT 10SM FEW045 BKN160 BKN190 28/15 A3024 RMK AO2 SLP239 T02780150 58001
LGA,2012-08-25 21:51,-73.8803,40.7794,80.06,62.06,54.23,130.00,9.00,0.00,30.25,1024.30,10.00,M,FEW,BKN,BKN,M,5000.00,18000.00,23000.00,M,M,M,M,M,M,M,M,81.27,KLGA 252151Z 13009KT 10SM FEW050 BKN180 BKN230 27/17 A3025 RMK AO2 SLP243 T02670167
LGA,2012-08-25 22:51,-73.8803,40.7794,78.98,62.06,56.18,120.00,10.00,0.00,30.25,1024.40,10.00,M,FEW,BKN,BKN,M,12000.00,17000.00,21000.00,M,M,M,M,M,M,M,M,78.98,KLGA 252251Z 12010KT 10SM FEW120 BKN170 BKN210 26/17 A3025 RMK AO2 SLP244 T02610167
LGA,2012-08-25 23:51,-73.8803,40.7794,77.00,62.06,59.98,100.00,10.00,0.00,30.27,1025.00,10.00,M,FEW,BKN,BKN,M,12000.00,21000.00,24000.00,M,M,M,M,M,M,M,M,77.00,KLGA 252351Z 10010KT 10SM FEW120 BKN210 BKN240 25/17 A3027 RMK AO2 SLP250 T02500167 10289 20250 53011
LGA,2012-08-26 00:51,-73.8803,40.7794,75.92,60.08,57.96,90.00,8.00,0.00,30.28,1025.30,10.00,M,SCT,BKN,M,M,15000.00,24000.00,M,M,M,M,M,M,M,M,M,75.92,KLGA 260051Z 09008KT 10SM SCT150 BKN240 24/16 A3028 RMK AO2 SLP253 T02440156
LGA,2012-08-26 01:51,-73.8803,40.7794,73.94,60.08,61.92,80.00,6.00,0.00,30.28,1025.20,10.00,M,FEW,SCT,M,M,13000.00,25000.00,M,M,M,M,M,M,M,M,M,73.94,KLGA 260151Z 08006KT 10SM FEW130 SCT250 23/16 A3028 RMK AO2 SLP252 T02330156
LGA,2012-08-26 02:51,-73.8803,40.7794,73.04,62.06,68.47,70.00,6.00,0.00,30.27,1025.00,10.00,M,FEW,SCT,M,M,13000.00,25000.00,M,M,M,M,M,M,M,M,M,73.04,KLGA 260251Z 07006KT 10SM FEW130 SCT250 23/17 A3027 RMK AO2 SLP250 T02280167 50000
LGA,2012-08-26 03:51,-73.8803,40.7794,71.96,62.06,71.01,50.00,6.00,0.00,30.27,1025.10,10.00,M,FEW,SCT,M,M,13000.00,25000.00,M,M,M,M,M,M,M,M,M,71.96,KLGA 260351Z 05006KT 10SM FEW130 SCT250 22/17 A3027 RMK AO2 SLP251 T02220167
LGA,2012-08-26 04:51,-73.8803,40.7794,71.06,62.96,75.57,60.00,5.00,0.00,30.28,1025.20,10.00,M,FEW,SCT,M,M,13000.00,25000.00,M,M,M,M,M,M,M,M,M,71.06,KLGA 260451Z 06005KT 10SM FEW130 SCT250 22/17 A3028 RMK AO2 SLP252 T02170172 402890217
LGA,2012-08-26 05:51,-73.8803,40.7794,71.06,64.04,78.49,50.00,8.00,0.00,30.27,1024.80,10.00,M,FEW,SCT,M,M,13000.00,25000.00,M,M,M,M,M,M,M,M,M,71.06,KLGA 260551Z 05008KT 10SM FEW130 SCT250 22/18 A3027 RMK AO2 SLP248 T02170178 10250 20217 58002
LGA,2012-08-26 06:51,-73.8803,40.7794,71.06,62.96,75.57,50.00,7.00,0.00,30.27,1024.90,10.00,M,FEW,M,M,M,25000.00,M,M,M,M,M,M,M,M,M,M,71.06,KLGA 260651Z 05007KT 10SM FEW250 22/17 A3027 RMK AO2 SLP249 T02170172
LGA,2012-08-26 07:51,-73.8803,40.7794,71.06,64.04,78.49,60.00,10.00,0.00,30.27,1024.80,10.00,M,FEW,SCT,M,M,13000.00,25000.00,M,M,M,M,M,M,M,M,M,71.06,KLGA 260751Z 06010KT 10SM FEW130 SCT250 22/18 A3027 RMK AO2 SLP248 T02170178
LGA,2012-08-26 08:51,-73.8803,40.7794,69.98,64.94,84.04,70.00,7.00,0.00,30.28,1025.20,10.00,M,FEW,SCT,M,M,14000.00,25000.00,M,M,M,M,M,M,M,M,M,69.98,KLGA 260851Z 07007KT 10SM FEW140 SCT250 21/18 A3028 RMK AO2 SLP252 T02110183 53003
LGA,2012-08-26 09:51,-73.8803,40.7794,69.98,64.94,84.04,80.00,7.00,0.00,30.28,1025.30,10.00,M,FEW,SCT,SCT,M,2000.00,14000.00,20000.00,M,M,M,M,M,M,M,M,69.98,KLGA 260951Z 08007KT 10SM FEW020 SCT140 SCT200 21/18 A3028 RMK AO2 SLP253 T02110183
LGA,2012-08-26 10:51,-73.8803,40.7794,69.98,64.94,84.04,70.00,10.00,0.00,30.28,1025.40,10.00,M,FEW,SCT,SCT,M,1400.00,10000.00,25000.00,M,M,M,M,M,M,M,M,69.98,KLGA 261051Z 07010KT 10SM FEW014 SCT100 SCT250 21/18 A3028 RMK AO2 SLP254 T02110183
LGA,2012-08-26 11:51,-73.8803,40.7794,71.06,64.94,81.00,90.00,8.00,0.00,30.30,1026.10,10.00,M,SCT,SCT,BKN,M,1500.00,10000.00,23000.00,M,M,M,M,M,M,M,M,71.06,KLGA 261151Z 09008KT 10SM SCT015 SCT100 BKN230 22/18 A3030 RMK AO2 SLP261 T02170183 10217 20211 53009
LGA,2012-08-26 12:51,-73.8803,40.7794,73.04,64.94,75.75,60.00,8.00,0.00,30.31,1026.40,10.00,M,SCT,SCT,BKN,M,1600.00,9000.00,22000.00,M,M,M,M,M,M,M,M,73.04,KLGA 261251Z 06008KT 10SM SCT016 SCT090 BKN220 23/18 A3031 RMK AO2 SLP264 T02280183
LGA,2012-08-26 13:51,-73.8803,40.7794,75.02,64.94,70.88,40.00,7.00,0.00,30.32,1026.60,10.00,M,FEW,SCT,SCT,BKN,1200.00,12000.00,19000.00,25000.00,M,M,M,M,M,M,M,75.02,KLGA 261351Z 04007KT 10SM FEW012 SCT120 SCT190 BKN250 24/18 A3032 RMK AO2 SLP266 T02390183
LGA,2012-08-26 14:51,-73.8803,40.7794,75.02,64.94,70.88,40.00,9.00,0.00,30.32,1026.70,10.00,M,FEW,SCT,SCT,BKN,1500.00,2600.00,11000.00,15000.00,M,M,M,M,M,M,M,75.02,KLGA 261451Z 04009KT 10SM FEW015 SCT026 SCT110 BKN150 BKN250 24/18 A3032 RMK AO2 SLP267 T02390183 51006
LGA,2012-08-26 15:51,-73.8803,40.7794,75.92,64.94,68.78,50.00,10.00,0.00,30.31,1026.40,10.00,M,FEW,SCT,SCT,BKN,1700.00,2400.00,11000.00,17000.00,M,M,M,M,M,M,M,75.92,KLGA 261551Z 05010KT 10SM FEW017 SCT024 SCT110 BKN170 BKN250 24/18 A3031 RMK AO2 SLP264 T02440183
LGA,2012-08-26 16:51,-73.8803,40.7794,77.00,66.02,68.90,40.00,11.00,0.00,30.29,1025.70,10.00,M,FEW,SCT,SCT,BKN,2000.00,2600.00,17000.00,25000.00,M,M,M,M,M,M,M,77.00,KLGA 261651Z 04011KT 10SM FEW020 SCT026 SCT170 BKN250 25/19 A3029 RMK AO2 SLP257 T02500189
LGA,2012-08-26 17:51,-73.8803,40.7794,78.98,66.02,64.54,50.00,10.00,0.00,30.27,1025.10,10.00,M,FEW,SCT,BKN,M,2900.00,17000.00,25000.00,M,M,M,M,M,M,M,M,78.98,KLGA 261751Z 05010KT 10SM FEW029 SCT170 BKN250 26/19 A3027 RMK AO2 SLP251 T02610189 10261 20217 58016
LGA,2012-08-26 18:51,-73.8803,40.7794,80.06,66.02,62.29,60.00,11.00,0.00,30.25,1024.50,10.00,M,FEW,SCT,BKN,M,3000.00,15000.00,25000.00,M,M,M,M,M,M,M,M,82.14,KLGA 261851Z 06011KT 10SM FEW030 SCT150 BKN250 27/19 A3025 RMK AO2 SLP245 T02670189
LGA,2012-08-26 19:51,-73.8803,40.7794,78.98,66.02,64.54,50.00,11.00,0.00,30.24,1023.90,10.00,20.00,FEW,SCT,BKN,M,3000.00,15000.00,25000.00,M,M,M,M,M,M,M,M,78.98,KLGA 261951Z 05011G20KT 10SM FEW030 SCT150 BKN250 26/19 A3024 RMK AO2 SLP239 T02610189
LGA,2012-08-26 20:51,-73.8803,40.7794,82.04,62.06,50.84,130.00,8.00,0.00,30.24,1024.10,10.00,15.00,SCT,BKN,BKN,M,3000.00,15000.00,25000.00,M,M,M,M,M,M,M,M,82.94,KLGA 262051Z 13008G15KT 10SM SCT030 BKN150 BKN250 28/17 A3024 RMK AO2 SLP241 T02780167 55010
LGA,2012-08-26 21:51,-73.8803,40.7794,78.08,62.96,59.74,160.00,9.00,0.00,30.24,1023.80,10.00,M,FEW,SCT,BKN,M,3000.00,11000.00,25000.00,M,M,M,M,M,M,M,M,78.08,KLGA 262151Z 16009KT 10SM FEW030 SCT110 BKN250 26/17 A3024 RMK AO2 SLP238 T02560172
LGA,2012-08-26 22:51,-73.8803,40.7794,75.92,64.94,68.78,150.00,9.00,0.00,30.24,1024.00,10.00,16.00,SCT,SCT,BKN,M,2500.00,11000.00,22000.00,M,M,M,M,M,M,M,M,75.92,KLGA 262251Z 15009G16KT 10SM SCT025 SCT110 BKN220 24/18 A3024 RMK AO2 SLP240 T02440183
LGA,2012-08-26 23:51,-73.8803,40.7794,77.00,64.94,66.36,130.00,8.00,0.00,30.24,1023.90,10.00,M,FEW,SCT,SCT,M,2500.00,11000.00,22000.00,M,M,M,M,M,M,M,M,77.00,KLGA 262351Z 13008KT 10SM FEW025 SCT110 SCT220 25/18 A3024 RMK AO2 SLP239 T02500183 10278 20244 56002
LGA,2012-08-27 00:51,-73.8803,40.7794,75.02,64.04,68.69,M,6.00,0.00,30.25,1024.30,10.00,M,FEW,SCT,BKN,M,2500.00,11000.00,22000.00,M,M,M,M,M,M,M,M,75.02,KLGA 270051Z VRB06KT 10SM FEW025 SCT110 BKN220 24/18 A3025 RMK AO2 SLP243 T02390178 $
LGA,2012-08-27 01:51,-73.8803,40.7794,73.94,64.04,71.22,120.00,7.00,0.00,30.24,1023.90,10.00,M,FEW,SCT,SCT,M,2500.00,11000.00,22000.00,M,M,M,M,M,M,M,M,73.94,KLGA 270151Z 12007KT 10SM FEW025 SCT110 SCT220 23/18 A3024 RMK AO2 SLP239 T02330178 $
LGA,2012-08-27 02:51,-73.8803,40.7794,73.04,64.04,73.41,130.00,6.00,0.00,30.23,1023.70,10.00,M,FEW,BKN,M,M,2500.00,12000.00,M,M,M,M,M,M,M,M,M,73.04,KLGA 270251Z 13006KT 10SM FEW025 BKN120 23/18 A3023 RMK AO2 SLP237 T02280178 58002 $
LGA,2012-08-27 03:51,-73.8803,40.7794,73.04,64.04,73.41,140.00,6.00,0.00,30.23,1023.50,10.00,M,FEW,BKN,M,M,2500.00,12000.00,M,M,M,M,M,M,M,M,M,73.04,KLGA 270351Z 14006KT 10SM FEW025 BKN120 23/18 A3023 RMK AO2 SLP235 T02280178 $
LGA,2012-08-27 04:51,-73.8803,40.7794,73.04,64.94,75.75,140.00,6.00,0.00,30.21,1023.10,10.00,M,FEW,BKN,M,M,2000.00,12000.00,M,M,M,M,M,M,M,M,M,73.04,KLGA 270451Z 14006KT 10SM FEW020 BKN120 23/18 A3021 RMK AO2 SLP231 T02280183 402780211 $
LGA,2012-08-27 05:51,-73.8803,40.7794,73.04,66.02,78.65,120.00,5.00,0.00,30.18,1022.10,10.00,M,FEW,BKN,M,M,2000.00,12000.00,M,M,M,M,M,M,M,M,M,73.04,KLGA 270551Z 12005KT 10SM FEW020 BKN120 23/19 A3018 RMK AO2 SLP221 T02280189 10250 20228 58016 $
LGA,2012-08-27 06:51,-73.8803,40.7794,73.04,66.02,78.65,130.00,5.00,0.00,30.17,1021.70,10.00,M,FEW,BKN,M,M,1500.00,12000.00,M,M,M,M,M,M,M,M,M,73.04,KLGA 270651Z 13005KT 10SM FEW015 BKN120 23/19 A3017 RMK AO2 SLP217 T02280189 $
LGA,2012-08-27 07:51,-73.8803,40.7794,73.04,66.92,81.14,90.00,3.00,0.00,30.16,1021.30,10.00,M,SCT,BKN,M,M,1700.00,11000.00,M,M,M,M,M,M,M,M,M,73.04,KLGA 270751Z 09003KT 10SM SCT017 BKN110 23/19 A3016 RMK AO2 SLP213 T02280194 $
LGA,2012-08-27 08:51,-73.8803,40.7794,73.04,68.00,84.22,70.00,4.00,0.00,30.16,1021.30,10.00,M,SCT,SCT,BKN,M,1700.00,2300.00,11000.00,M,M,M,M,M,M,M,M,73.04,KLGA 270851Z 07004KT 10SM SCT017 SCT023 BKN110 23/20 A3016 RMK AO2 SLP213 T02280200 55008 $
LGA,2012-08-27 09:00,-73.8803,40.7794,73.40,68.00,83.21,60.00,3.00,0.00,30.16,M,10.00,M,BKN,M,M,M,1500.00,M,M,M,M,M,M,M,M,M,M,73.40,KLGA 270900Z 06003KT 10SM BKN015 23/20 A3016 RMK AO2 $
LGA,2012-08-27 09:51,-73.8803,40.7794,73.04,68.00,84.22,90.00,5.00,0.00,30.16,1021.20,10.00,M,BKN,BKN,M,M,1500.00,15000.00,M,M,M,M,M,M,M,M,M,73.04,KLGA 270951Z 09005KT 10SM BKN015 BKN150 23/20 A3016 RMK AO2 SLP212 T02280200 $
LGA,2012-08-27 10:00,-73.8803,40.7794,73.40,68.00,83.21,80.00,5.00,0.00,30.16,M,10.00,M,SCT,SCT,BKN,M,1700.00,2300.00,15000.00,M,M,M,M,M,M,M,M,73.40,KLGA 271000Z 08005KT 10SM SCT017 SCT023 BKN150 23/20 A3016 RMK AO2 $
LGA,2012-08-27 10:51,-73.8803,40.7794,73.04,69.08,87.41,M,4.00,0.00,30.17,1021.70,10.00,M,SCT,BKN,M,M,1700.00,15000.00,M,M,M,M,M,M,M,M,M,73.04,KLGA 271051Z VRB04KT 10SM SCT017 BKN150 23/21 A3017 RMK AO2 SLP217 T02280206 $
LGA,2012-08-27 11:51,-73.8803,40.7794,75.02,69.98,84.34,60.00,5.00,0.00,30.17,1021.80,10.00,M,FEW,SCT,SCT,M,1700.00,2800.00,15000.00,M,M,M,M,M,M,M,M,75.02,KLGA 271151Z 06005KT 10SM FEW017 SCT028 SCT150 24/21 A3017 RMK AO2 SLP218 T02390211 10239 20222 53005 $
LGA,2012-08-27 12:51,-73.8803,40.7794,77.00,68.00,73.78,190.00,6.00,0.00,30.16,1021.40,10.00,M,FEW,SCT,SCT,M,1700.00,2300.00,15000.00,M,M,M,M,M,M,M,M,77.00,KLGA 271251Z 19006KT 10SM FEW017 SCT023 SCT150 25/20 A3016 RMK AO2 SLP214 T02500200 $
LGA,2012-08-27 13:51,-73.8803,40.7794,80.06,66.02,62.29,M,6.00,0.00,30.15,1021.00,10.00,M,FEW,BKN,M,M,2500.00,17000.00,M,M,M,M,M,M,M,M,M,82.14,KLGA 271351Z VRB06KT 10SM FEW025 BKN170 27/19 A3015 RMK AO2 SLP210 T02670189
LGA,2012-08-27 14:51,-73.8803,40.7794,80.96,66.92,62.40,180.00,8.00,0.00,30.15,1020.80,10.00,M,FEW,BKN,M,M,2800.00,14000.00,M,M,M,M,M,M,M,M,M,83.36,KLGA 271451Z 18008KT 150V210 10SM FEW028 BKN140 27/19 A3015 RMK AO2 SLP208 T02720194 56010
LGA,2012-08-27 15:51,-73.8803,40.7794,80.06,69.08,69.23,160.00,9.00,0.00,30.12,1020.00,10.00,M,FEW,SCT,BKN,M,2700.00,3500.00,15000.00,M,M,M,M,M,M,M,M,82.95,KLGA 271551Z 16009KT 10SM FEW027 SCT035 BKN150 27/21 A3012 RMK AO2 SLP200 T02670206
LGA,2012-08-27 16:34,-73.8803,40.7794,78.80,69.80,73.95,210.00,23.00,0.00,30.13,M,0.25,33.00,FEW,BKN,OVC,M,700.00,2100.00,4100.00,M,+RA,M,M,M,33.00,200.00,2012-08-27 16:32,78.80,KLGA 271634Z 21023G33KT 1/4SM R04/1600VP6000FT +RA FEW007 BKN021 OVC041 26/21 A3013 RMK AO2 PK WND 20033/1632 RAB21 P0000
LGA,2012-08-27 16:47,-73.8803,40.7794,71.60,69.80,94.06,160.00,12.00,0.64,30.12,M,3.00,18.00,FEW,BKN,BKN,OVC,700.00,2100.00,4100.00,14000.00,RA BR,M,M,M,33.00,200.00,2012-08-27 16:32,71.60,KLGA 271647Z 16012G18KT 3SM R04/1800VP6000FT RA BR FEW007 BKN021 BKN041 OVC140 22/21 A3012 RMK AO2 PK WND 20033/1632 RAB21 P0064
LGA,2012-08-27 16:51,-73.8803,40.7794,71.96,68.00,87.35,190.00,10.00,0.65,30.12,1019.80,7.00,18.00,FEW,BKN,BKN,OVC,800.00,2100.00,4100.00,14000.00,-RA,M,M,M,33.00,200.00,2012-08-27 16:32,71.96,KLGA 271651Z 19010G18KT 7SM R04/5000VP6000FT -RA FEW008 BKN021 BKN041 OVC140 22/20 A3012 RMK AO2 PK WND 20033/1632 RAB21 SLP198 P0065 T02220200
LGA,2012-08-27 17:03,-73.8803,40.7794,71.60,68.00,88.43,170.00,7.00,0.02,30.11,M,7.00,M,FEW,SCT,BKN,BKN,800.00,4000.00,9000.00,25000.00,RA,M,M,M,M,M,M,71.60,KLGA 271703Z 17007KT 7SM RA FEW008 SCT040 BKN090 BKN250 22/20 A3011 RMK AO2 P0002
LGA,2012-08-27 17:51,-73.8803,40.7794,71.96,69.98,93.49,180.00,6.00,0.09,30.10,1019.30,7.00,M,FEW,SCT,BKN,BKN,1000.00,2800.00,11000.00,25000.00,RA,M,M,M,M,M,M,71.96,KLGA 271751Z 18006KT 7SM RA FEW010 SCT028 BKN110 BKN250 22/21 A3010 RMK AO2 SLP193 P0009 60074 T02220211 10283 20217 58007
LGA,2012-08-27 18:51,-73.8803,40.7794,75.92,69.98,81.85,180.00,11.00,0.03,30.07,1018.30,10.00,M,FEW,SCT,SCT,BKN,1000.00,3000.00,9000.00,25000.00,M,M,M,M,M,M,M,75.92,KLGA 271851Z 18011KT 10SM FEW010 SCT030 SCT090 BKN250 24/21 A3007 RMK AO2 RAE09 SLP183 P0003 T02440211
LGA,2012-08-27 19:51,-73.8803,40.7794,78.98,69.08,71.72,170.00,9.00,0.00,30.03,1017.00,10.00,M,FEW,SCT,SCT,BKN,1000.00,3000.00,9500.00,25000.00,M,M,M,M,M,M,M,78.98,KLGA 271951Z 17009KT 10SM FEW010 SCT030 SCT095 BKN250 26/21 A3003 RMK AO2 SLP170 T02610206
LGA,2012-08-27 20:51,-73.8803,40.7794,80.06,71.06,74.07,170.00,15.00,0.00,30.02,1016.40,10.00,19.00,FEW,SCT,SCT,BKN,2500.00,5000.00,15000.00,25000.00,M,M,M,M,M,M,M,83.56,KLGA 272051Z 17015G19KT 10SM FEW025 SCT050 SCT150 BKN250 27/22 A3002 RMK AO2 SLP164 60003 T02670217 56028
LGA,2012-08-27 21:51,-73.8803,40.7794,80.06,71.06,74.07,180.00,9.00,0.00,30.01,1016.10,10.00,M,FEW,SCT,BKN,BKN,2000.00,7500.00,11000.00,15000.00,M,M,M,M,M,M,M,83.56,KLGA 272151Z 18009KT 10SM FEW020 SCT075 BKN110 BKN150 27/22 A3001 RMK AO2 SLP161 T02670217
LGA,2012-08-27 22:51,-73.8803,40.7794,78.08,71.06,79.05,180.00,10.00,0.00,29.99,1015.40,10.00,M,FEW,SCT,BKN,M,2000.00,15000.00,25000.00,M,M,M,M,M,M,M,M,78.08,KLGA 272251Z 18010KT 10SM FEW020 SCT150 BKN250 26/22 A2999 RMK AO2 SLP154 T02560217
LGA,2012-08-27 23:51,-73.8803,40.7794,77.00,71.96,84.46,180.00,7.00,0.00,29.99,1015.50,10.00,M,FEW,SCT,SCT,BKN,2000.00,5000.00,15000.00,25000.00,M,M,M,M,M,M,M,77.00,KLGA 272351Z 18007KT 10SM FEW020 SCT050 SCT150 BKN250 25/22 A2999 RMK AO2 SLP155 60003 T02500222 10278 20222 55009
LGA,2012-08-28 00:35,-73.8803,40.7794,78.80,73.40,83.55,190.00,9.00,0.00,29.99,M,10.00,M,BKN,M,M,M,1000.00,M,M,M,M,M,M,M,M,M,M,78.80,KLGA 280035Z 19009KT 10SM BKN010 26/23 A2999 RMK AO2
LGA,2012-08-28 00:51,-73.8803,40.7794,78.08,73.94,87.12,180.00,8.00,0.00,29.99,1015.40,10.00,M,BKN,M,M,M,1000.00,M,M,M,M,M,M,M,M,M,M,78.08,KLGA 280051Z 18008KT 10SM BKN010 26/23 A2999 RMK AO2 SLP154 T02560233
LGA,2012-08-28 01:15,-73.8803,40.7794,78.80,73.40,83.55,190.00,9.00,0.00,29.98,M,10.00,M,SCT,M,M,M,1000.00,M,M,M,M,M,M,M,M,M,M,78.80,KLGA 280115Z 19009KT 10SM SCT010 26/23 A2998 RMK AO2
LGA,2012-08-28 01:51,-73.8803,40.7794,78.08,73.94,87.12,180.00,7.00,0.00,29.97,1014.80,10.00,M,SCT,SCT,BKN,M,1000.00,8000.00,25000.00,M,M,M,M,M,M,M,M,78.08,KLGA 280151Z 18007KT 10SM SCT010 SCT080 BKN250 26/23 A2997 RMK AO2 SLP148 T02560233
LGA,2012-08-28 02:51,-73.8803,40.7794,78.08,73.04,84.53,210.00,10.00,0.00,29.96,1014.50,10.00,M,SCT,SCT,BKN,BKN,1000.00,8000.00,14000.00,25000.00,M,M,M,M,M,M,M,78.08,KLGA 280251Z 21010KT 10SM SCT010 SCT080 BKN140 BKN250 26/23 A2996 RMK AO2 SLP145 T02560228 58010
LGA,2012-08-28 03:51,-73.8803,40.7794,77.00,73.04,87.60,220.00,6.00,0.00,29.95,1014.20,10.00,M,FEW,SCT,SCT,BKN,1000.00,3300.00,8000.00,14000.00,M,M,M,M,M,M,M,77.00,KLGA 280351Z 22006KT 10SM FEW010 SCT033 SCT080 BKN140 BKN250 25/23 A2995 RMK AO2 SLP142 T02500228
LGA,2012-08-28 04:51,-73.8803,40.7794,78.08,71.96,81.50,210.00,9.00,0.00,29.93,1013.50,10.00,M,FEW,SCT,BKN,BKN,1000.00,3300.00,13000.00,23000.00,M,M,M,M,M,M,M,78.08,KLGA 280451Z 21009KT 10SM FEW010 SCT033 BKN130 BKN230 26/22 A2993 RMK AO2 SLP135 T02560222 402830217
LGA,2012-08-28 05:51,-73.8803,40.7794,77.00,71.96,84.46,220.00,8.00,0.00,29.91,1012.90,10.00,M,SCT,SCT,BKN,M,1000.00,8000.00,20000.00,M,M,M,M,M,M,M,M,77.00,KLGA 280551Z 22008KT 10SM SCT010 SCT080 BKN200 25/22 A2991 RMK AO2 SLP129 T02500222 10256 20250 58016
LGA,2012-08-28 06:51,-73.8803,40.7794,77.00,71.96,84.46,220.00,8.00,0.00,29.90,1012.30,10.00,M,FEW,SCT,BKN,M,1000.00,8000.00,20000.00,M,M,M,M,M,M,M,M,77.00,KLGA 280651Z 22008KT 10SM FEW010 SCT080 BKN200 25/22 A2990 RMK AO2 SLP123 T02500222
LGA,2012-08-28 07:51,-73.8803,40.7794,75.92,73.04,90.80,220.00,8.00,0.00,29.87,1011.60,10.00,M,FEW,SCT,BKN,M,1000.00,10000.00,20000.00,M,-RA,M,M,M,M,M,M,75.92,KLGA 280751Z 22008KT 10SM -RA FEW010 SCT100 BKN200 24/23 A2987 RMK AO2 RAB19 SLP116 P0000 T02440228
LGA,2012-08-28 08:51,-73.8803,40.7794,75.92,73.04,90.80,210.00,8.00,0.00,29.86,1011.10,10.00,M,FEW,BKN,OVC,M,1000.00,11000.00,20000.00,M,M,M,M,M,M,M,M,75.92,KLGA 280851Z 21008KT 10SM FEW010 BKN110 OVC200 24/23 A2986 RMK AO2 RAE28 SLP111 P0000 60000 T02440228 56019
LGA,2012-08-28 09:51,-73.8803,40.7794,75.92,73.04,90.80,210.00,9.00,0.01,29.86,1011.00,10.00,M,SCT,SCT,BKN,OVC,1000.00,7500.00,10000.00,20000.00,-RA,M,M,M,M,M,M,75.92,KLGA 280951Z 21009KT 10SM -RA SCT010 SCT075 BKN100 OVC200 24/23 A2986 RMK AO2 RAB0853 SLP110 P0001 T02440228
LGA,2012-08-28 10:36,-73.8803,40.7794,75.20,73.40,94.14,210.00,6.00,0.08,29.86,M,3.00,M,SCT,BKN,OVC,M,1300.00,2700.00,7000.00,M,RA BR,M,M,M,M,M,M,75.20,KLGA 281036Z 21006KT 3SM RA BR SCT013 BKN027 OVC070 24/23 A2986 RMK AO2 SFC VIS 4 P0008
LGA,2012-08-28 10:51,-73.8803,40.7794,75.02,73.04,93.57,210.00,7.00,0.10,29.85,1010.90,6.00,M,BKN,BKN,OVC,M,1700.00,4900.00,10000.00,M,RA BR,M,M,M,M,M,M,75.02,KLGA 281051Z 21007KT 6SM RA BR BKN017 BKN049 OVC100 24/23 A2985 RMK AO2 SLP109 P0010 T02390228
LGA,2012-08-28 11:51,-73.8803,40.7794,75.92,73.04,90.80,240.00,14.00,0.02,29.85,1010.80,10.00,21.00,BKN,BKN,BKN,M,1700.00,5500.00,7000.00,M,M,M,M,M,M,M,M,75.92,KLGA 281151Z 24014G21KT 10SM BKN017 BKN055 BKN070 24/23 A2985 RMK AO2 RAE34 SLP108 P0002 60013 70090 T02440228 10250 20239 58003
LGA,2012-08-28 12:24,-73.8803,40.7794,77.00,71.60,83.44,250.00,12.00,0.00,29.85,M,10.00,23.00,SCT,SCT,BKN,BKN,1700.00,2300.00,6000.00,15000.00,M,M,M,M,M,M,M,77.00,KLGA 281224Z 25012G23KT 10SM SCT017 SCT023 BKN060 BKN150 25/22 A2985 RMK AO2
LGA,2012-08-28 12:46,-73.8803,40.7794,78.80,71.60,78.62,240.00,16.00,0.00,29.84,M,10.00,M,FEW,BKN,BKN,BKN,1700.00,2300.00,6000.00,15000.00,M,M,M,M,M,M,M,78.80,KLGA 281246Z 24016KT 10SM FEW017 BKN023 BKN060 BKN150 26/22 A2984 RMK AO2
LGA,2012-08-28 12:51,-73.8803,40.7794,78.08,71.06,79.05,250.00,12.00,0.00,29.84,1010.60,10.00,19.00,BKN,BKN,BKN,M,2100.00,6000.00,15000.00,M,M,M,M,M,M,M,M,78.08,KLGA 281251Z 25012G19KT 10SM BKN021 BKN060 BKN150 26/22 A2984 RMK AO2 SLP106 T02560217
LGA,2012-08-28 13:16,-73.8803,40.7794,78.80,71.60,78.62,260.00,16.00,0.00,29.84,M,10.00,22.00,FEW,SCT,BKN,M,1800.00,2400.00,10000.00,M,M,M,M,M,M,M,M,78.80,KLGA 281316Z 26016G22KT 10SM FEW018 SCT024 BKN100 26/22 A2984 RMK AO2
LGA,2012-08-28 13:51,-73.8803,40.7794,78.08,69.98,76.19,260.00,13.00,0.00,29.85,1010.60,10.00,M,FEW,BKN,BKN,M,2200.00,6000.00,10000.00,M,M,M,M,M,M,M,M,78.08,KLGA 281351Z 26013KT 10SM FEW022 BKN060 BKN100 26/21 A2985 RMK AO2 SLP106 T02560211
LGA,2012-08-28 14:51,-73.8803,40.7794,80.06,68.00,66.70,320.00,10.00,0.00,29.85,1010.70,10.00,M,SCT,BKN,M,M,2400.00,3000.00,M,M,M,M,M,M,M,M,M,82.65,KLGA 281451Z 32010KT 10SM SCT024 BKN030 27/20 A2985 RMK AO2 SLP107 T02670200 55000
LGA,2012-08-28 15:51,-73.8803,40.7794,82.04,66.02,58.40,310.00,11.00,0.00,29.84,1010.40,10.00,19.00,SCT,M,M,M,3700.00,M,M,M,M,M,M,M,M,M,M,84.19,KLGA 281551Z 31011G19KT 10SM SCT037 28/19 A2984 RMK AO2 SLP104 T02780189
LGA,2012-08-28 16:51,-73.8803,40.7794,84.02,64.94,52.75,300.00,12.00,0.00,29.83,1010.00,10.00,21.00,SCT,M,M,M,4300.00,M,M,M,M,M,M,M,M,M,M,85.76,KLGA 281651Z 30012G21KT 10SM SCT043 29/18 A2983 RMK AO2 SLP100 T02890183
LGA,2012-08-28 17:51,-73.8803,40.7794,86.00,60.98,43.07,330.00,11.00,0.00,29.81,1009.30,10.00,21.00,FEW,M,M,M,4800.00,M,M,M,M,M,M,M,M,M,M,86.11,KLGA 281751Z 33011G21KT 10SM FEW048 30/16 A2981 RMK AO2 SLP093 T03000161 10300 20244 58014
LGA,2012-08-28 18:51,-73.8803,40.7794,86.00,60.08,41.71,330.00,14.00,0.00,29.79,1008.70,10.00,M,FEW,M,M,M,4800.00,M,M,M,M,M,M,M,M,M,M,85.81,KLGA 281851Z 33014KT 10SM FEW048 30/16 A2979 RMK AO2 SLP087 T03000156
LGA,2012-08-28 19:51,-73.8803,40.7794,87.08,62.06,43.23,330.00,12.00,0.00,29.79,1008.80,10.00,M,SCT,SCT,M,M,6000.00,7500.00,M,M,M,M,M,M,M,M,M,87.55,KLGA 281951Z 33012KT 10SM SCT060 SCT075 31/17 A2979 RMK AO2 SLP088 T03060167
LGA,2012-08-28 20:51,-73.8803,40.7794,86.00,59.00,40.14,340.00,14.00,0.00,29.80,1009.10,10.00,21.00,SCT,M,M,M,6500.00,M,M,M,M,M,M,M,M,M,M,85.47,KLGA 282051Z 34014G21KT 10SM SCT065 30/15 A2980 RMK AO2 SLP091 T03000150 55002
LGA,2012-08-28 21:51,-73.8803,40.7794,84.92,57.92,39.97,310.00,13.00,0.00,29.81,1009.40,10.00,M,FEW,M,M,M,6500.00,M,M,M,M,M,M,M,M,M,M,84.92,KLGA 282151Z 31013KT 10SM FEW065 29/14 A2981 RMK AO2 SLP094 T02940144
LGA,2012-08-28 22:51,-73.8803,40.7794,84.02,59.00,42.77,300.00,12.00,0.00,29.82,1009.70,10.00,17.00,FEW,M,M,M,6500.00,M,M,M,M,M,M,M,M,M,M,83.77,KLGA 282251Z 30012G17KT 10SM FEW065 29/15 A2982 RMK AO2 SLP097 T02890150
LGA,2012-08-28 23:51,-73.8803,40.7794,82.04,60.08,47.39,310.00,14.00,0.00,29.83,1010.20,10.00,M,FEW,SCT,M,M,6000.00,25000.00,M,M,M,M,M,M,M,M,M,82.43,KLGA 282351Z 31014KT 10SM FEW060 SCT250 28/16 A2983 RMK AO2 SLP102 T02780156 10306 20278 53010
LGA,2012-08-29 00:51,-73.8803,40.7794,82.04,60.98,48.93,320.00,12.00,0.00,29.85,1010.90,10.00,M,FEW,M,M,M,6000.00,M,M,M,M,M,M,M,M,M,M,82.65,KLGA 290051Z 32012KT 10SM FEW060 28/16 A2985 RMK AO2 SLP109 T02780161
LGA,2012-08-29 01:51,-73.8803,40.7794,80.06,62.06,54.23,310.00,10.00,0.00,29.88,1011.70,10.00,M,FEW,M,M,M,6000.00,M,M,M,M,M,M,M,M,M,M,81.27,KLGA 290151Z 31010KT 10SM FEW060 27/17 A2988 RMK AO2 SLP117 T02670167
LGA,2012-08-29 02:51,-73.8803,40.7794,78.08,60.98,55.70,330.00,10.00,0.00,29.89,1012.00,10.00,M,FEW,M,M,M,9500.00,M,M,M,M,M,M,M,M,M,M,78.08,KLGA 290251Z 33010KT 10SM FEW095 26/16 A2989 RMK AO2 SLP120 T02560161 51019
LGA,2012-08-29 03:51,-73.8803,40.7794,77.00,60.98,57.73,340.00,9.00,0.00,29.90,1012.30,10.00,M,FEW,M,M,M,9000.00,M,M,M,M,M,M,M,M,M,M,77.00,KLGA 290351Z 34009KT 10SM FEW090 25/16 A2990 RMK AO2 SLP123 T02500161
LGA,2012-08-29 04:51,-73.8803,40.7794,75.02,60.08,59.72,330.00,7.00,0.00,29.90,1012.50,10.00,M,FEW,M,M,M,9000.00,M,M,M,M,M,M,M,M,M,M,75.02,KLGA 290451Z 33007KT 10SM FEW090 24/16 A2990 RMK AO2 SLP125 T02390156 403060239
LGA,2012-08-29 05:51,-73.8803,40.7794,73.94,59.00,59.58,340.00,9.00,0.00,29.90,1012.50,10.00,M,FEW,M,M,M,9000.00,M,M,M,M,M,M,M,M,M,M,73.94,KLGA 290551Z 34009KT 10SM FEW090 23/15 A2990 RMK AO2 SLP125 T02330150 10278 20233 51004
LGA,2012-08-29 06:51,-73.8803,40.7794,73.04,59.00,61.41,330.00,10.00,0.00,29.90,1012.40,10.00,M,FEW,M,M,M,9000.00,M,M,M,M,M,M,M,M,M,M,73.04,KLGA 290651Z 33010KT 10SM FEW090 23/15 A2990 RMK AO2 SLP124 T02280150
LGA,2012-08-29 07:51,-73.8803,40.7794,71.06,60.08,68.25,330.00,9.00,0.00,29.90,1012.40,10.00,M,CLR,M,M,M,M,M,M,M,M,M,M,M,M,M,M,71.06,KLGA 290751Z 33009KT 10SM CLR 22/16 A2990 RMK AO2 SLP124 T02170156
LGA,2012-08-29 08:51,-73.8803,40.7794,71.06,59.00,65.67,10.00,7.00,0.00,29.91,1012.60,10.00,M,CLR,M,M,M,M,M,M,M,M,M,M,M,M,M,M,71.06,KLGA 290851Z 01007KT 10SM CLR 22/15 A2991 RMK AO2 SLP126 T02170150 53001
LGA,2012-08-29 09:51,-73.8803,40.7794,69.08,57.02,65.44,20.00,9.00,0.00,29.92,1013.20,10.00,M,FEW,M,M,M,9000.00,M,M,M,M,M,M,M,M,M,M,69.08,KLGA 290951Z 02009KT 10SM FEW090 21/14 A2992 RMK AO2 SLP132 T02060139
LGA,2012-08-29 10:51,-73.8803,40.7794,68.00,55.04,63.21,10.00,8.00,0.00,29.95,1014.30,10.00,M,CLR,M,M,M,M,M,M,M,M,M,M,M,M,M,M,68.00,KLGA 291051Z 01008KT 10SM CLR 20/13 A2995 RMK AO2 SLP143 T02000128
LGA,2012-08-29 11:51,-73.8803,40.7794,69.08,53.06,56.66,20.00,10.00,0.00,29.98,1015.20,10.00,M,CLR,M,M,M,M,M,M,M,M,M,M,M,M,M,M,69.08,KLGA 291151Z 02010KT 10SM CLR 21/12 A2998 RMK AO2 SLP152 T02060117 10233 20200 53026
LGA,2012-08-29 12:51,-73.8803,40.7794,69.98,51.98,52.80,20.00,13.00,0.00,29.99,1015.70,10.00,M,CLR,M,M,M,M,M,M,M,M,M,M,M,M,M,M,69.98,KLGA 291251Z 02013KT 10SM CLR 21/11 A2999 RMK AO2 SLP157 T02110111
LGA,2012-08-29 13:51,-73.8803,40.7794,71.96,50.00,45.87,50.00,10.00,0.00,30.00,1015.70,10.00,M,CLR,M,M,M,M,M,M,M,M,M,M,M,M,M,M,71.96,KLGA 291351Z 05010KT 10SM CLR 22/10 A3000 RMK AO2 SLP157 T02220100
LGA,2012-08-29 14:51,-73.8803,40.7794,73.94,48.92,41.21,40.00,11.00,0.00,30.00,1015.80,10.00,M,FEW,M,M,M,6500.00,M,M,M,M,M,M,M,M,M,M,73.94,KLGA 291451Z 04011KT 10SM FEW065 23/09 A3000 RMK AO2 SLP158 T02330094 51005
LGA,2012-08-29 15:51,-73.8803,40.7794,73.94,48.92,41.21,10.00,13.00,0.00,30.00,1015.80,10.00,M,FEW,M,M,M,6500.00,M,M,M,M,M,M,M,M,M,M,73.94,KLGA 291551Z 01013KT 10SM FEW065 23/09 A3000 RMK AO2 SLP158 T02330094
LGA,2012-08-29 16:51,-73.8803,40.7794,75.02,48.92,39.75,360.00,9.00,0.00,29.99,1015.60,10.00,M,FEW,M,M,M,6500.00,M,M,M,M,M,M,M,M,M,M,75.02,KLGA 291651Z 36009KT 10SM FEW065 24/09 A2999 RMK AO2 SLP156 T02390094
LGA,2012-08-29 17:51,-73.8803,40.7794,75.92,50.00,40.16,350.00,7.00,0.00,29.98,1015.20,10.00,M,FEW,M,M,M,6500.00,M,M,M,M,M,M,M,M,M,M,75.92,KLGA 291751Z 35007KT 10SM FEW065 24/10 A2998 RMK AO2 SLP152 T02440100 10244 20206 58006
LGA,2012-08-29 18:51,-73.8803,40.7794,78.08,48.92,35.91,M,5.00,0.00,29.96,1014.60,10.00,M,FEW,M,M,M,6500.00,M,M,M,M,M,M,M,M,M,M,78.08,KLGA 291851Z VRB05KT 10SM FEW065 26/09 A2996 RMK AO2 SLP146 T02560094
LGA,2012-08-29 19:51,-73.8803,40.7794,78.98,50.00,36.29,350.00,7.00,0.00,29.95,1014.10,10.00,M,CLR,M,M,M,M,M,M,M,M,M,M,M,M,M,M,78.98,KLGA 291951Z 35007KT 10SM CLR 26/10 A2995 RMK AO2 SLP141 T02610100
LGA,2012-08-29 20:51,-73.8803,40.7794,78.98,51.08,37.78,340.00,4.00,0.00,29.94,1014.00,10.00,M,FEW,M,M,M,6500.00,M,M,M,M,M,M,M,M,M,M,78.98,KLGA 292051Z 34004KT 10SM FEW065 26/11 A2994 RMK AO2 SLP140 T02610106 56012
LGA,2012-08-29 21:51,-73.8803,40.7794,80.06,51.98,37.69,350.00,3.00,0.00,29.94,1013.90,10.00,M,BKN,M,M,M,6500.00,M,M,M,M,M,M,M,M,M,M,80.06,KLGA 292151Z 35003KT 10SM BKN065 27/11 A2994 RMK AO2 SLP139 T02670111
LGA,2012-08-29 22:51,-73.8803,40.7794,78.98,51.08,37.78,320.00,8.00,0.00,29.94,1013.90,10.00,M,BKN,M,M,M,6500.00,M,M,M,M,M,M,M,M,M,M,78.98,KLGA 292251Z 32008KT 280V350 10SM BKN065 26/11 A2994 RMK AO2 SLP139 T02610106
LGA,2012-08-29 23:51,-73.8803,40.7794,75.92,53.96,46.47,0.00,0.00,0.00,29.96,1014.60,10.00,M,FEW,M,M,M,6500.00,M,M,M,M,M,M,M,M,M,M,75.92,KLGA 292351Z 00000KT 10SM FEW065 24/12 A2996 RMK AO2 SLP146 T02440122 10267 20244 53006
LGA,2012-08-30 00:51,-73.8803,40.7794,75.02,51.98,44.53,110.00,5.00,0.00,29.98,1015.20,10.00,M,BKN,M,M,M,6500.00,M,M,M,M,M,M,M,M,M,M,75.02,KLGA 300051Z 11005KT 10SM BKN065 24/11 A2998 RMK AO2 SLP152 T02390111
LGA,2012-08-30 01:51,-73.8803,40.7794,75.92,51.08,41.80,0.00,0.00,0.00,29.99,1015.60,10.00,M,FEW,M,M,M,6500.00,M,M,M,M,M,M,M,M,M,M,75.92,KLGA 300151Z 00000KT 10SM FEW065 24/11 A2999 RMK AO2 SLP156 T02440106
LGA,2012-08-30 02:51,-73.8803,40.7794,75.02,51.98,44.53,330.00,6.00,0.00,30.00,1016.00,10.00,M,FEW,M,M,M,10000.00,M,M,M,M,M,M,M,M,M,M,75.02,KLGA 300251Z 33006KT 10SM FEW100 24/11 A3000 RMK AO2 SLP160 T02390111 51014
LGA,2012-08-30 03:51,-73.8803,40.7794,73.94,51.08,44.66,340.00,5.00,0.00,30.01,1016.20,10.00,M,FEW,M,M,M,10000.00,M,M,M,M,M,M,M,M,M,M,73.94,KLGA 300351Z 34005KT 10SM FEW100 23/11 A3001 RMK AO2 SLP162 T02330106
LGA,2012-08-30 04:51,-73.8803,40.7794,73.04,51.98,47.59,300.00,6.00,0.00,30.02,1016.40,10.00,M,FEW,M,M,M,6000.00,M,M,M,M,M,M,M,M,M,M,73.04,KLGA 300451Z 30006KT 10SM FEW060 23/11 A3002 RMK AO2 SLP164 T02280111 402670200
LGA,2012-08-30 05:51,-73.8803,40.7794,71.06,53.96,54.73,330.00,7.00,0.00,30.01,1016.30,10.00,M,FEW,M,M,M,6000.00,M,M,M,M,M,M,M,M,M,M,71.06,KLGA 300551Z 33007KT 10SM FEW060 22/12 A3001 RMK AO2 SLP163 T02170122 10244 20217 50003
LGA,2012-08-30 06:51,-73.8803,40.7794,69.08,53.96,58.56,320.00,5.00,0.00,30.02,1016.40,10.00,M,CLR,M,M,M,M,M,M,M,M,M,M,M,M,M,M,69.08,KLGA 300651Z 32005KT 10SM CLR 21/12 A3002 RMK AO2 SLP164 T02060122
LGA,2012-08-30 07:51,-73.8803,40.7794,69.08,55.04,60.91,0.00,0.00,0.00,30.02,1016.60,10.00,M,CLR,M,M,M,M,M,M,M,M,M,M,M,M,M,M,69.08,KLGA 300751Z 00000KT 10SM CLR 21/13 A3002 RMK AO2 SLP166 T02060128
LGA,2012-08-30 08:51,-73.8803,40.7794,68.00,57.02,67.91,280.00,6.00,0.00,30.03,1016.70,10.00,M,CLR,M,M,M,M,M,M,M,M,M,M,M,M,M,M,68.00,KLGA 300851Z 28006KT 10SM CLR 20/14 A3003 RMK AO2 SLP167 T02000139 53004
LGA,2012-08-30 09:51,-73.8803,40.7794,66.92,55.04,65.61,290.00,3.00,0.00,30.03,1017.00,10.00,M,CLR,M,M,M,M,M,M,M,M,M,M,M,M,M,M,66.92,KLGA 300951Z 29003KT 10SM CLR 19/13 A3003 RMK AO2 SLP170 T01940128
LGA,2012-08-30 10:51,-73.8803,40.7794,68.00,55.94,65.31,0.00,0.00,0.00,30.07,1018.10,10.00,M,CLR,M,M,M,M,M,M,M,M,M,M,M,M,M,M,68.00,KLGA 301051Z 00000KT 10SM CLR 20/13 A3007 RMK AO2 SLP181 T02000133
LGA,2012-08-30 11:51,-73.8803,40.7794,69.08,53.06,56.66,300.00,6.00,0.00,30.08,1018.50,10.00,M,CLR,M,M,M,M,M,M,M,M,M,M,M,M,M,M,69.08,KLGA 301151Z 30006KT 10SM CLR 21/12 A3008 RMK AO2 SLP185 T02060117 10217 20189 53018
LGA,2012-08-30 12:51,-73.8803,40.7794,71.96,51.98,49.36,320.00,8.00,0.00,30.09,1018.80,10.00,M,CLR,M,M,M,M,M,M,M,M,M,M,M,M,M,M,71.96,KLGA 301251Z 32008KT 10SM CLR 22/11 A3009 RMK AO2 SLP188 T02220111
LGA,2012-08-30 13:51,-73.8803,40.7794,73.04,51.98,47.59,320.00,8.00,0.00,30.09,1019.00,10.00,M,FEW,M,M,M,25000.00,M,M,M,M,M,M,M,M,M,M,73.04,KLGA 301351Z 32008KT 10SM FEW250 23/11 A3009 RMK AO2 SLP190 T02280111
LGA,2012-08-30 14:51,-73.8803,40.7794,75.02,50.00,41.38,290.00,6.00,0.00,30.10,1019.20,10.00,M,CLR,M,M,M,M,M,M,M,M,M,M,M,M,M,M,75.02,KLGA 301451Z 29006KT 10SM CLR 24/10 A3010 RMK AO2 SLP192 T02390100 51007
LGA,2012-08-30 15:51,-73.8803,40.7794,77.00,46.04,33.39,300.00,9.00,0.00,30.10,1019.10,10.00,M,CLR,M,M,M,M,M,M,M,M,M,M,M,M,M,M,77.00,KLGA 301551Z 30009KT 10SM CLR 25/08 A3010 RMK AO2 SLP191 T02500078
LGA,2012-08-30 16:51,-73.8803,40.7794,78.98,48.02,33.70,M,5.00,0.00,30.09,1018.80,10.00,M,CLR,M,M,M,M,M,M,M,M,M,M,M,M,M,M,78.98,KLGA 301651Z VRB05KT 10SM CLR 26/09 A3009 RMK AO2 SLP188 T02610089
LGA,2012-08-30 17:51,-73.8803,40.7794,80.96,44.96,28.14,300.00,5.00,0.00,30.08,1018.40,10.00,M,CLR,M,M,M,M,M,M,M,M,M,M,M,M,M,M,80.96,KLGA 301751Z 30005KT 10SM CLR 27/07 A3008 RMK AO2 SLP184 T02720072 10272 20206 58008
LGA,2012-08-30 18:51,-73.8803,40.7794,82.04,42.98,25.19,250.00,6.00,0.00,30.06,1017.90,10.00,M,CLR,M,M,M,M,M,M,M,M,M,M,M,M,M,M,82.04,KLGA 301851Z 25006KT 10SM CLR 28/06 A3006 RMK AO2 SLP179 T02780061
LGA,2012-08-30 19:51,-73.8803,40.7794,84.02,41.00,21.89,270.00,9.00,0.00,30.04,1017.30,10.00,M,CLR,M,M,M,M,M,M,M,M,M,M,M,M,M,M,84.02,KLGA 301951Z 27009KT 10SM CLR 29/05 A3004 RMK AO2 SLP173 T02890050
LGA,2012-08-30 20:51,-73.8803,40.7794,84.92,44.06,23.92,260.00,9.00,0.00,30.04,1017.30,10.00,M,CLR,M,M,M,M,M,M,M,M,M,M,M,M,M,M,84.92,KLGA 302051Z 26009KT 10SM CLR 29/07 A3004 RMK AO2 SLP173 T02940067 55010
LGA,2012-08-30 21:51,-73.8803,40.7794,84.02,46.04,26.55,270.00,7.00,0.00,30.05,1017.50,10.00,M,FEW,M,M,M,25000.00,M,M,M,M,M,M,M,M,M,M,84.02,KLGA 302151Z 27007KT 10SM FEW250 29/08 A3005 RMK AO2 SLP175 T02890078
LGA,2012-08-30 22:51,-73.8803,40.7794,82.94,50.00,31.89,250.00,8.00,0.00,30.04,1017.30,10.00,M,FEW,M,M,M,25000.00,M,M,M,M,M,M,M,M,M,M,82.94,KLGA 302251Z 25008KT 10SM FEW250 28/10 A3004 RMK AO2 SLP173 T02830100
LGA,2012-08-30 23:51,-73.8803,40.7794,82.04,50.00,32.84,250.00,9.00,0.00,30.05,1017.40,10.00,M,SCT,M,M,M,25000.00,M,M,M,M,M,M,M,M,M,M,82.04,KLGA 302351Z 25009KT 10SM SCT250 28/10 A3005 RMK AO2 SLP174 T02780100 10294 20272 52001
LGA,2012-08-31 00:51,-73.8803,40.7794,80.96,51.98,36.60,230.00,6.00,0.00,30.05,1017.60,10.00,M,FEW,M,M,M,25000.00,M,M,M,M,M,M,M,M,M,M,80.96,KLGA 310051Z 23006KT 10SM FEW250 27/11 A3005 RMK AO2 SLP176 T02720111
LGA,2012-08-31 01:51,-73.8803,40.7794,80.06,55.04,42.16,240.00,7.00,0.00,30.05,1017.70,10.00,M,CLR,M,M,M,M,M,M,M,M,M,M,M,M,M,M,80.15,KLGA 310151Z 24007KT 10SM CLR 27/13 A3005 RMK AO2 SLP177 T02670128
LGA,2012-08-31 02:51,-73.8803,40.7794,78.98,55.04,43.68,240.00,7.00,0.00,30.05,1017.50,10.00,M,CLR,M,M,M,M,M,M,M,M,M,M,M,M,M,M,78.98,KLGA 310251Z 24007KT 10SM CLR 26/13 A3005 RMK AO2 SLP175 T02610128 50001
LGA,2012-08-31 03:51,-73.8803,40.7794,78.08,55.94,46.49,230.00,5.00,0.00,30.04,1017.20,10.00,M,CLR,M,M,M,M,M,M,M,M,M,M,M,M,M,M,78.08,KLGA 310351Z 23005KT 10SM CLR 26/13 A3004 RMK AO2 SLP172 T02560133
LGA,2012-08-31 04:51,-73.8803,40.7794,78.08,55.94,46.49,260.00,8.00,0.00,30.05,1017.40,10.00,M,FEW,M,M,M,25000.00,M,M,M,M,M,M,M,M,M,M,78.08,KLGA 310451Z 26008KT 10SM FEW250 26/13 A3005 RMK AO2 SLP174 T02560133 402940189
LGA,2012-08-31 05:51,-73.8803,40.7794,77.00,55.04,46.64,260.00,6.00,0.00,30.05,1017.50,10.00,M,FEW,M,M,M,25000.00,M,M,M,M,M,M,M,M,M,M,77.00,KLGA 310551Z 26006KT 10SM FEW250 25/13 A3005 RMK AO2 SLP175 T02500128 10278 20250 53001
LGA,2012-08-31 06:51,-73.8803,40.7794,75.92,55.04,48.34,260.00,8.00,0.00,30.05,1017.60,10.00,M,CLR,M,M,M,M,M,M,M,M,M,M,M,M,M,M,75.92,KLGA 310651Z 26008KT 10SM CLR 24/13 A3005 RMK AO2 SLP176 T02440128
LGA,2012-08-31 07:51,-73.8803,40.7794,73.04,57.02,57.20,200.00,5.00,0.00,30.04,1017.30,10.00,M,CLR,M,M,M,M,M,M,M,M,M,M,M,M,M,M,73.04,KLGA 310751Z 20005KT 10SM CLR 23/14 A3004 RMK AO2 SLP173 T02280139
LGA,2012-08-31 08:51,-73.8803,40.7794,73.04,57.92,59.08,220.00,3.00,0.00,30.03,1017.00,10.00,M,CLR,M,M,M,M,M,M,M,M,M,M,M,M,M,M,73.04,KLGA 310851Z 22003KT 10SM CLR 23/14 A3003 RMK AO2 SLP170 T02280144 58005
LGA,2012-08-31 09:51,-73.8803,40.7794,73.94,60.98,63.94,240.00,6.00,0.00,30.04,1017.20,10.00,M,FEW,M,M,M,25000.00,M,M,M,M,M,M,M,M,M,M,73.94,KLGA 310951Z 24006KT 10SM FEW250 23/16 A3004 RMK AO2 SLP172 T02330161
LGA,2012-08-31 10:51,-73.8803,40.7794,73.04,62.06,68.47,230.00,6.00,0.00,30.05,1017.50,10.00,M,SCT,M,M,M,25000.00,M,M,M,M,M,M,M,M,M,M,73.04,KLGA 311051Z 23006KT 10SM SCT250 23/17 A3005 RMK AO2 SLP175 T02280167
LGA,2012-08-31 11:51,-73.8803,40.7794,75.02,60.98,61.66,220.00,8.00,0.00,30.05,1017.40,10.00,M,SCT,M,M,M,25000.00,M,M,M,M,M,M,M,M,M,M,75.02,KLGA 311151Z 22008KT 10SM SCT250 24/16 A3005 RMK AO2 SLP174 T02390161 10250 20222 50004
LGA,2012-08-31 12:51,-73.8803,40.7794,80.06,60.98,52.19,240.00,7.00,0.00,30.04,1017.20,10.00,M,FEW,M,M,M,25000.00,M,M,M,M,M,M,M,M,M,M,81.07,KLGA 311251Z 24007KT 10SM FEW250 27/16 A3004 RMK AO2 SLP172 T02670161
LGA,2012-08-31 13:51,-73.8803,40.7794,80.96,60.08,49.09,260.00,8.00,0.00,30.04,1017.20,10.00,M,CLR,M,M,M,M,M,M,M,M,M,M,M,M,M,M,81.59,KLGA 311351Z 26008KT 10SM CLR 27/16 A3004 RMK AO2 SLP172 T02720156
LGA,2012-08-31 14:51,-73.8803,40.7794,84.02,59.00,42.77,260.00,11.00,0.00,30.03,1016.90,10.00,M,CLR,M,M,M,M,M,M,M,M,M,M,M,M,M,M,83.77,KLGA 311451Z 26011KT 10SM CLR 29/15 A3003 RMK AO2 SLP169 T02890150 58006
LGA,2012-08-31 15:51,-73.8803,40.7794,87.08,55.94,34.73,250.00,11.00,0.00,30.01,1016.20,10.00,19.00,CLR,M,M,M,M,M,M,M,M,M,M,M,M,M,M,87.08,KLGA 311551Z 25011G19KT 10SM CLR 31/13 A3001 RMK AO2 SLP162 T03060133
LGA,2012-08-31 16:51,-73.8803,40.7794,89.06,55.04,31.57,280.00,11.00,0.00,29.99,1015.40,10.00,M,FEW,M,M,M,25000.00,M,M,M,M,M,M,M,M,M,M,89.06,KLGA 311651Z 28011KT 10SM FEW250 32/13 A2999 RMK AO2 SLP154 T03170128
LGA,2012-08-31 17:51,-73.8803,40.7794,89.96,53.06,28.55,280.00,7.00,0.00,29.96,1014.50,10.00,M,FEW,M,M,M,25000.00,M,M,M,M,M,M,M,M,M,M,89.96,KLGA 311751Z 28007KT 10SM FEW250 32/12 A2996 RMK AO2 SLP145 T03220117 10328 20239 58023
LGA,2012-08-31 18:51,-73.8803,40.7794,91.94,53.06,26.83,240.00,12.00,0.00,29.94,1013.80,10.00,18.00,FEW,M,M,M,25000.00,M,M,M,M,M,M,M,M,M,M,91.94,KLGA 311851Z 24012G18KT 10SM FEW250 33/12 A2994 RMK AO2 SLP138 T03330117
LGA,2012-08-31 19:51,-73.8803,40.7794,93.02,53.06,25.94,220.00,13.00,0.00,29.92,1013.20,10.00,19.00,FEW,M,M,M,25000.00,M,M,M,M,M,M,M,M,M,M,93.02,KLGA 311951Z 22013G19KT 10SM FEW250 34/12 A2992 RMK AO2 SLP132 T03390117
LGA,2012-08-31 20:51,-73.8803,40.7794,91.94,55.04,28.84,220.00,13.00,0.00,29.90,1012.40,10.00,19.00,CLR,M,M,M,M,M,M,M,M,M,M,M,M,M,M,91.94,KLGA 312051Z 22013G19KT 10SM CLR 33/13 A2990 RMK AO2 SLP124 T03330128 58022
LGA,2012-08-31 21:51,-73.8803,40.7794,89.96,57.02,32.97,240.00,12.00,0.00,29.89,1012.20,10.00,19.00,CLR,M,M,M,M,M,M,M,M,M,M,M,M,M,M,89.96,KLGA 312151Z 24012G19KT 10SM CLR 32/14 A2989 RMK AO2 SLP122 T03220139
LGA,2012-08-31 22:51,-73.8803,40.7794,89.06,57.92,35.04,240.00,11.00,0.00,29.90,1012.30,10.00,M,CLR,M,M,M,M,M,M,M,M,M,M,M,M,M,M,89.06,KLGA 312251Z 24011KT 10SM CLR 32/14 A2990 RMK AO2 SLP123 T03170144
LGA,2012-08-31 23:51,-73.8803,40.7794,87.98,59.00,37.69,250.00,10.00,0.00,29.90,1012.60,10.00,M,CLR,M,M,M,M,M,M,M,M,M,M,M,M,M,M,87.98,KLGA 312351Z 25010KT 10SM CLR 31/15 A2990 RMK AO2 SLP126 T03110150 10339 20311 53002
