#DEBUG: Format Typ    -> comma
#DEBUG: Time Period   -> 2012-08-01 00:00:00+00:00 2012-09-01 00:00:00+00:00
#DEBUG: Time Zone     -> Etc/UTC
#DEBUG: Data Contact   -> daryl herzmann akrherz@iastate.edu 515-294-5978
#DEBUG: Entries Found -> -1
station,valid,lon,lat,tmpf,dwpf,relh,drct,sknt,p01i,alti,mslp,vsby,gust,skyc1,skyc2,skyc3,skyc4,skyl1,skyl2,skyl3,skyl4,wxcodes,ice_accretion_1hr,ice_accretion_3hr,ice_accretion_6hr,peak_wind_gust,peak_wind_drct,peak_wind_time,feel,metar
NYC,2012-08-01 00:51,-73.9693,40.7790,71.96,64.94,78.57,0.00,0.00,M,29.96,1013.70,10.00,M,CLR,M,M,M,M,M,M,M,M,M,M,M,M,M,M,71.96,KNYC 010051Z AUTO 00000KT 10SM CLR 22/18 A2996 RMK AO2 SLP137 T02220183
NYC,2012-08-01 01:51,-73.9693,40.7790,71.06,64.94,81.00,0.00,0.00,M,29.97,1013.80,10.00,M,CLR,M,M,M,M,M,M,M,M,M,M,M,M,M,M,71.06,KNYC 010151Z AUTO 00000KT 10SM CLR 22/18 A2997 RMK AO2 SLP138 T02170183
NYC,2012-08-01 02:51,-73.9693,40.7790,71.96,64.94,78.57,M,3.00,M,29.96,1013.50,10.00,M,CLR,M,M,M,M,M,M,M,M,M,M,M,M,M,M,71.96,KNYC 010251Z AUTO VRB03KT 10SM CLR 22/18 A2996 RMK AO2 SLP135 T02220183 50005
NYC,2012-08-01 03:17,-73.9693,40.7790,71.96,64.94,78.57,M,3.00,M,29.96,M,10.00,M,BKN,M,M,M,2000.00,M,M,M,M,M,M,M,M,M,M,71.96,KNYC 010317Z AUTO VRB03KT 10SM BKN020 22/18 A2996 RMK AO2 T02220183
NYC,2012-08-01 03:51,-73.9693,40.7790,71.96,66.02,81.57,M,5.00,M,29.96,1013.50,10.00,M,BKN,M,M,M,1900.00,M,M,M,M,M,M,M,M,M,M,71.96,KNYC 010351Z AUTO VRB05KT 10SM BKN019 22/19 A2996 RMK AO2 SLP135 T02220189
NYC,2012-08-01 04:13,-73.9693,40.7790,71.96,66.02,81.57,220.00,7.00,M,29.96,M,10.00,M,SCT,M,M,M,1900.00,M,M,M,M,M,M,M,M,M,M,71.96,KNYC 010413Z AUTO 22007KT 170V250 10SM SCT019 22/19 A2996 RMK AO2 T02220189
NYC,2012-08-01 04:51,-73.9693,40.7790,71.96,66.02,81.57,M,3.00,M,29.96,1013.40,10.00,M,FEW,M,M,M,1800.00,M,M,M,M,M,M,M,M,M,M,71.96,KNYC 010451Z AUTO VRB03KT 10SM FEW018 22/19 A2996 RMK AO2 SLP134 T02220189 402670211
NYC,2012-08-01 05:17,-73.9693,40.7790,71.96,66.92,84.16,170.00,3.00,M,29.95,M,10.00,M,FEW,BKN,BKN,M,1600.00,2900.00,3600.00,M,M,M,M,M,M,M,M,71.96,KNYC 010517Z 17003KT 10SM FEW016 BKN029 BKN036 22/19 A2995 RMK AO2 T02220194
NYC,2012-08-01 05:43,-73.9693,40.7790,71.96,66.92,84.16,M,3.00,M,29.94,M,10.00,M,SCT,M,M,M,1900.00,M,M,M,M,M,M,M,M,M,M,71.96,KNYC 010543Z VRB03KT 10SM SCT019 22/19 A2994 RMK AO2 T02220194
NYC,2012-08-01 05:51,-73.9693,40.7790,71.96,66.92,84.16,180.00,4.00,M,29.94,1013.00,10.00,M,FEW,SCT,M,M,1900.00,2600.00,M,M,M,M,M,M,M,M,M,71.96,KNYC 010551Z 18004KT 10SM FEW019 SCT026 22/19 A2994 RMK AO2 SLP130 T02220194 10228 20217 58005
NYC,2012-08-01 06:07,-73.9693,40.7790,71.96,66.92,84.16,M,3.00,M,29.94,M,10.00,M,BKN,BKN,M,M,2700.00,4100.00,M,M,M,M,M,M,M,M,M,71.96,KNYC 010607Z VRB03KT 10SM BKN027 BKN041 22/19 A2994 RMK AO2 T02220194
NYC,2012-08-01 06:14,-73.9693,40.7790,71.96,66.92,84.16,M,3.00,M,29.94,M,10.00,M,SCT,SCT,BKN,M,2500.00,2900.00,4100.00,M,M,M,M,M,M,M,M,71.96,KNYC 010614Z VRB03KT 10SM SCT025 SCT029 BKN041 22/19 A2994 RMK AO2 T02220194
NYC,2012-08-01 06:24,-73.9693,40.7790,71.96,66.92,84.16,M,4.00,M,29.94,M,10.00,M,BKN,BKN,BKN,M,2500.00,3100.00,4200.00,M,M,M,M,M,M,M,M,71.96,KNYC 010624Z VRB04KT 10SM BKN025 BKN031 BKN042 22/19 A2994 RMK AO2 T02220194
NYC,2012-08-01 06:51,-73.9693,40.7790,71.96,66.92,84.16,0.00,0.00,M,29.93,1012.60,10.00,M,BKN,M,M,M,2300.00,M,M,M,M,M,M,M,M,M,M,71.96,KNYC 010651Z 00000KT 10SM BKN023 22/19 A2993 RMK AO2 SLP126 T02220194
NYC,2012-08-01 07:31,-73.9693,40.7790,71.96,66.02,81.57,M,3.00,M,29.92,M,10.00,M,SCT,M,M,M,2400.00,M,M,M,M,M,M,M,M,M,M,71.96,KNYC 010731Z VRB03KT 10SM SCT024 22/19 A2992 RMK AO2 T02220189
NYC,2012-08-01 07:51,-73.9693,40.7790,71.06,64.94,81.00,M,3.00,M,29.92,1012.30,10.00,M,CLR,M,M,M,M,M,M,M,M,M,M,M,M,M,M,71.06,KNYC 010751Z VRB03KT 10SM CLR 22/18 A2992 RMK AO2 SLP123 T02170183
NYC,2012-08-01 08:51,-73.9693,40.7790,71.06,66.92,86.77,250.00,4.00,M,29.92,1012.10,10.00,M,FEW,M,M,M,1600.00,M,M,M,M,M,M,M,M,M,M,71.06,KNYC 010851Z 25004KT 10SM FEW016 22/19 A2992 RMK AO2 SLP121 T02170194 56009
NYC,2012-08-01 09:25,-73.9693,40.7790,71.96,66.92,84.16,0.00,0.00,M,29.92,M,10.00,M,BKN,BKN,M,M,1600.00,2300.00,M,M,M,M,M,M,M,M,M,71.96,KNYC 010925Z 00000KT 10SM BKN016 BKN023 22/19 A2992 RMK AO2 T02220194
NYC,2012-08-01 09:51,-73.9693,40.7790,71.96,68.00,87.35,0.00,0.00,M,29.92,1012.20,10.00,M,BKN,OVC,M,M,1400.00,2800.00,M,M,M,M,M,M,M,M,M,71.96,KNYC 010951Z 00000KT 10SM BKN014 OVC028 22/20 A2992 RMK AO2 SLP122 T02220200
NYC,2012-08-01 10:03,-73.9693,40.7790,73.04,68.00,84.22,M,4.00,M,29.92,M,10.00,M,SCT,OVC,M,M,1400.00,2600.00,M,M,M,M,M,M,M,M,M,73.04,KNYC 011003Z VRB04KT 10SM SCT014 OVC026 23/20 A2992 RMK AO2 T02280200
NYC,2012-08-01 10:51,-73.9693,40.7790,73.04,69.08,87.41,270.00,4.00,0.00,29.93,1012.50,7.00,M,BKN,OVC,M,M,1300.00,2400.00,M,M,-RA,M,M,M,M,M,M,73.04,KNYC 011051Z 27004KT 7SM -RA BKN013 OVC024 23/21 A2993 RMK AO2 RAB49 SLP125 P0000 T02280206
NYC,2012-08-01 10:54,-73.9693,40.7790,71.96,69.08,90.66,290.00,5.00,0.00,29.93,M,1.50,M,BKN,BKN,OVC,M,1300.00,1900.00,2400.00,M,+RA BR,M,M,M,M,M,M,71.96,KNYC 011054Z 29005KT 1 1/2SM +RA BR BKN013 BKN019 OVC024 22/21 A2993 RMK AO2 P0000 T02220206
NYC,2012-08-01 11:03,-73.9693,40.7790,69.98,69.08,96.97,0.00,0.00,0.21,29.93,M,0.25,M,FEW,BKN,OVC,M,600.00,1200.00,2600.00,M,+RA FG,M,M,M,M,M,M,69.98,KNYC 011103Z 00000KT 1/4SM +RA FG FEW006 BKN012 OVC026 21/21 A2993 RMK AO2 P0021 T02110206
NYC,2012-08-01 11:31,-73.9693,40.7790,69.98,69.98,100.00,0.00,0.00,0.55,29.93,M,1.00,M,SCT,BKN,OVC,M,1100.00,1700.00,5000.00,M,BR,M,M,M,M,M,M,69.98,KNYC 011131Z 00000KT 1SM BR SCT011 BKN017 OVC050 21/21 A2993 RMK AO2 RAE31 P0055 T02110211
NYC,2012-08-01 11:51,-73.9693,40.7790,71.06,71.06,100.00,0.00,0.00,0.55,29.94,1012.80,2.50,M,BKN,BKN,OVC,M,1300.00,1900.00,3100.00,M,BR,M,M,M,M,M,M,71.06,KNYC 011151Z 00000KT 2 1/2SM BR BKN013 BKN019 OVC031 22/22 A2994 RMK AO2 RAE31 SLP128 P0055 60055 70055 T02170217 10233 20211 53006
NYC,2012-08-01 12:05,-73.9693,40.7790,71.96,71.06,96.99,280.00,4.00,M,29.93,M,1.00,M,BKN,BKN,OVC,M,1200.00,1700.00,3300.00,M,BR,M,M,M,M,M,M,71.96,KNYC 011205Z 28004KT 1SM BR BKN012 BKN017 OVC033 22/22 A2993 RMK AO2 T02220217
NYC,2012-08-01 12:14,-73.9693,40.7790,71.96,71.06,96.99,0.00,0.00,M,29.93,M,2.00,M,BKN,BKN,M,M,1200.00,1900.00,M,M,BR,M,M,M,M,M,M,71.96,KNYC 011214Z 00000KT 2SM BR BKN012 BKN019 22/22 A2993 RMK AO2 T02220217
NYC,2012-08-01 12:22,-73.9693,40.7790,71.96,71.96,100.00,0.00,0.00,M,29.93,M,2.50,M,SCT,BKN,M,M,1200.00,1900.00,M,M,BR,M,M,M,M,M,M,71.96,KNYC 011222Z 00000KT 2 1/2SM BR SCT012 BKN019 22/22 A2993 RMK AO2 T02220222
NYC,2012-08-01 12:46,-73.9693,40.7790,71.60,71.60,100.00,0.00,0.00,M,29.93,M,4.00,M,SCT,BKN,BKN,M,1700.00,2900.00,3500.00,M,BR,M,M,M,M,M,M,71.60,KNYC 011246Z 00000KT 4SM BR SCT017 BKN029 BKN035 22/22 A2993 RMK AO2
NYC,2012-08-01 12:51,-73.9693,40.7790,71.96,71.06,96.99,0.00,0.00,M,29.94,1012.80,5.00,M,SCT,BKN,OVC,M,1700.00,3400.00,4300.00,M,BR,M,M,M,M,M,M,71.96,KNYC 011251Z 00000KT 5SM BR SCT017 BKN034 OVC043 22/22 A2994 RMK AO2 SLP128 T02220217
NYC,2012-08-01 13:40,-73.9693,40.7790,73.04,71.06,93.52,M,3.00,M,29.93,M,5.00,M,BKN,OVC,M,M,2300.00,3800.00,M,M,BR,M,M,M,M,M,M,73.04,KNYC 011340Z VRB03KT 5SM BR BKN023 OVC038 23/22 A2993 RMK AO2 T02280217
NYC,2012-08-01 13:51,-73.9693,40.7790,73.04,71.06,93.52,250.00,5.00,M,29.93,1012.60,7.00,M,FEW,BKN,OVC,M,2000.00,3700.00,4800.00,M,M,M,M,M,M,M,M,73.04,KNYC 011351Z 25005KT 7SM FEW020 BKN037 OVC048 23/22 A2993 RMK AO2 SLP126 T02280217
NYC,2012-08-01 14:51,-73.9693,40.7790,73.94,69.98,87.45,M,4.00,M,29.92,1012.30,9.00,M,FEW,BKN,BKN,M,2300.00,3500.00,4800.00,M,M,M,M,M,M,M,M,73.94,KNYC 011451Z AUTO VRB04KT 9SM FEW023 BKN035 BKN048 23/21 A2992 RMK AO2 SLP123 T02330211 58004
NYC,2012-08-01 15:51,-73.9693,40.7790,75.02,69.08,81.79,M,4.00,M,29.91,1011.70,9.00,M,FEW,SCT,BKN,M,2600.00,3600.00,7500.00,M,M,M,M,M,M,M,M,75.02,KNYC 011551Z AUTO VRB04KT 9SM FEW026 SCT036 BKN075 24/21 A2991 RMK AO2 SLP117 T02390206
NYC,2012-08-01 16:38,-73.9693,40.7790,73.94,69.98,87.45,M,5.00,M,29.90,M,9.00,M,BKN,BKN,M,M,2600.00,3000.00,M,M,M,M,M,M,M,M,M,73.94,KNYC 011638Z AUTO VRB05KT 9SM BKN026 BKN030 23/21 A2990 RMK AO2 T02330211
NYC,2012-08-01 16:51,-73.9693,40.7790,73.94,69.98,87.45,M,4.00,M,29.90,1011.60,9.00,M,SCT,BKN,M,M,2600.00,3500.00,M,M,M,M,M,M,M,M,M,73.94,KNYC 011651Z AUTO VRB04KT 9SM SCT026 BKN035 23/21 A2990 RMK AO2 SLP116 T02330211
NYC,2012-08-01 17:51,-73.9693,40.7790,73.04,69.08,87.41,M,5.00,0.00,29.90,1011.50,7.00,M,SCT,M,M,M,11000.00,M,M,M,-RA,M,M,M,M,M,M,73.04,KNYC 011751Z AUTO VRB05KT 7SM -RA SCT110 23/21 A2990 RMK AO2 RAB49 SLP115 P0000 60000 T02280206 10256 20217 56008
NYC,2012-08-01 18:36,-73.9693,40.7790,71.06,69.98,96.39,0.00,0.00,0.05,29.89,M,2.00,M,FEW,BKN,OVC,M,6000.00,8500.00,11000.00,M,RA BR,M,M,M,M,M,M,71.06,KNYC 011836Z AUTO 00000KT 2SM RA BR FEW060 BKN085 OVC110 22/21 A2989 RMK AO2 P0005 T02170211
NYC,2012-08-01 18:46,-73.9693,40.7790,71.60,69.80,94.06,0.00,0.00,0.06,29.89,M,4.00,M,FEW,BKN,OVC,M,6000.00,9000.00,11000.00,M,-RA BR,M,M,M,M,M,M,71.60,KNYC 011846Z AUTO 00000KT 4SM -RA BR FEW060 BKN090 OVC110 22/21 A2989 RMK AO2 P0006
NYC,2012-08-01 18:51,-73.9693,40.7790,71.96,69.98,93.49,0.00,0.00,0.07,29.89,1011.20,4.00,M,FEW,BKN,OVC,M,6000.00,9000.00,10000.00,M,-RA BR,M,M,M,M,M,M,71.96,KNYC 011851Z AUTO 00000KT 4SM -RA BR FEW060 BKN090 OVC100 22/21 A2989 RMK AO2 SLP112 P0007 T02220211
NYC,2012-08-01 19:21,-73.9693,40.7790,73.04,71.96,96.42,0.00,0.00,0.01,29.90,M,2.50,M,FEW,OVC,M,M,7500.00,10000.00,M,M,-RA BR,M,M,M,M,M,M,73.04,KNYC 011921Z AUTO 00000KT 2 1/2SM -RA BR FEW075 OVC100 23/22 A2990 RMK AO2 VIS 2V3 P0001 T02280222
NYC,2012-08-01 19:35,-73.9693,40.7790,73.04,71.96,96.42,0.00,0.00,0.01,29.89,M,4.00,M,FEW,BKN,OVC,M,4000.00,9000.00,11000.00,M,-RA BR,M,M,M,M,M,M,73.04,KNYC 011935Z AUTO 00000KT 4SM -RA BR FEW040 BKN090 OVC110 23/22 A2989 RMK AO2 P0001 T02280222
NYC,2012-08-01 19:51,-73.9693,40.7790,73.94,73.04,97.02,0.00,0.00,0.01,29.89,1011.20,4.00,M,FEW,SCT,BKN,M,1900.00,3800.00,11000.00,M,BR,M,M,M,M,M,M,73.94,KNYC 011951Z AUTO 00000KT 4SM BR FEW019 SCT038 BKN110 23/23 A2989 RMK AO2 RAE39 SLP112 P0001 T02330228
NYC,2012-08-01 20:51,-73.9693,40.7790,71.96,71.06,96.99,M,3.00,M,29.89,1011.30,6.00,M,FEW,OVC,M,M,2100.00,12000.00,M,M,BR,M,M,M,M,M,M,71.96,KNYC 012051Z AUTO VRB03KT 6SM BR FEW021 OVC120 22/22 A2989 RMK AO2 SLP113 60008 T02220217 53001
NYC,2012-08-01 21:04,-73.9693,40.7790,73.04,71.06,93.52,0.00,0.00,M,29.89,M,5.00,M,BKN,OVC,M,M,1900.00,12000.00,M,M,BR,M,M,M,M,M,M,73.04,KNYC 012104Z AUTO 00000KT 5SM BR BKN019 OVC120 23/22 A2989 RMK AO2 T02280217
NYC,2012-08-01 21:51,-73.9693,40.7790,73.04,71.06,93.52,0.00,0.00,0.01,29.88,1010.80,5.00,M,BKN,OVC,M,M,1800.00,2700.00,M,M,BR,M,M,M,M,M,M,73.04,KNYC 012151Z AUTO 00000KT 5SM BR BKN018 OVC027 23/22 A2988 RMK AO2 RAB07E23 SLP108 P0001 T02280217
NYC,2012-08-01 22:14,-73.9693,40.7790,71.96,69.98,93.49,270.00,3.00,M,29.88,M,8.00,M,SCT,BKN,OVC,M,1800.00,3400.00,11000.00,M,M,M,M,M,M,M,M,71.96,KNYC 012214Z AUTO 27003KT 8SM SCT018 BKN034 OVC110 22/21 A2988 RMK AO2 T02220211
NYC,2012-08-01 22:51,-73.9693,40.7790,71.96,69.98,93.49,0.00,0.00,M,29.88,1010.80,7.00,M,FEW,BKN,M,M,2100.00,11000.00,M,M,M,M,M,M,M,M,M,71.96,KNYC 012251Z AUTO 00000KT 7SM FEW021 BKN110 22/21 A2988 RMK AO2 SLP108 T02220211
NYC,2012-08-01 23:03,-73.9693,40.7790,71.96,69.98,93.49,0.00,0.00,M,29.88,M,8.00,M,SCT,BKN,BKN,M,2100.00,2700.00,11000.00,M,M,M,M,M,M,M,M,71.96,KNYC 012303Z AUTO 00000KT 8SM SCT021 BKN027 BKN110 22/21 A2988 RMK AO2 T02220211
NYC,2012-08-01 23:49,-73.9693,40.7790,71.60,69.80,94.06,0.00,0.00,M,29.88,M,8.00,M,SCT,M,M,M,2300.00,M,M,M,M,M,M,M,M,M,M,71.60,KNYC 012349Z AUTO 00000KT 8SM SCT023 22/21 A2988 RMK AO2
NYC,2012-08-01 23:51,-73.9693,40.7790,71.96,69.98,93.49,0.00,0.00,M,29.88,1010.80,8.00,M,FEW,M,M,M,2300.00,M,M,M,M,M,M,M,M,M,M,71.96,KNYC 012351Z AUTO 00000KT 8SM FEW023 22/21 A2988 RMK AO2 SLP108 60009 T02220211 10233 20217 50000
NYC,2012-08-02 00:51,-73.9693,40.7790,71.96,69.98,93.49,0.00,0.00,M,29.88,1011.10,8.00,M,FEW,M,M,M,2400.00,M,M,M,M,M,M,M,M,M,M,71.96,KNYC 020051Z AUTO 00000KT 8SM FEW024 22/21 A2988 RMK AO2 SLP111 T02220211
NYC,2012-08-02 01:51,-73.9693,40.7790,73.04,69.08,87.41,0.00,0.00,M,29.89,1011.10,9.00,M,CLR,M,M,M,M,M,M,M,M,M,M,M,M,M,M,73.04,KNYC 020151Z AUTO 00000KT 9SM CLR 23/21 A2989 RMK AO2 SLP111 T02280206
NYC,2012-08-02 02:51,-73.9693,40.7790,71.96,69.08,90.66,280.00,4.00,M,29.88,1010.90,9.00,M,CLR,M,M,M,M,M,M,M,M,M,M,M,M,M,M,71.96,KNYC 020251Z AUTO 28004KT 9SM CLR 22/21 A2988 RMK AO2 SLP109 T02220206 50001
NYC,2012-08-02 03:51,-73.9693,40.7790,71.96,69.98,93.49,290.00,3.00,M,29.88,1010.90,7.00,M,CLR,M,M,M,M,M,M,M,M,M,M,M,M,M,M,71.96,KNYC 020351Z AUTO 29003KT 7SM CLR 22/21 A2988 RMK AO2 SLP109 T02220211
NYC,2012-08-02 04:51,-73.9693,40.7790,71.96,69.98,93.49,0.00,0.00,M,29.89,1011.30,4.00,M,CLR,M,M,M,M,M,M,M,BR,M,M,M,M,M,M,71.96,KNYC 020451Z AUTO 00000KT 4SM BR CLR 22/21 A2989 RMK AO2 SLP113 T02220211 402560211
NYC,2012-08-02 05:51,-73.9693,40.7790,71.96,69.08,90.66,0.00,0.00,M,29.88,1011.00,6.00,M,BKN,OVC,M,M,4300.00,6000.00,M,M,BR,M,M,M,M,M,M,71.96,KNYC 020551Z AUTO 00000KT 6SM BR BKN043 OVC060 22/21 A2988 RMK AO2 SLP110 T02220206 10228 20217 50001
NYC,2012-08-02 06:51,-73.9693,40.7790,71.06,69.08,93.47,0.00,0.00,M,29.88,1010.90,6.00,M,CLR,M,M,M,M,M,M,M,BR,M,M,M,M,M,M,71.06,KNYC 020651Z AUTO 00000KT 6SM BR CLR 22/21 A2988 RMK AO2 SLP109 T02170206
NYC,2012-08-02 07:51,-73.9693,40.7790,71.06,68.00,90.06,M,3.00,M,29.88,1010.80,7.00,M,CLR,M,M,M,M,M,M,M,M,M,M,M,M,M,M,71.06,KNYC 020751Z AUTO VRB03KT 7SM CLR 22/20 A2988 RMK AO2 SLP108 T02170200
NYC,2012-08-02 08:51,-73.9693,40.7790,69.98,68.00,93.44,0.00,0.00,M,29.87,1010.70,7.00,M,FEW,M,M,M,2900.00,M,M,M,M,M,M,M,M,M,M,69.98,KNYC 020851Z AUTO 00000KT 7SM FEW029 21/20 A2987 RMK AO2 SLP107 T02110200 58003
NYC,2012-08-02 09:51,-73.9693,40.7790,71.06,69.08,93.47,M,4.00,M,29.89,1011.30,7.00,M,OVC,M,M,M,4200.00,M,M,M,M,M,M,M,M,M,M,71.06,KNYC 020951Z AUTO VRB04KT 7SM OVC042 22/21 A2989 RMK AO2 SLP113 T02170206
NYC,2012-08-02 10:51,-73.9693,40.7790,71.06,68.00,90.06,0.00,0.00,M,29.89,1011.40,5.00,M,CLR,M,M,M,M,M,M,M,BR,M,M,M,M,M,M,71.06,KNYC 021051Z AUTO 00000KT 5SM BR CLR 22/20 A2989 RMK AO2 SLP114 T02170200
NYC,2012-08-02 11:51,-73.9693,40.7790,71.96,68.00,87.35,280.00,3.00,M,29.90,1011.60,6.00,M,CLR,M,M,M,M,M,M,M,BR,M,M,M,M,M,M,71.96,KNYC 021151Z AUTO 28003KT 6SM BR CLR 22/20 A2990 RMK AO2 SLP116 70009 T02220200 10222 20211 51009
NYC,2012-08-02 12:51,-73.9693,40.7790,73.94,68.00,81.71,M,5.00,M,29.91,1011.90,6.00,M,CLR,M,M,M,M,M,M,M,HZ,M,M,M,M,M,M,73.94,KNYC 021251Z AUTO VRB05KT 6SM HZ CLR 23/20 A2991 RMK AO2 SLP119 T02330200
NYC,2012-08-02 13:51,-73.9693,40.7790,75.92,68.00,76.48,M,3.00,M,29.92,1012.00,7.00,M,CLR,M,M,M,M,M,M,M,M,M,M,M,M,M,M,75.92,KNYC 021351Z AUTO VRB03KT 7SM CLR 24/20 A2992 RMK AO2 SLP120 T02440200
NYC,2012-08-02 14:51,-73.9693,40.7790,80.06,69.08,69.23,M,3.00,M,29.92,1012.20,7.00,M,CLR,M,M,M,M,M,M,M,M,M,M,M,M,M,M,82.95,KNYC 021451Z AUTO VRB03KT 7SM CLR 27/21 A2992 RMK AO2 SLP122 T02670206 51006
NYC,2012-08-02 15:51,-73.9693,40.7790,82.94,69.08,63.03,M,5.00,M,29.92,1012.20,8.00,M,CLR,M,M,M,M,M,M,M,M,M,M,M,M,M,M,86.52,KNYC 021551Z AUTO VRB05KT 8SM CLR 28/21 A2992 RMK AO2 SLP122 T02830206
NYC,2012-08-02 16:51,-73.9693,40.7790,86.00,66.92,53.03,0.00,0.00,M,29.91,1011.70,9.00,M,CLR,M,M,M,M,M,M,M,M,M,M,M,M,M,M,88.78,KNYC 021651Z AUTO 00000KT 9SM CLR 30/19 A2991 RMK AO2 SLP117 T03000194
NYC,2012-08-02 17:51,-73.9693,40.7790,86.00,66.92,M,M,M,M,29.90,1011.50,9.00,M,FEW,M,M,M,4700.00,M,M,M,M,M,M,M,M,M,M,M,KNYC 021751Z AUTO 9SM FEW047 30/19 A2990 RMK AO2 SLP115 T03000194 10306 20222 58006
NYC,2012-08-02 18:51,-73.9693,40.7790,86.00,68.00,55.04,M,4.00,M,29.90,1011.30,9.00,M,CLR,M,M,M,M,M,M,M,M,M,M,M,M,M,M,89.41,KNYC 021851Z AUTO VRB04KT 9SM CLR 30/20 A2990 RMK AO2 SLP113 T03000200
NYC,2012-08-02 19:51,-73.9693,40.7790,86.00,66.92,53.03,M,3.00,M,29.89,1011.00,10.00,M,FEW,M,M,M,10000.00,M,M,M,M,M,M,M,M,M,M,88.78,KNYC 021951Z AUTO VRB03KT 10SM FEW100 30/19 A2989 RMK AO2 SLP110 T03000194
NYC,2012-08-02 20:51,-73.9693,40.7790,87.08,64.94,47.83,0.00,0.00,M,29.89,1011.00,10.00,M,SCT,M,M,M,9500.00,M,M,M,M,M,M,M,M,M,M,88.86,KNYC 022051Z AUTO 00000KT 10SM SCT095 31/18 A2989 RMK AO2 SLP110 T03060183 56006
NYC,2012-08-02 21:51,-73.9693,40.7790,84.92,66.92,54.90,0.00,0.00,M,29.88,1010.90,10.00,M,CLR,M,M,M,M,M,M,M,M,M,M,M,M,M,M,87.62,KNYC 022151Z AUTO 00000KT 10SM CLR 29/19 A2988 RMK AO2 SLP109 T02940194
NYC,2012-08-02 22:51,-73.9693,40.7790,84.02,64.94,52.75,0.00,0.00,M,29.89,1011.10,10.00,M,CLR,M,M,M,M,M,M,M,M,M,M,M,M,M,M,85.76,KNYC 022251Z AUTO 00000KT 10SM CLR 29/18 A2989 RMK AO2 SLP111 T02890183
NYC,2012-08-02 23:40,-73.9693,40.7790,82.04,64.94,56.24,210.00,3.00,M,29.90,M,10.00,M,FEW,M,M,M,200.00,M,M,M,M,M,M,M,M,M,M,83.82,KNYC 022340Z AUTO 21003KT 10SM FEW002 28/18 A2990 RMK AO2 T02780183
NYC,2012-08-02 23:51,-73.9693,40.7790,82.04,66.92,60.25,M,3.00,M,29.90,1011.60,10.00,M,FEW,M,M,M,300.00,M,M,M,M,M,M,M,M,M,M,84.53,KNYC 022351Z AUTO VRB03KT 10SM FEW003 28/19 A2990 RMK AO2 SLP116 T02780194 10306 20278 53006
NYC,2012-08-03 00:51,-73.9693,40.7790,80.06,69.98,71.39,M,3.00,M,29.92,1012.10,10.00,M,CLR,M,M,M,M,M,M,M,M,M,M,M,M,M,M,83.22,KNYC 030051Z AUTO VRB03KT 10SM CLR 27/21 A2992 RMK AO2 SLP121 T02670211
NYC,2012-08-03 01:51,-73.9693,40.7790,80.06,69.98,71.39,M,4.00,M,29.93,1012.60,10.00,M,CLR,M,M,M,M,M,M,M,M,M,M,M,M,M,M,83.22,KNYC 030151Z AUTO VRB04KT 10SM CLR 27/21 A2993 RMK AO2 SLP126 T02670211
NYC,2012-08-03 02:51,-73.9693,40.7790,78.98,69.98,73.97,240.00,3.00,M,29.94,1012.90,9.00,M,CLR,M,M,M,M,M,M,M,M,M,M,M,M,M,M,78.98,KNYC 030251Z AUTO 24003KT 9SM CLR 26/21 A2994 RMK AO2 SLP129 T02610211 51013
NYC,2012-08-03 03:51,-73.9693,40.7790,78.98,69.08,71.72,M,4.00,M,29.95,1013.20,10.00,M,BKN,BKN,M,M,6000.00,7500.00,M,M,M,M,M,M,M,M,M,78.98,KNYC 030351Z AUTO VRB04KT 10SM BKN060 BKN075 26/21 A2995 RMK AO2 SLP132 T02610206
NYC,2012-08-03 05:51,-73.9693,40.7790,78.08,69.08,73.88,M,3.00,M,29.96,1013.60,9.00,M,FEW,M,M,M,7000.00,M,M,M,M,M,M,M,M,M,M,78.08,KNYC 030551Z AUTO VRB03KT 9SM FEW070 26/21 A2996 RMK AO2 SLP136 T02560206 10278 20256 51007
NYC,2012-08-03 06:51,-73.9693,40.7790,77.00,69.08,76.57,240.00,3.00,M,29.96,1013.60,9.00,M,CLR,M,M,M,M,M,M,M,M,M,M,M,M,M,M,77.00,KNYC 030651Z AUTO 24003KT 9SM CLR 25/21 A2996 RMK AO2 SLP136 T02500206
NYC,2012-08-03 07:51,-73.9693,40.7790,75.92,69.08,79.37,M,3.00,M,29.96,1013.60,9.00,M,CLR,M,M,M,M,M,M,M,M,M,M,M,M,M,M,75.92,KNYC 030751Z AUTO VRB03KT 9SM CLR 24/21 A2996 RMK AO2 SLP136 T02440206
NYC,2012-08-03 08:51,-73.9693,40.7790,75.92,69.98,81.85,250.00,3.00,M,29.97,1013.90,8.00,M,CLR,M,M,M,M,M,M,M,M,M,M,M,M,M,M,75.92,KNYC 030851Z AUTO 25003KT 8SM CLR 24/21 A2997 RMK AO2 SLP139 T02440211 53002
NYC,2012-08-03 09:51,-73.9693,40.7790,75.92,71.06,84.92,250.00,5.00,M,29.99,1014.70,7.00,M,CLR,M,M,M,M,M,M,M,M,M,M,M,M,M,M,75.92,KNYC 030951Z AUTO 25005KT 7SM CLR 24/22 A2999 RMK AO2 SLP147 T02440217
NYC,2012-08-03 10:51,-73.9693,40.7790,75.02,71.06,87.50,0.00,0.00,M,30.01,1015.10,5.00,M,CLR,M,M,M,M,M,M,M,BR,M,M,M,M,M,M,75.02,KNYC 031051Z AUTO 00000KT 5SM BR CLR 24/22 A3001 RMK AO2 SLP151 T02390217
NYC,2012-08-03 11:51,-73.9693,40.7790,77.00,71.96,84.46,0.00,0.00,M,30.01,1015.30,5.00,M,CLR,M,M,M,M,M,M,M,HZ,M,M,M,M,M,M,77.00,KNYC 031151Z AUTO 00000KT 5SM HZ CLR 25/22 A3001 RMK AO2 SLP153 T02500222 10256 20239 51014
NYC,2012-08-03 12:51,-73.9693,40.7790,80.06,71.96,76.36,280.00,3.00,M,30.02,1015.50,6.00,M,CLR,M,M,M,M,M,M,M,HZ,M,M,M,M,M,M,83.87,KNYC 031251Z AUTO 28003KT 6SM HZ CLR 27/22 A3002 RMK AO2 SLP155 T02670222
NYC,2012-08-03 13:51,-73.9693,40.7790,82.04,71.96,71.59,M,4.00,M,30.03,1015.80,6.00,M,CLR,M,M,M,M,M,M,M,HZ,M,M,M,M,M,M,86.87,KNYC 031351Z AUTO VRB04KT 6SM HZ CLR 28/22 A3003 RMK AO2 SLP158 T02780222
NYC,2012-08-03 14:51,-73.9693,40.7790,84.02,73.04,69.64,0.00,0.00,M,30.03,1016.00,7.00,M,CLR,M,M,M,M,M,M,M,M,M,M,M,M,M,M,90.40,KNYC 031451Z AUTO 00000KT 7SM CLR 29/23 A3003 RMK AO2 SLP160 T02890228 53007
NYC,2012-08-03 15:51,-73.9693,40.7790,87.98,73.04,61.36,250.00,5.00,M,30.04,1016.30,7.00,M,CLR,M,M,M,M,M,M,M,M,M,M,M,M,M,M,95.74,KNYC 031551Z AUTO 25005KT 7SM CLR 31/23 A3004 RMK AO2 SLP163 T03110228
NYC,2012-08-03 16:51,-73.9693,40.7790,87.98,71.06,57.39,M,3.00,M,30.04,1016.30,7.00,M,FEW,M,M,M,4100.00,M,M,M,M,M,M,M,M,M,M,93.94,KNYC 031651Z AUTO VRB03KT 7SM FEW041 31/22 A3004 RMK AO2 SLP163 T03110217
NYC,2012-08-03 17:51,-73.9693,40.7790,87.98,69.98,55.31,M,5.00,M,30.04,1016.20,8.00,M,CLR,M,M,M,M,M,M,M,M,M,M,M,M,M,M,93.07,KNYC 031751Z AUTO VRB05KT 8SM CLR 31/21 A3004 RMK AO2 SLP162 T03110211 10317 20250 50002
NYC,2012-08-03 18:51,-73.9693,40.7790,87.98,69.98,55.31,0.00,0.00,M,30.04,1016.30,8.00,M,CLR,M,M,M,M,M,M,M,M,M,M,M,M,M,M,93.07,KNYC 031851Z AUTO 00000KT 8SM CLR 31/21 A3004 RMK AO2 SLP163 T03110211
NYC,2012-08-03 19:51,-73.9693,40.7790,86.00,73.04,65.35,M,5.00,M,30.04,1016.40,8.00,M,FEW,M,M,M,4900.00,M,M,M,M,M,M,M,M,M,M,93.13,KNYC 031951Z AUTO VRB05KT 8SM FEW049 30/23 A3004 RMK AO2 SLP164 T03000228
NYC,2012-08-03 20:51,-73.9693,40.7790,86.00,73.04,65.35,0.00,0.00,M,30.04,1016.30,8.00,M,SCT,M,M,M,4500.00,M,M,M,M,M,M,M,M,M,M,93.13,KNYC 032051Z AUTO 00000KT 8SM SCT045 30/23 A3004 RMK AO2 SLP163 T03000228 50000
NYC,2012-08-03 21:51,-73.9693,40.7790,84.02,71.96,67.15,M,4.00,M,30.05,1016.50,8.00,M,CLR,M,M,M,M,M,M,M,M,M,M,M,M,M,M,89.62,KNYC 032151Z AUTO VRB04KT 8SM CLR 29/22 A3005 RMK AO2 SLP165 T02890222
NYC,2012-08-03 22:44,-73.9693,40.7790,82.94,71.06,67.44,M,3.00,M,30.06,M,8.00,M,FEW,M,M,M,200.00,M,M,M,M,M,M,M,M,M,M,87.60,KNYC 032244Z AUTO VRB03KT 8SM FEW002 28/22 A3006 RMK AO2 T02830217
NYC,2012-08-03 22:51,-73.9693,40.7790,82.94,69.98,65.00,M,6.00,M,30.06,1016.80,8.00,M,CLR,M,M,M,M,M,M,M,M,M,M,M,M,M,M,86.99,KNYC 032251Z AUTO VRB06KT 8SM CLR 28/21 A3006 RMK AO2 SLP168 T02830211
NYC,2012-08-03 23:51,-73.9693,40.7790,82.04,66.92,60.25,M,3.00,M,30.07,1017.30,10.00,M,CLR,M,M,M,M,M,M,M,M,M,M,M,M,M,M,84.53,KNYC 032351Z AUTO VRB03KT 10SM CLR 28/19 A3007 RMK AO2 SLP173 T02780194 10317 20278 53010
NYC,2012-08-04 00:51,-73.9693,40.7790,80.96,68.00,64.77,M,4.00,M,30.08,1017.40,10.00,M,CLR,M,M,M,M,M,M,M,M,M,M,M,M,M,M,83.72,KNYC 040051Z AUTO VRB04KT 10SM CLR 27/20 A3008 RMK AO2 SLP174 T02720200
NYC,2012-08-04 01:51,-73.9693,40.7790,80.96,69.08,67.22,M,4.00,M,30.10,1018.30,10.00,M,CLR,M,M,M,M,M,M,M,M,M,M,M,M,M,M,84.10,KNYC 040151Z AUTO VRB04KT 10SM CLR 27/21 A3010 RMK AO2 SLP183 T02720206
NYC,2012-08-04 02:51,-73.9693,40.7790,80.06,69.98,71.39,240.00,4.00,M,30.11,1018.50,10.00,M,CLR,M,M,M,M,M,M,M,M,M,M,M,M,M,M,83.22,KNYC 040251Z AUTO 24004KT 10SM CLR 27/21 A3011 RMK AO2 SLP185 T02670211 53012
NYC,2012-08-04 03:51,-73.9693,40.7790,80.96,69.08,67.22,M,3.00,M,30.12,1019.10,10.00,M,CLR,M,M,M,M,M,M,M,M,M,M,M,M,M,M,84.10,KNYC 040351Z AUTO VRB03KT 10SM CLR 27/21 A3012 RMK AO2 SLP191 T02720206
NYC,2012-08-04 04:51,-73.9693,40.7790,80.06,69.08,69.23,250.00,4.00,M,30.13,1019.30,10.00,M,CLR,M,M,M,M,M,M,M,M,M,M,M,M,M,M,82.95,KNYC 040451Z AUTO 25004KT 10SM CLR 27/21 A3013 RMK AO2 SLP193 T02670206 403170239
NYC,2012-08-04 05:51,-73.9693,40.7790,78.08,69.98,76.19,M,3.00,M,30.13,1019.40,10.00,M,CLR,M,M,M,M,M,M,M,M,M,M,M,M,M,M,78.08,KNYC 040551Z AUTO VRB03KT 10SM CLR 26/21 A3013 RMK AO2 SLP194 T02560211 10283 20256 51009
NYC,2012-08-04 06:51,-73.9693,40.7790,78.08,71.06,79.05,0.00,0.00,M,30.14,1019.60,9.00,M,CLR,M,M,M,M,M,M,M,M,M,M,M,M,M,M,78.08,KNYC 040651Z AUTO 00000KT 9SM CLR 26/22 A3014 RMK AO2 SLP196 T02560217
NYC,2012-08-04 07:51,-73.9693,40.7790,77.00,71.06,81.92,0.00,0.00,M,30.15,1019.90,9.00,M,CLR,M,M,M,M,M,M,M,M,M,M,M,M,M,M,77.00,KNYC 040751Z AUTO 00000KT 9SM CLR 25/22 A3015 RMK AO2 SLP199 T02500217
NYC,2012-08-04 08:51,-73.9693,40.7790,77.00,71.06,81.92,260.00,3.00,M,30.17,1020.50,9.00,M,CLR,M,M,M,M,M,M,M,M,M,M,M,M,M,M,77.00,KNYC 040851Z AUTO 26003KT 9SM CLR 25/22 A3017 RMK AO2 SLP205 T02500217 53010
NYC,2012-08-04 09:51,-73.9693,40.7790,75.02,71.96,90.22,0.00,0.00,M,30.17,1020.70,8.00,M,CLR,M,M,M,M,M,M,M,M,M,M,M,M,M,M,75.02,KNYC 040951Z AUTO 00000KT 8SM CLR 24/22 A3017 RMK AO2 SLP207 T02390222
NYC,2012-08-04 10:51,-73.9693,40.7790,77.00,73.04,87.60,0.00,0.00,M,30.19,1021.40,6.00,M,CLR,M,M,M,M,M,M,M,BR,M,M,M,M,M,M,77.00,KNYC 041051Z AUTO 00000KT 6SM BR CLR 25/23 A3019 RMK AO2 SLP214 T02500228
NYC,2012-08-04 11:51,-73.9693,40.7790,78.08,73.04,84.53,0.00,0.00,M,30.21,1021.80,7.00,M,CLR,M,M,M,M,M,M,M,M,M,M,M,M,M,M,78.08,KNYC 041151Z AUTO 00000KT 7SM CLR 26/23 A3021 RMK AO2 SLP218 T02560228 10261 20239 53014
NYC,2012-08-04 12:51,-73.9693,40.7790,80.06,73.04,79.20,0.00,0.00,M,30.21,1022.10,7.00,M,CLR,M,M,M,M,M,M,M,M,M,M,M,M,M,M,84.25,KNYC 041251Z AUTO 00000KT 7SM CLR 27/23 A3021 RMK AO2 SLP221 T02670228
NYC,2012-08-04 13:36,-73.9693,40.7790,82.04,73.94,76.53,0.00,0.00,M,30.22,M,7.00,M,BKN,M,M,M,2000.00,M,M,M,M,M,M,M,M,M,M,88.02,KNYC 041336Z AUTO 00000KT 7SM BKN020 28/23 A3022 RMK AO2 T02780233
NYC,2012-08-04 13:51,-73.9693,40.7790,82.04,75.02,79.35,M,3.00,M,30.22,1022.30,7.00,M,BKN,M,M,M,2000.00,M,M,M,M,M,M,M,M,M,M,88.72,KNYC 041351Z AUTO VRB03KT 7SM BKN020 28/24 A3022 RMK AO2 SLP223 T02780239
NYC,2012-08-04 14:11,-73.9693,40.7790,82.94,73.04,72.11,M,5.00,M,30.21,M,7.00,M,SCT,M,M,M,2200.00,M,M,M,M,M,M,M,M,M,M,88.84,KNYC 041411Z AUTO VRB05KT 7SM SCT022 28/23 A3021 RMK AO2 T02830228
NYC,2012-08-04 14:51,-73.9693,40.7790,84.02,73.94,71.78,0.00,0.00,M,30.22,1022.30,8.00,M,FEW,M,M,M,2400.00,M,M,M,M,M,M,M,M,M,M,91.10,KNYC 041451Z AUTO 00000KT 8SM FEW024 29/23 A3022 RMK AO2 SLP223 T02890233 50004
NYC,2012-08-04 15:51,-73.9693,40.7790,87.08,73.04,63.14,0.00,0.00,M,30.22,1022.30,8.00,M,FEW,M,M,M,3300.00,M,M,M,M,M,M,M,M,M,M,94.56,KNYC 041551Z AUTO 00000KT 8SM FEW033 31/23 A3022 RMK AO2 SLP223 T03060228
NYC,2012-08-04 16:51,-73.9693,40.7790,87.98,71.96,59.16,180.00,6.00,M,30.22,1022.20,9.00,M,FEW,M,M,M,3500.00,M,M,M,M,M,M,M,M,M,M,94.73,KNYC 041651Z AUTO 18006KT 9SM FEW035 31/22 A3022 RMK AO2 SLP222 T03110222
NYC,2012-08-04 17:51,-73.9693,40.7790,89.06,68.00,49.95,M,5.00,M,30.21,1022.10,10.00,M,CLR,M,M,M,M,M,M,M,M,M,M,M,M,M,M,92.86,KNYC 041751Z AUTO VRB05KT 10SM CLR 32/20 A3021 RMK AO2 SLP221 T03170200 10322 20256 58002
NYC,2012-08-04 18:51,-73.9693,40.7790,89.06,66.92,48.12,M,6.00,M,30.20,1021.80,10.00,18.00,CLR,M,M,M,M,M,M,M,M,M,M,M,M,M,M,92.13,KNYC 041851Z AUTO VRB06G18KT 10SM CLR 32/19 A3020 RMK AO2 SLP218 T03170194
NYC,2012-08-04 19:51,-73.9693,40.7790,84.92,68.00,56.98,170.00,7.00,M,30.19,1021.40,10.00,M,CLR,M,M,M,M,M,M,M,M,M,M,M,M,M,M,88.21,KNYC 041951Z AUTO 17007KT 110V250 10SM CLR 29/20 A3019 RMK AO2 SLP214 T02940200
NYC,2012-08-04 20:51,-73.9693,40.7790,84.02,69.08,60.87,M,5.00,M,30.19,1021.40,10.00,16.00,CLR,M,M,M,M,M,M,M,M,M,M,M,M,M,M,87.79,KNYC 042051Z AUTO VRB05G16KT 10SM CLR 29/21 A3019 RMK AO2 SLP214 T02890206 56006
NYC,2012-08-04 21:51,-73.9693,40.7790,80.96,71.06,71.92,M,3.00,M,30.19,1021.40,10.00,M,CLR,M,M,M,M,M,M,M,M,M,M,M,M,M,M,84.88,KNYC 042151Z AUTO VRB03KT 10SM CLR 27/22 A3019 RMK AO2 SLP214 T02720217
NYC,2012-08-04 22:51,-73.9693,40.7790,80.96,71.96,M,M,M,M,30.19,1021.40,10.00,M,CLR,M,M,M,M,M,M,M,M,M,M,M,M,M,M,M,KNYC 042251Z AUTO 10SM CLR 27/22 A3019 RMK AO2 SLP214 T02720222
NYC,2012-08-04 23:51,-73.9693,40.7790,80.06,73.04,M,M,M,M,30.19,1021.20,10.00,M,CLR,M,M,M,M,M,M,M,M,M,M,M,M,M,M,M,KNYC 042351Z AUTO 10SM CLR 27/23 A3019 RMK AO2 SLP212 T02670228 10322 20267 58003
NYC,2012-08-05 00:51,-73.9693,40.7790,78.98,73.04,82.06,M,4.00,M,30.20,1021.80,10.00,M,FEW,M,M,M,1600.00,M,M,M,M,M,M,M,M,M,M,78.98,KNYC 050051Z AUTO VRB04KT 10SM FEW016 26/23 A3020 RMK AO2 SLP218 T02610228
NYC,2012-08-05 01:51,-73.9693,40.7790,78.08,73.94,M,M,M,M,30.22,1022.40,10.00,M,BKN,M,M,M,1300.00,M,M,M,M,M,M,M,M,M,M,M,KNYC 050151Z AUTO 10SM BKN013 26/23 A3022 RMK AO2 SLP224 T02560233
NYC,2012-08-05 02:15,-73.9693,40.7790,78.98,73.94,84.58,M,3.00,M,30.23,M,10.00,M,BKN,M,M,M,1500.00,M,M,M,M,M,M,M,M,M,M,78.98,KNYC 050215Z AUTO VRB03KT 10SM BKN015 26/23 A3023 RMK AO2 T02610233
NYC,2012-08-05 02:51,-73.9693,40.7790,78.98,73.94,84.58,M,4.00,M,30.23,1022.70,9.00,M,BKN,BKN,M,M,1500.00,2100.00,M,M,M,M,M,M,M,M,M,78.98,KNYC 050251Z AUTO VRB04KT 9SM BKN015 BKN021 26/23 A3023 RMK AO2 SLP227 T02610233 51015
NYC,2012-08-05 03:51,-73.9693,40.7790,78.08,73.94,87.12,M,3.00,M,30.23,1022.50,9.00,M,BKN,M,M,M,1900.00,M,M,M,M,M,M,M,M,M,M,78.08,KNYC 050351Z AUTO VRB03KT 9SM BKN019 26/23 A3023 RMK AO2 SLP225 T02560233
NYC,2012-08-05 04:13,-73.9693,40.7790,78.08,73.04,84.53,M,3.00,M,30.22,M,10.00,M,SCT,M,M,M,1900.00,M,M,M,M,M,M,M,M,M,M,78.08,KNYC 050413Z AUTO VRB03KT 10SM SCT019 26/23 A3022 RMK AO2 T02560228
NYC,2012-08-05 04:20,-73.9693,40.7790,78.08,73.94,87.12,M,3.00,M,30.22,M,10.00,M,BKN,M,M,M,1900.00,M,M,M,M,M,M,M,M,M,M,78.08,KNYC 050420Z AUTO VRB03KT 10SM BKN019 26/23 A3022 RMK AO2 T02560233
NYC,2012-08-05 04:48,-73.9693,40.7790,78.80,73.40,83.55,M,4.00,M,30.21,M,9.00,M,SCT,M,M,M,1900.00,M,M,M,M,M,M,M,M,M,M,78.80,KNYC 050448Z AUTO VRB04KT 9SM SCT019 26/23 A3021 RMK AO2
NYC,2012-08-05 04:51,-73.9693,40.7790,78.08,73.94,87.12,M,5.00,M,30.21,1022.00,9.00,M,FEW,SCT,M,M,1700.00,2200.00,M,M,M,M,M,M,M,M,M,78.08,KNYC 050451Z AUTO VRB05KT 9SM FEW017 SCT022 26/23 A3021 RMK AO2 SLP220 T02560233 403220239
NYC,2012-08-05 05:51,-73.9693,40.7790,78.08,73.04,84.53,M,4.00,M,30.21,1021.90,9.00,M,SCT,M,M,M,1700.00,M,M,M,M,M,M,M,M,M,M,78.08,KNYC 050551Z AUTO VRB04KT 9SM SCT017 26/23 A3021 RMK AO2 SLP219 T02560228 10267 20256 56006
NYC,2012-08-05 06:02,-73.9693,40.7790,78.08,73.04,M,M,M,M,30.21,M,9.00,M,BKN,M,M,M,1900.00,M,M,M,M,M,M,M,M,M,M,M,KNYC 050602Z AUTO 9SM BKN019 26/23 A3021 RMK AO2 T02560228
NYC,2012-08-05 06:51,-73.9693,40.7790,78.98,73.04,82.06,M,3.00,M,30.20,1021.70,9.00,M,OVC,M,M,M,1600.00,M,M,M,M,M,M,M,M,M,M,78.98,KNYC 050651Z AUTO VRB03KT 9SM OVC016 26/23 A3020 RMK AO2 SLP217 T02610228
NYC,2012-08-05 07:51,-73.9693,40.7790,78.08,73.04,84.53,240.00,7.00,M,30.19,1021.30,9.00,M,BKN,M,M,M,1700.00,M,M,M,M,M,M,M,M,M,M,78.08,KNYC 050751Z AUTO 24007KT 9SM BKN017 26/23 A3019 RMK AO2 SLP213 T02560228
NYC,2012-08-05 08:09,-73.9693,40.7790,78.08,73.04,84.53,0.00,0.00,M,30.19,M,9.00,M,SCT,M,M,M,1500.00,M,M,M,M,M,M,M,M,M,M,78.08,KNYC 050809Z AUTO 00000KT 9SM SCT015 26/23 A3019 RMK AO2 T02560228
NYC,2012-08-05 08:41,-73.9693,40.7790,78.08,73.04,84.53,M,3.00,M,30.17,M,9.00,M,BKN,M,M,M,1700.00,M,M,M,M,M,M,M,M,M,M,78.08,KNYC 050841Z AUTO VRB03KT 9SM BKN017 26/23 A3017 RMK AO2 T02560228
NYC,2012-08-05 08:51,-73.9693,40.7790,78.08,73.04,84.53,190.00,6.00,M,30.16,1020.40,9.00,M,BKN,M,M,M,1700.00,M,M,M,M,M,M,M,M,M,M,78.08,KNYC 050851Z AUTO 19006KT 9SM BKN017 26/23 A3016 RMK AO2 SLP204 T02560228 58015
NYC,2012-08-05 09:51,-73.9693,40.7790,78.08,73.94,87.12,M,5.00,M,30.17,1020.80,9.00,M,BKN,OVC,M,M,1600.00,2300.00,M,M,M,M,M,M,M,M,M,78.08,KNYC 050951Z AUTO VRB05KT 9SM BKN016 OVC023 26/23 A3017 RMK AO2 SLP208 T02560233
NYC,2012-08-05 10:51,-73.9693,40.7790,78.08,73.94,87.12,M,6.00,M,30.17,1020.70,8.00,M,OVC,M,M,M,1600.00,M,M,M,M,M,M,M,M,M,M,78.08,KNYC 051051Z AUTO VRB06KT 8SM OVC016 26/23 A3017 RMK AO2 SLP207 T02560233
NYC,2012-08-05 11:11,-73.9693,40.7790,78.98,73.94,84.58,M,5.00,M,30.18,M,8.00,M,OVC,M,M,M,1400.00,M,M,M,M,M,M,M,M,M,M,78.98,KNYC 051111Z AUTO VRB05KT 8SM OVC014 26/23 A3018 RMK AO2 T02610233
NYC,2012-08-05 11:51,-73.9693,40.7790,78.98,73.94,84.58,M,3.00,M,30.18,1020.80,8.00,M,OVC,M,M,M,1300.00,M,M,M,M,M,M,M,M,M,M,78.98,KNYC 051151Z AUTO VRB03KT 8SM OVC013 26/23 A3018 RMK AO2 SLP208 T02610233 10261 20256 51004
NYC,2012-08-05 12:01,-73.9693,40.7790,78.98,73.94,84.58,M,6.00,M,30.17,M,8.00,M,OVC,M,M,M,1500.00,M,M,M,M,M,M,M,M,M,M,78.98,KNYC 051201Z AUTO VRB06KT 8SM OVC015 26/23 A3017 RMK AO2 T02610233
NYC,2012-08-05 12:51,-73.9693,40.7790,80.06,73.94,81.63,230.00,4.00,M,30.16,1020.40,9.00,M,FEW,OVC,M,M,1500.00,2300.00,M,M,M,M,M,M,M,M,M,84.59,KNYC 051251Z AUTO 23004KT 9SM FEW015 OVC023 27/23 A3016 RMK AO2 SLP204 T02670233
NYC,2012-08-05 13:33,-73.9693,40.7790,80.96,73.94,79.27,M,3.00,M,30.15,M,10.00,M,FEW,FEW,M,M,1800.00,2400.00,M,M,M,M,M,M,M,M,M,86.20,KNYC 051333Z AUTO VRB03KT 10SM FEW018 FEW024 27/23 A3015 RMK AO2 T02720233
NYC,2012-08-05 13:51,-73.9693,40.7790,80.96,73.94,79.27,0.00,0.00,M,30.15,1019.80,10.00,M,SCT,M,M,M,2000.00,M,M,M,M,M,M,M,M,M,M,86.20,KNYC 051351Z AUTO 00000KT 10SM SCT020 27/23 A3015 RMK AO2 SLP198 T02720233
NYC,2012-08-05 14:05,-73.9693,40.7790,80.96,75.02,82.19,M,3.00,M,30.14,M,9.00,M,BKN,M,M,M,2100.00,M,M,M,M,M,M,M,M,M,M,86.76,KNYC 051405Z AUTO VRB03KT 9SM BKN021 27/24 A3014 RMK AO2 T02720239
NYC,2012-08-05 14:38,-73.9693,40.7790,82.94,73.94,74.33,M,4.00,M,30.14,M,10.00,M,SCT,M,M,M,2300.00,M,M,M,M,M,M,M,M,M,M,89.46,KNYC 051438Z AUTO VRB04KT 10SM SCT023 28/23 A3014 RMK AO2 T02830233
NYC,2012-08-05 14:51,-73.9693,40.7790,82.04,73.94,76.53,M,5.00,M,30.14,1019.50,10.00,M,FEW,M,M,M,2300.00,M,M,M,M,M,M,M,M,M,M,88.02,KNYC 051451Z AUTO VRB05KT 10SM FEW023 28/23 A3014 RMK AO2 SLP195 T02780233 56013
NYC,2012-08-05 15:51,-73.9693,40.7790,86.00,73.94,67.36,M,4.00,M,30.12,1019.00,10.00,M,FEW,FEW,M,M,2900.00,12000.00,M,M,M,M,M,M,M,M,M,93.95,KNYC 051551Z AUTO VRB04KT 10SM FEW029 FEW120 30/23 A3012 RMK AO2 SLP190 T03000233
NYC,2012-08-05 16:51,-73.9693,40.7790,84.92,75.02,M,M,M,M,30.10,1018.20,10.00,M,SCT,BKN,BKN,M,4000.00,4800.00,6000.00,M,M,M,M,M,M,M,M,M,KNYC 051651Z AUTO 10SM SCT040 BKN048 BKN060 29/24 A3010 RMK AO2 SLP182 T02940239
NYC,2012-08-05 17:51,-73.9693,40.7790,89.06,71.06,55.46,210.00,7.00,M,30.07,1017.40,10.00,17.00,FEW,SCT,SCT,M,4600.00,5500.00,7000.00,M,M,M,M,M,M,M,M,95.26,KNYC 051751Z AUTO 21007G17KT 150V240 10SM FEW046 SCT055 SCT070 32/22 A3007 RMK AO2 SLP174 T03170217 10317 20261 58021
NYC,2012-08-05 18:51,-73.9693,40.7790,89.06,69.98,53.45,M,6.00,M,30.05,1016.40,10.00,15.00,FEW,M,M,M,7000.00,M,M,M,M,M,M,M,M,M,M,94.35,KNYC 051851Z AUTO VRB06G15KT 10SM FEW070 32/21 A3005 RMK AO2 SLP164 T03170211 $
NYC,2012-08-05 19:51,-73.9693,40.7790,87.08,71.96,60.88,160.00,5.00,M,30.01,1015.30,10.00,M,SCT,BKN,M,M,6000.00,7000.00,M,M,M,M,M,M,M,M,M,93.59,KNYC 051951Z AUTO 16005KT 10SM SCT060 BKN070 31/22 A3001 RMK AO2 SLP153 T03060222 $
NYC,2012-08-05 20:51,-73.9693,40.7790,87.08,71.96,60.88,M,4.00,M,29.99,1014.40,10.00,M,FEW,SCT,M,M,6000.00,7500.00,M,M,M,M,M,M,M,M,M,93.59,KNYC 052051Z AUTO VRB04KT 10SM FEW060 SCT075 31/22 A2999 RMK AO2 SLP144 T03060222 56029 $
NYC,2012-08-05 21:51,-73.9693,40.7790,86.00,73.04,65.35,M,6.00,M,29.99,1014.60,10.00,M,FEW,M,M,M,6000.00,M,M,M,M,M,M,M,M,M,M,93.13,KNYC 052151Z AUTO VRB06KT 10SM FEW060 30/23 A2999 RMK AO2 SLP146 T03000228 $
NYC,2012-08-05 22:51,-73.9693,40.7790,86.00,73.04,65.35,M,6.00,M,29.98,1014.30,10.00,M,SCT,BKN,BKN,M,5500.00,7000.00,9000.00,M,M,M,M,M,M,M,M,93.13,KNYC 052251Z AUTO VRB06KT 10SM SCT055 BKN070 BKN090 30/23 A2998 RMK AO2 SLP143 T03000228 $
NYC,2012-08-05 23:51,-73.9693,40.7790,82.04,68.00,62.53,240.00,10.00,0.00,30.02,1015.60,4.00,23.00,FEW,SCT,BKN,M,3600.00,4500.00,5500.00,M,-RA,M,M,M,M,M,M,84.97,KNYC 052351Z AUTO 24010G23KT 200V300 4SM -RA FEW036 SCT045 BKN055 28/20 A3002 RMK AO2 RAB51 PRESRR SLP156 P0000 60000 T02780200 10328 20278 53011 $
NYC,2012-08-05 23:53,-73.9693,40.7790,78.98,69.08,71.72,240.00,10.00,0.00,30.02,M,1.50,23.00,FEW,SCT,OVC,M,2700.00,4500.00,5500.00,M,RA,M,M,M,M,M,M,78.98,KNYC 052353Z AUTO 24010G23KT 180V270 1 1/2SM RA FEW027 SCT045 OVC055 26/21 A3002 RMK AO2 PRESRR P0000 T02610206 $
NYC,2012-08-06 00:02,-73.9693,40.7790,73.04,71.06,93.52,M,5.00,0.17,30.01,M,0.75,19.00,SCT,BKN,OVC,M,3400.00,5000.00,8000.00,M,RA BR,M,M,M,M,M,M,73.04,KNYC 060002Z AUTO VRB05G19KT 3/4SM RA BR SCT034 BKN050 OVC080 23/22 A3001 RMK AO2 P0017 T02280217 $
NYC,2012-08-06 00:13,-73.9693,40.7790,73.04,71.96,96.42,M,4.00,0.17,30.01,M,7.00,M,FEW,BKN,OVC,M,3300.00,9500.00,11000.00,M,-RA,M,M,M,M,M,M,73.04,KNYC 060013Z AUTO VRB04KT 7SM -RA FEW033 BKN095 OVC110 23/22 A3001 RMK AO2 P0017 T02280222 $
NYC,2012-08-06 00:51,-73.9693,40.7790,73.04,71.96,96.42,230.00,7.00,0.20,30.04,1016.10,9.00,M,FEW,M,M,M,11000.00,M,M,M,-RA,M,M,M,M,M,M,73.04,KNYC 060051Z AUTO 23007KT 9SM -RA FEW110 23/22 A3004 RMK AO2 SLP161 P0020 T02280222 $
NYC,2012-08-06 01:51,-73.9693,40.7790,73.04,71.96,96.42,M,5.00,0.01,30.05,1016.70,9.00,M,BKN,BKN,M,M,9500.00,11000.00,M,M,M,M,M,M,M,M,M,73.04,KNYC 060151Z AUTO VRB05KT 9SM BKN095 BKN110 23/22 A3005 RMK AO2 RAE25 SLP167 P0001 T02280222 $
NYC,2012-08-06 02:51,-73.9693,40.7790,73.04,71.06,93.52,240.00,7.00,0.01,30.03,1015.80,10.00,M,OVC,M,M,M,10000.00,M,M,M,M,M,M,M,M,M,M,73.04,KNYC 060251Z AUTO 24007KT 200V270 10SM OVC100 23/22 A3003 RMK AO2 RAB01E24 SLP158 P0001 60022 T02280217 50002 $
NYC,2012-08-06 03:51,-73.9693,40.7790,73.04,71.06,93.52,M,4.00,M,30.04,1016.10,10.00,15.00,BKN,BKN,M,M,6000.00,8500.00,M,M,M,M,M,M,M,M,M,73.04,KNYC 060351Z AUTO VRB04G15KT 10SM BKN060 BKN085 23/22 A3004 RMK AO2 SLP161 T02280217 $
NYC,2012-08-06 04:44,-73.9693,40.7790,73.94,71.96,93.54,240.00,9.00,M,30.03,M,10.00,17.00,BKN,BKN,M,M,1200.00,5000.00,M,M,M,M,M,M,M,M,M,73.94,KNYC 060444Z AUTO 24009G17KT 210V270 10SM BKN012 BKN050 23/22 A3003 RMK AO2 T02330222 $
NYC,2012-08-06 04:51,-73.9693,40.7790,73.94,71.96,93.54,M,6.00,M,30.02,1015.70,10.00,17.00,BKN,BKN,M,M,1200.00,4900.00,M,M,M,M,M,M,M,M,M,73.94,KNYC 060451Z AUTO VRB06G17KT 10SM BKN012 BKN049 23/22 A3002 RMK AO2 SLP157 T02330222 403280228 $
NYC,2012-08-06 05:13,-73.9693,40.7790,73.94,71.96,93.54,M,3.00,M,30.01,M,10.00,M,SCT,BKN,M,M,1100.00,9500.00,M,M,M,M,M,M,M,M,M,73.94,KNYC 060513Z AUTO VRB03KT 10SM SCT011 BKN095 23/22 A3001 RMK AO2 T02330222 $
NYC,2012-08-06 05:30,-73.9693,40.7790,73.94,71.96,M,M,M,M,30.01,M,10.00,M,BKN,BKN,M,M,1100.00,10000.00,M,M,M,M,M,M,M,M,M,M,KNYC 060530Z AUTO 10SM BKN011 BKN100 23/22 A3001 RMK AO2 T02330222 $
NYC,2012-08-06 05:51,-73.9693,40.7790,73.94,71.96,93.54,M,4.00,M,30.01,1015.20,10.00,M,BKN,BKN,BKN,M,1100.00,4000.00,6000.00,M,M,M,M,M,M,M,M,73.94,KNYC 060551Z AUTO VRB04KT 10SM BKN011 BKN040 BKN060 23/22 A3001 RMK AO2 SLP152 60022 T02330222 10272 20228 58006 $
NYC,2012-08-06 06:38,-73.9693,40.7790,73.94,71.96,93.54,M,4.00,M,30.00,M,10.00,M,SCT,OVC,M,M,1100.00,4600.00,M,M,M,M,M,M,M,M,M,73.94,KNYC 060638Z AUTO VRB04KT 10SM SCT011 OVC046 23/22 A3000 RMK AO2 T02330222 $
NYC,2012-08-06 06:46,-73.9693,40.7790,73.40,71.60,94.10,240.00,3.00,M,30.01,M,10.00,M,BKN,OVC,M,M,1100.00,4800.00,M,M,M,M,M,M,M,M,M,73.40,KNYC 060646Z AUTO 24003KT 10SM BKN011 OVC048 23/22 A3001 RMK AO2 $
NYC,2012-08-06 06:51,-73.9693,40.7790,73.94,71.96,93.54,M,3.00,M,30.01,1015.00,10.00,M,BKN,OVC,M,M,1100.00,4800.00,M,M,M,M,M,M,M,M,M,73.94,KNYC 060651Z AUTO VRB03KT 10SM BKN011 OVC048 23/22 A3001 RMK AO2 SLP150 T02330222 $
NYC,2012-08-06 07:51,-73.9693,40.7790,73.94,73.04,97.02,M,3.00,0.01,30.00,1015.00,8.00,M,BKN,OVC,M,M,900.00,4300.00,M,M,M,M,M,M,M,M,M,73.94,KNYC 060751Z AUTO VRB03KT 8SM BKN009 OVC043 23/23 A3000 RMK AO2 RAB26E44 SLP150 P0001 T02330228 $
NYC,2012-08-06 08:49,-73.9693,40.7790,73.40,71.60,94.10,270.00,4.00,M,30.00,M,8.00,M,OVC,M,M,M,1100.00,M,M,M,M,M,M,M,M,M,M,73.40,KNYC 060849Z AUTO 27004KT 8SM OVC011 23/22 A3000 RMK AO2 $
NYC,2012-08-06 08:51,-73.9693,40.7790,73.94,71.96,93.54,260.00,5.00,M,30.00,1015.00,8.00,M,OVC,M,M,M,1100.00,M,M,M,M,M,M,M,M,M,M,73.94,KNYC 060851Z AUTO 26005KT 8SM OVC011 23/22 A3000 RMK AO2 SLP150 60001 T02330222 55001 $
NYC,2012-08-06 09:36,-73.9693,40.7790,73.94,71.96,93.54,250.00,4.00,M,30.01,M,8.00,M,SCT,OVC,M,M,1000.00,10000.00,M,M,M,M,M,M,M,M,M,73.94,KNYC 060936Z AUTO 25004KT 8SM SCT010 OVC100 23/22 A3001 RMK AO2 T02330222 $
NYC,2012-08-06 09:51,-73.9693,40.7790,73.94,71.96,93.54,280.00,3.00,M,30.01,1015.10,8.00,M,SCT,OVC,M,M,1000.00,10000.00,M,M,M,M,M,M,M,M,M,73.94,KNYC 060951Z AUTO 28003KT 8SM SCT010 OVC100 23/22 A3001 RMK AO2 SLP151 T02330222 $
NYC,2012-08-06 10:51,-73.9693,40.7790,73.94,71.96,93.54,250.00,4.00,M,30.02,1015.50,7.00,M,FEW,FEW,M,M,8000.00,10000.00,M,M,M,M,M,M,M,M,M,73.94,KNYC 061051Z AUTO 25004KT 7SM FEW080 FEW100 23/22 A3002 RMK AO2 SLP155 T02330222 $
NYC,2012-08-06 11:51,-73.9693,40.7790,75.02,71.06,87.50,290.00,6.00,M,30.03,1016.00,9.00,M,CLR,M,M,M,M,M,M,M,M,M,M,M,M,M,M,75.02,KNYC 061151Z AUTO 29006KT 9SM CLR 24/22 A3003 RMK AO2 SLP160 60001 70023 T02390217 10239 20233 53010 $
NYC,2012-08-06 12:01,-73.9693,40.7790,75.02,69.98,84.34,M,5.00,M,30.04,M,10.00,M,FEW,M,M,M,200.00,M,M,M,M,M,M,M,M,M,M,75.02,KNYC 061201Z AUTO VRB05KT 10SM FEW002 24/21 A3004 RMK AO2 T02390211 $
NYC,2012-08-06 12:51,-73.9693,40.7790,77.00,69.08,76.57,M,4.00,M,30.05,1016.50,10.00,M,CLR,M,M,M,M,M,M,M,M,M,M,M,M,M,M,77.00,KNYC 061251Z AUTO VRB04KT 10SM CLR 25/21 A3005 RMK AO2 SLP165 T02500206 $
NYC,2012-08-06 13:51,-73.9693,40.7790,78.98,68.00,69.11,40.00,6.00,M,30.04,1016.30,10.00,M,FEW,FEW,M,M,2700.00,8000.00,M,M,M,M,M,M,M,M,M,78.98,KNYC 061351Z AUTO 04006KT 10SM FEW027 FEW080 26/20 A3004 RMK AO2 SLP163 T02610200
NYC,2012-08-06 14:51,-73.9693,40.7790,80.06,66.92,64.26,0.00,0.00,M,30.05,1016.50,10.00,M,FEW,SCT,M,M,3800.00,5500.00,M,M,M,M,M,M,M,M,M,82.36,KNYC 061451Z AUTO 00000KT 10SM FEW038 SCT055 27/19 A3005 RMK AO2 SLP165 T02670194 51004
NYC,2012-08-06 15:51,-73.9693,40.7790,84.02,64.04,51.12,0.00,0.00,M,30.05,1016.50,10.00,M,FEW,M,M,M,4900.00,M,M,M,M,M,M,M,M,M,M,85.40,KNYC 061551Z AUTO 00000KT 10SM FEW049 29/18 A3005 RMK AO2 SLP165 T02890178
NYC,2012-08-06 16:51,-73.9693,40.7790,82.04,62.06,M,M,M,M,30.03,1016.00,10.00,M,SCT,SCT,M,M,6000.00,7000.00,M,M,M,M,M,M,M,M,M,M,KNYC 061651Z AUTO 10SM SCT060 SCT070 28/17 A3003 RMK AO2 SLP160 T02780167
NYC,2012-08-06 17:51,-73.9693,40.7790,84.02,60.98,45.90,M,6.00,M,30.03,1015.80,10.00,14.00,SCT,SCT,M,M,6000.00,7500.00,M,M,M,M,M,M,M,M,M,84.33,KNYC 061751Z AUTO VRB06G14KT 10SM SCT060 SCT075 29/16 A3003 RMK AO2 SLP158 T02890161 10294 20239 58006
NYC,2012-08-06 18:51,-73.9693,40.7790,84.92,57.92,39.97,M,6.00,M,30.01,1015.10,10.00,16.00,CLR,M,M,M,M,M,M,M,M,M,M,M,M,M,M,84.92,KNYC 061851Z AUTO VRB06G16KT 10SM CLR 29/14 A3001 RMK AO2 SLP151 T02940144
NYC,2012-08-06 19:51,-73.9693,40.7790,84.92,57.02,38.70,290.00,7.00,M,29.99,1014.70,10.00,15.00,CLR,M,M,M,M,M,M,M,M,M,M,M,M,M,M,84.92,KNYC 061951Z AUTO 29007G15KT 170V340 10SM CLR 29/14 A2999 RMK AO2 SLP147 T02940139
NYC,2012-08-06 20:51,-73.9693,40.7790,84.02,57.02,39.83,M,6.00,M,29.99,1014.50,10.00,M,CLR,M,M,M,M,M,M,M,M,M,M,M,M,M,M,84.02,KNYC 062051Z AUTO VRB06KT 10SM CLR 29/14 A2999 RMK AO2 SLP145 T02890139 56014
NYC,2012-08-06 21:51,-73.9693,40.7790,82.94,57.02,M,M,M,M,29.98,1014.10,10.00,M,CLR,M,M,M,M,M,M,M,M,M,M,M,M,M,M,M,KNYC 062151Z AUTO 10SM CLR 28/14 A2998 RMK AO2 SLP141 T02830139
NYC,2012-08-06 22:51,-73.9693,40.7790,80.96,55.94,42.30,M,3.00,M,29.99,1014.50,10.00,M,CLR,M,M,M,M,M,M,M,M,M,M,M,M,M,M,80.85,KNYC 062251Z AUTO VRB03KT 10SM CLR 27/13 A2999 RMK AO2 SLP145 T02720133
NYC,2012-08-06 23:51,-73.9693,40.7790,78.98,55.94,45.14,M,3.00,M,30.01,1015.10,10.00,M,CLR,M,M,M,M,M,M,M,M,M,M,M,M,M,M,78.98,KNYC 062351Z AUTO VRB03KT 10SM CLR 26/13 A3001 RMK AO2 SLP151 T02610133 10300 20261 53006
NYC,2012-08-07 00:51,-73.9693,40.7790,77.00,55.94,48.19,0.00,0.00,M,30.02,1015.60,10.00,M,CLR,M,M,M,M,M,M,M,M,M,M,M,M,M,M,77.00,KNYC 070051Z AUTO 00000KT 10SM CLR 25/13 A3002 RMK AO2 SLP156 T02500133
NYC,2012-08-07 01:51,-73.9693,40.7790,75.92,55.04,48.34,0.00,0.00,M,30.03,1015.80,10.00,M,CLR,M,M,M,M,M,M,M,M,M,M,M,M,M,M,75.92,KNYC 070151Z AUTO 00000KT 10SM CLR 24/13 A3003 RMK AO2 SLP158 T02440128
NYC,2012-08-07 02:51,-73.9693,40.7790,75.02,53.96,47.89,0.00,0.00,M,30.03,1015.90,10.00,M,CLR,M,M,M,M,M,M,M,M,M,M,M,M,M,M,75.02,KNYC 070251Z AUTO 00000KT 10SM CLR 24/12 A3003 RMK AO2 SLP159 T02390122 51008
NYC,2012-08-07 03:51,-73.9693,40.7790,73.94,55.04,51.65,0.00,0.00,M,30.03,1015.90,10.00,M,CLR,M,M,M,M,M,M,M,M,M,M,M,M,M,M,73.94,KNYC 070351Z AUTO 00000KT 10SM CLR 23/13 A3003 RMK AO2 SLP159 T02330128
NYC,2012-08-07 04:51,-73.9693,40.7790,71.96,55.04,55.22,0.00,0.00,M,30.03,1015.80,10.00,M,CLR,M,M,M,M,M,M,M,M,M,M,M,M,M,M,71.96,KNYC 070451Z AUTO 00000KT 10SM CLR 22/13 A3003 RMK AO2 SLP158 T02220128 403000222
NYC,2012-08-07 05:51,-73.9693,40.7790,71.06,57.02,61.16,0.00,0.00,M,30.03,1015.90,10.00,M,CLR,M,M,M,M,M,M,M,M,M,M,M,M,M,M,71.06,KNYC 070551Z 00000KT 10SM CLR 22/14 A3003 RMK AO2 SLP159 T02170139 10261 20217 55000
NYC,2012-08-07 06:51,-73.9693,40.7790,69.98,57.02,63.45,0.00,0.00,M,30.02,1015.70,10.00,M,CLR,M,M,M,M,M,M,M,M,M,M,M,M,M,M,69.98,KNYC 070651Z 00000KT 10SM CLR 21/14 A3002 RMK AO2 SLP157 T02110139
NYC,2012-08-07 07:51,-73.9693,40.7790,69.08,59.00,70.26,30.00,3.00,M,30.02,1015.60,10.00,M,CLR,M,M,M,M,M,M,M,M,M,M,M,M,M,M,69.08,KNYC 070751Z 03003KT 10SM CLR 21/15 A3002 RMK AO2 SLP156 T02060150
NYC,2012-08-07 08:51,-73.9693,40.7790,68.00,57.02,67.91,30.00,3.00,M,30.03,1015.80,10.00,M,CLR,M,M,M,M,M,M,M,M,M,M,M,M,M,M,68.00,KNYC 070851Z 03003KT 10SM CLR 20/14 A3003 RMK AO2 SLP158 T02000139 55001
NYC,2012-08-07 09:51,-73.9693,40.7790,68.00,57.02,67.91,0.00,0.00,M,30.04,1016.10,10.00,M,CLR,M,M,M,M,M,M,M,M,M,M,M,M,M,M,68.00,KNYC 070951Z 00000KT 10SM CLR 20/14 A3004 RMK AO2 SLP161 T02000139
NYC,2012-08-07 10:51,-73.9693,40.7790,69.98,57.02,63.45,40.00,4.00,M,30.04,1016.30,10.00,M,CLR,M,M,M,M,M,M,M,M,M,M,M,M,M,M,69.98,KNYC 071051Z 04004KT 10SM CLR 21/14 A3004 RMK AO2 SLP163 T02110139
NYC,2012-08-07 11:35,-73.9693,40.7790,71.06,57.92,63.18,0.00,0.00,M,30.04,M,10.00,M,FEW,M,M,M,200.00,M,M,M,M,M,M,M,M,M,M,71.06,KNYC 071135Z 00000KT 10SM FEW002 22/14 A3004 RMK AO2 T02170144
NYC,2012-08-07 11:51,-73.9693,40.7790,71.96,57.92,61.28,M,3.00,M,30.05,1016.40,10.00,M,CLR,M,M,M,M,M,M,M,M,M,M,M,M,M,M,71.96,KNYC 071151Z VRB03KT 10SM CLR 22/14 A3005 RMK AO2 SLP164 T02220144 10228 20200 51006
NYC,2012-08-07 12:51,-73.9693,40.7790,73.94,57.92,57.32,M,4.00,M,30.05,1016.40,10.00,M,CLR,M,M,M,M,M,M,M,M,M,M,M,M,M,M,73.94,KNYC 071251Z VRB04KT 10SM CLR 23/14 A3005 RMK AO2 SLP164 T02330144
NYC,2012-08-07 13:51,-73.9693,40.7790,75.92,59.00,55.77,0.00,0.00,M,30.04,1016.20,10.00,M,CLR,M,M,M,M,M,M,M,M,M,M,M,M,M,M,75.92,KNYC 071351Z 00000KT 10SM CLR 24/15 A3004 RMK AO2 SLP162 T02440150
NYC,2012-08-07 14:51,-73.9693,40.7790,78.08,57.92,49.94,0.00,0.00,M,30.04,1016.30,10.00,M,CLR,M,M,M,M,M,M,M,M,M,M,M,M,M,M,78.08,KNYC 071451Z AUTO 00000KT 10SM CLR 26/14 A3004 RMK AO2 SLP163 T02560144 55001
NYC,2012-08-07 15:51,-73.9693,40.7790,78.98,55.04,43.68,0.00,0.00,M,30.04,1016.30,10.00,M,CLR,M,M,M,M,M,M,M,M,M,M,M,M,M,M,78.98,KNYC 071551Z AUTO 00000KT 10SM CLR 26/13 A3004 RMK AO2 SLP163 T02610128
NYC,2012-08-07 16:51,-73.9693,40.7790,80.06,57.92,46.79,0.00,0.00,M,30.03,1015.90,10.00,M,CLR,M,M,M,M,M,M,M,M,M,M,M,M,M,M,80.56,KNYC 071651Z AUTO 00000KT 10SM CLR 27/14 A3003 RMK AO2 SLP159 T02670144
NYC,2012-08-07 17:51,-73.9693,40.7790,80.96,57.92,45.44,0.00,0.00,M,30.02,1015.40,10.00,M,CLR,M,M,M,M,M,M,M,M,M,M,M,M,M,M,81.18,KNYC 071751Z AUTO 00000KT 10SM CLR 27/14 A3002 RMK AO2 SLP154 T02720144 10278 20222 58009
NYC,2012-08-07 18:51,-73.9693,40.7790,80.96,60.08,49.09,250.00,5.00,M,30.01,1015.10,10.00,M,CLR,M,M,M,M,M,M,M,M,M,M,M,M,M,M,81.59,KNYC 071851Z AUTO 25005KT 10SM CLR 27/16 A3001 RMK AO2 SLP151 T02720156
NYC,2012-08-07 19:51,-73.9693,40.7790,82.04,60.08,47.39,M,3.00,M,29.99,1014.70,10.00,M,CLR,M,M,M,M,M,M,M,M,M,M,M,M,M,M,82.43,KNYC 071951Z AUTO VRB03KT 10SM CLR 28/16 A2999 RMK AO2 SLP147 T02780156
NYC,2012-08-07 20:51,-73.9693,40.7790,80.96,60.98,50.68,0.00,0.00,M,29.99,1014.60,10.00,M,CLR,M,M,M,M,M,M,M,M,M,M,M,M,M,M,81.78,KNYC 072051Z AUTO 00000KT 10SM CLR 27/16 A2999 RMK AO2 SLP146 T02720161 56008
NYC,2012-08-07 21:51,-73.9693,40.7790,78.08,62.96,59.74,M,3.00,M,29.99,1014.60,10.00,M,CLR,M,M,M,M,M,M,M,M,M,M,M,M,M,M,78.08,KNYC 072151Z AUTO VRB03KT 10SM CLR 26/17 A2999 RMK AO2 SLP146 T02560172
NYC,2012-08-07 22:51,-73.9693,40.7790,77.00,64.04,64.30,M,4.00,M,29.99,1014.50,10.00,M,CLR,M,M,M,M,M,M,M,M,M,M,M,M,M,M,77.00,KNYC 072251Z AUTO VRB04KT 10SM CLR 25/18 A2999 RMK AO2 SLP145 T02500178
NYC,2012-08-07 23:51,-73.9693,40.7790,77.00,62.96,61.91,M,3.00,M,29.99,1014.60,10.00,M,FEW,M,M,M,200.00,M,M,M,M,M,M,M,M,M,M,77.00,KNYC 072351Z AUTO VRB03KT 10SM FEW002 25/17 A2999 RMK AO2 SLP146 T02500172 10283 20250 53001
NYC,2012-08-08 00:51,-73.9693,40.7790,75.92,64.94,68.78,0.00,0.00,M,30.00,1014.70,10.00,M,CLR,M,M,M,M,M,M,M,M,M,M,M,M,M,M,75.92,KNYC 080051Z AUTO 00000KT 10SM CLR 24/18 A3000 RMK AO2 SLP147 T02440183
NYC,2012-08-08 01:51,-73.9693,40.7790,75.02,64.94,70.88,M,3.00,M,30.01,1015.10,10.00,M,CLR,M,M,M,M,M,M,M,M,M,M,M,M,M,M,75.02,KNYC 080151Z AUTO VRB03KT 10SM CLR 24/18 A3001 RMK AO2 SLP151 T02390183
NYC,2012-08-08 02:51,-73.9693,40.7790,75.02,64.94,70.88,M,3.00,M,30.01,1015.10,10.00,M,CLR,M,M,M,M,M,M,M,M,M,M,M,M,M,M,75.02,KNYC 080251Z AUTO VRB03KT 10SM CLR 24/18 A3001 RMK AO2 SLP151 T02390183 51005
NYC,2012-08-08 03:51,-73.9693,40.7790,75.02,64.94,70.88,0.00,0.00,M,30.00,1015.00,10.00,M,CLR,M,M,M,M,M,M,M,M,M,M,M,M,M,M,75.02,KNYC 080351Z AUTO 00000KT 10SM CLR 24/18 A3000 RMK AO2 SLP150 T02390183
NYC,2012-08-08 04:51,-73.9693,40.7790,75.02,66.02,73.59,0.00,0.00,M,30.01,1015.30,10.00,M,CLR,M,M,M,M,M,M,M,M,M,M,M,M,M,M,75.02,KNYC 080451Z AUTO 00000KT 10SM CLR 24/19 A3001 RMK AO2 SLP153 T02390189 402830200
NYC,2012-08-08 05:51,-73.9693,40.7790,75.02,69.08,81.79,0.00,0.00,M,30.01,1015.20,10.00,M,CLR,M,M,M,M,M,M,M,M,M,M,M,M,M,M,75.02,KNYC 080551Z AUTO 00000KT 10SM CLR 24/21 A3001 RMK AO2 SLP152 T02390206 10250 20233 53001
NYC,2012-08-08 06:51,-73.9693,40.7790,75.02,69.98,84.34,0.00,0.00,M,30.00,1014.90,9.00,M,CLR,M,M,M,M,M,M,M,M,M,M,M,M,M,M,75.02,KNYC 080651Z AUTO 00000KT 9SM CLR 24/21 A3000 RMK AO2 SLP149 T02390211
NYC,2012-08-08 07:51,-73.9693,40.7790,73.04,69.98,90.14,0.00,0.00,M,30.00,1014.90,8.00,M,SCT,M,M,M,1200.00,M,M,M,M,M,M,M,M,M,M,73.04,KNYC 080751Z AUTO 00000KT 8SM SCT012 23/21 A3000 RMK AO2 SLP149 T02280211
NYC,2012-08-08 08:02,-73.9693,40.7790,73.94,69.98,87.45,0.00,0.00,M,30.00,M,7.00,M,BKN,M,M,M,1200.00,M,M,M,M,M,M,M,M,M,M,73.94,KNYC 080802Z AUTO 00000KT 7SM BKN012 23/21 A3000 RMK AO2 T02330211
NYC,2012-08-08 08:20,-73.9693,40.7790,73.94,69.98,87.45,0.00,0.00,M,30.00,M,6.00,M,SCT,M,M,M,1200.00,M,M,M,BR,M,M,M,M,M,M,73.94,KNYC 080820Z AUTO 00000KT 6SM BR SCT012 23/21 A3000 RMK AO2 T02330211
NYC,2012-08-08 08:51,-73.9693,40.7790,73.04,69.98,90.14,0.00,0.00,M,30.00,1014.80,5.00,M,FEW,M,M,M,1200.00,M,M,M,BR,M,M,M,M,M,M,73.04,KNYC 080851Z AUTO 00000KT 5SM BR FEW012 23/21 A3000 RMK AO2 SLP148 T02280211 56004
NYC,2012-08-08 09:51,-73.9693,40.7790,73.04,69.98,90.14,0.00,0.00,M,30.00,1014.90,5.00,M,CLR,M,M,M,M,M,M,M,BR,M,M,M,M,M,M,73.04,KNYC 080951Z AUTO 00000KT 5SM BR CLR 23/21 A3000 RMK AO2 SLP149 T02280211
NYC,2012-08-08 10:51,-73.9693,40.7790,73.94,71.06,90.73,0.00,0.00,M,30.01,1015.10,3.00,M,CLR,M,M,M,M,M,M,M,BR,M,M,M,M,M,M,73.94,KNYC 081051Z AUTO 00000KT 3SM BR CLR 23/22 A3001 RMK AO2 SLP151 T02330217
NYC,2012-08-08 11:51,-73.9693,40.7790,75.92,69.98,81.85,0.00,0.00,M,30.01,1015.40,5.00,M,CLR,M,M,M,M,M,M,M,HZ,M,M,M,M,M,M,75.92,KNYC 081151Z AUTO 00000KT 5SM HZ CLR 24/21 A3001 RMK AO2 SLP154 T02440211 10244 20228 53005
NYC,2012-08-08 12:01,-73.9693,40.7790,75.92,69.98,81.85,0.00,0.00,M,30.02,M,6.00,M,FEW,M,M,M,500.00,M,M,M,HZ,M,M,M,M,M,M,75.92,KNYC 081201Z AUTO 00000KT 6SM HZ FEW005 24/21 A3002 RMK AO2 T02440211
NYC,2012-08-08 12:51,-73.9693,40.7790,77.00,69.98,78.96,0.00,0.00,M,30.02,1015.50,7.00,M,CLR,M,M,M,M,M,M,M,M,M,M,M,M,M,M,77.00,KNYC 081251Z AUTO 00000KT 7SM CLR 25/21 A3002 RMK AO2 SLP155 T02500211
NYC,2012-08-08 13:51,-73.9693,40.7790,78.08,68.00,71.19,0.00,0.00,M,30.02,1015.60,8.00,M,FEW,M,M,M,3400.00,M,M,M,M,M,M,M,M,M,M,78.08,KNYC 081351Z AUTO 00000KT 8SM FEW034 26/20 A3002 RMK AO2 SLP156 T02560200
NYC,2012-08-08 14:51,-73.9693,40.7790,80.06,62.96,55.97,0.00,0.00,M,30.02,1015.50,10.00,M,CLR,M,M,M,M,M,M,M,M,M,M,M,M,M,M,81.45,KNYC 081451Z AUTO 00000KT 10SM CLR 27/17 A3002 RMK AO2 SLP155 T02670172 50002
NYC,2012-08-08 15:51,-73.9693,40.7790,82.04,62.96,52.47,0.00,0.00,M,30.01,1015.20,10.00,M,BKN,BKN,M,M,5000.00,6000.00,M,M,M,M,M,M,M,M,M,83.19,KNYC 081551Z AUTO 00000KT 10SM BKN050 BKN060 28/17 A3001 RMK AO2 SLP152 T02780172
NYC,2012-08-08 16:51,-73.9693,40.7790,82.94,62.06,49.37,260.00,3.00,M,30.00,1014.90,10.00,M,SCT,M,M,M,5500.00,M,M,M,M,M,M,M,M,M,M,83.72,KNYC 081651Z AUTO 26003KT 10SM SCT055 28/17 A3000 RMK AO2 SLP149 T02830167
NYC,2012-08-08 17:51,-73.9693,40.7790,82.94,64.94,54.63,0.00,0.00,M,29.99,1014.40,10.00,M,BKN,M,M,M,5500.00,M,M,M,M,M,M,M,M,M,M,84.70,KNYC 081751Z AUTO 00000KT 10SM BKN055 28/18 A2999 RMK AO2 SLP144 T02830183 10294 20244 58011
NYC,2012-08-08 18:51,-73.9693,40.7790,84.02,64.94,52.75,0.00,0.00,M,29.97,1014.00,10.00,M,SCT,M,M,M,6000.00,M,M,M,M,M,M,M,M,M,M,85.76,KNYC 081851Z AUTO 00000KT 10SM SCT060 29/18 A2997 RMK AO2 SLP140 T02890183
NYC,2012-08-08 19:51,-73.9693,40.7790,82.94,66.92,58.51,M,4.00,M,29.96,1013.60,10.00,M,CLR,M,M,M,M,M,M,M,M,M,M,M,M,M,M,85.50,KNYC 081951Z AUTO VRB04KT 10SM CLR 28/19 A2996 RMK AO2 SLP136 T02830194
NYC,2012-08-08 20:51,-73.9693,40.7790,82.04,66.02,58.40,200.00,5.00,M,29.95,1013.30,10.00,M,CLR,M,M,M,M,M,M,M,M,M,M,M,M,M,M,84.19,KNYC 082051Z AUTO 20005KT 10SM CLR 28/19 A2995 RMK AO2 SLP133 T02780189 56011
NYC,2012-08-08 21:51,-73.9693,40.7790,80.96,66.92,62.40,M,3.00,M,29.96,1013.50,10.00,M,CLR,M,M,M,M,M,M,M,M,M,M,M,M,M,M,83.36,KNYC 082151Z AUTO VRB03KT 10SM CLR 27/19 A2996 RMK AO2 SLP135 T02720194
NYC,2012-08-08 22:51,-73.9693,40.7790,80.06,69.98,71.39,M,3.00,M,29.96,1013.60,10.00,M,CLR,M,M,M,M,M,M,M,M,M,M,M,M,M,M,83.22,KNYC 082251Z AUTO VRB03KT 10SM CLR 27/21 A2996 RMK AO2 SLP136 T02670211
NYC,2012-08-08 23:51,-73.9693,40.7790,78.98,69.98,73.97,M,3.00,M,29.97,1014.00,10.00,M,CLR,M,M,M,M,M,M,M,M,M,M,M,M,M,M,78.98,KNYC 082351Z AUTO VRB03KT 10SM CLR 26/21 A2997 RMK AO2 SLP140 T02610211 10300 20261 53007
NYC,2012-08-09 00:51,-73.9693,40.7790,77.00,71.06,81.92,0.00,0.00,M,29.98,1014.20,10.00,M,CLR,M,M,M,M,M,M,M,M,M,M,M,M,M,M,77.00,KNYC 090051Z AUTO 00000KT 10SM CLR 25/22 A2998 RMK AO2 SLP142 T02500217
NYC,2012-08-09 01:51,-73.9693,40.7790,77.00,71.96,84.46,0.00,0.00,M,29.99,1014.40,10.00,M,CLR,M,M,M,M,M,M,M,M,M,M,M,M,M,M,77.00,KNYC 090151Z AUTO 00000KT 10SM CLR 25/22 A2999 RMK AO2 SLP144 T02500222
NYC,2012-08-09 02:51,-73.9693,40.7790,75.92,71.96,87.55,M,3.00,M,29.98,1014.30,10.00,M,CLR,M,M,M,M,M,M,M,M,M,M,M,M,M,M,75.92,KNYC 090251Z AUTO VRB03KT 10SM CLR 24/22 A2998 RMK AO2 SLP143 T02440222 50003
NYC,2012-08-09 03:51,-73.9693,40.7790,75.92,73.04,90.80,0.00,0.00,M,29.98,1014.30,10.00,M,CLR,M,M,M,M,M,M,M,M,M,M,M,M,M,M,75.92,KNYC 090351Z AUTO 00000KT 10SM CLR 24/23 A2998 RMK AO2 SLP143 T02440228
NYC,2012-08-09 04:51,-73.9693,40.7790,75.92,73.04,90.80,0.00,0.00,M,29.98,1014.10,10.00,M,SCT,M,M,M,1700.00,M,M,M,M,M,M,M,M,M,M,75.92,KNYC 090451Z AUTO 00000KT 10SM SCT017 24/23 A2998 RMK AO2 SLP141 T02440228 403000228
NYC,2012-08-09 05:51,-73.9693,40.7790,75.92,71.96,87.55,M,5.00,M,29.98,1014.10,10.00,M,CLR,M,M,M,M,M,M,M,M,M,M,M,M,M,M,75.92,KNYC 090551Z AUTO VRB05KT 10SM CLR 24/22 A2998 RMK AO2 SLP141 T02440222 10261 20244 57002
NYC,2012-08-09 06:51,-73.9693,40.7790,75.02,71.96,90.22,M,3.00,M,29.97,1013.80,10.00,M,CLR,M,M,M,M,M,M,M,M,M,M,M,M,M,M,75.02,KNYC 090651Z AUTO VRB03KT 10SM CLR 24/22 A2997 RMK AO2 SLP138 T02390222
NYC,2012-08-09 07:51,-73.9693,40.7790,75.02,71.96,90.22,0.00,0.00,M,29.96,1013.50,9.00,M,CLR,M,M,M,M,M,M,M,M,M,M,M,M,M,M,75.02,KNYC 090751Z AUTO 00000KT 9SM CLR 24/22 A2996 RMK AO2 SLP135 T02390222
NYC,2012-08-09 08:51,-73.9693,40.7790,73.94,71.96,93.54,0.00,0.00,M,29.96,1013.50,8.00,M,CLR,M,M,M,M,M,M,M,M,M,M,M,M,M,M,73.94,KNYC 090851Z AUTO 00000KT 8SM CLR 23/22 A2996 RMK AO2 SLP135 T02330222 56006
NYC,2012-08-09 09:51,-73.9693,40.7790,73.94,71.06,90.73,0.00,0.00,M,29.97,1013.80,8.00,M,CLR,M,M,M,M,M,M,M,M,M,M,M,M,M,M,73.94,KNYC 090951Z AUTO 00000KT 8SM CLR 23/22 A2997 RMK AO2 SLP138 T02330217
NYC,2012-08-09 10:05,-73.9693,40.7790,73.04,71.06,93.52,0.00,0.00,M,29.97,M,8.00,M,FEW,M,M,M,200.00,M,M,M,M,M,M,M,M,M,M,73.04,KNYC 091005Z AUTO 00000KT 8SM FEW002 23/22 A2997 RMK AO2 T02280217
NYC,2012-08-09 10:51,-73.9693,40.7790,73.94,71.06,90.73,0.00,0.00,M,29.98,1014.20,7.00,M,CLR,M,M,M,M,M,M,M,M,M,M,M,M,M,M,73.94,KNYC 091051Z AUTO 00000KT 7SM CLR 23/22 A2998 RMK AO2 SLP142 T02330217
NYC,2012-08-09 11:31,-73.9693,40.7790,75.92,69.98,81.85,M,3.00,M,29.99,M,8.00,M,FEW,M,M,M,400.00,M,M,M,M,M,M,M,M,M,M,75.92,KNYC 091131Z AUTO VRB03KT 8SM FEW004 24/21 A2999 RMK AO2 T02440211
NYC,2012-08-09 11:51,-73.9693,40.7790,77.00,69.98,78.96,0.00,0.00,M,29.98,1014.30,8.00,M,CLR,M,M,M,M,M,M,M,M,M,M,M,M,M,M,77.00,KNYC 091151Z AUTO 00000KT 8SM CLR 25/21 A2998 RMK AO2 SLP143 T02500211 10250 20228 51009
NYC,2012-08-09 12:51,-73.9693,40.7790,78.98,68.00,69.11,0.00,0.00,M,29.99,1014.50,8.00,M,CLR,M,M,M,M,M,M,M,M,M,M,M,M,M,M,78.98,KNYC 091251Z AUTO 00000KT 8SM CLR 26/20 A2999 RMK AO2 SLP145 T02610200
NYC,2012-08-09 13:51,-73.9693,40.7790,80.06,66.92,64.26,0.00,0.00,M,29.98,1014.30,9.00,M,CLR,M,M,M,M,M,M,M,M,M,M,M,M,M,M,82.36,KNYC 091351Z AUTO 00000KT 9SM CLR 27/19 A2998 RMK AO2 SLP143 T02670194
NYC,2012-08-09 14:51,-73.9693,40.7790,84.02,68.00,58.65,M,4.00,M,29.97,1013.70,8.00,M,CLR,M,M,M,M,M,M,M,M,M,M,M,M,M,M,87.20,KNYC 091451Z AUTO VRB04KT 8SM CLR 29/20 A2997 RMK AO2 SLP137 T02890200 58006
NYC,2012-08-09 15:51,-73.9693,40.7790,86.00,66.02,51.40,0.00,0.00,M,29.96,1013.60,9.00,M,FEW,M,M,M,5000.00,M,M,M,M,M,M,M,M,M,M,88.29,KNYC 091551Z AUTO 00000KT 9SM FEW050 30/19 A2996 RMK AO2 SLP136 T03000189
NYC,2012-08-09 16:51,-73.9693,40.7790,84.02,66.02,54.77,0.00,0.00,M,29.96,1013.40,8.00,M,BKN,M,M,M,5000.00,M,M,M,M,M,M,M,M,M,M,86.23,KNYC 091651Z AUTO 00000KT 8SM BKN050 29/19 A2996 RMK AO2 SLP134 T02890189
NYC,2012-08-09 17:51,-73.9693,40.7790,84.92,66.92,54.90,M,5.00,M,29.94,1012.90,9.00,M,FEW,SCT,M,M,5000.00,6500.00,M,M,M,M,M,M,M,M,M,87.62,KNYC 091751Z AUTO VRB05KT 9SM FEW050 SCT065 29/19 A2994 RMK AO2 SLP129 T02940194 10311 20250 58008
NYC,2012-08-09 18:51,-73.9693,40.7790,86.00,69.08,57.12,170.00,7.00,M,29.93,1012.50,10.00,15.00,CLR,M,M,M,M,M,M,M,M,M,M,M,M,M,M,90.10,KNYC 091851Z AUTO 17007G15KT 10SM CLR 30/21 A2993 RMK AO2 SLP125 T03000206
NYC,2012-08-09 19:51,-73.9693,40.7790,84.92,69.08,59.13,M,6.00,M,29.92,1012.20,10.00,M,CLR,M,M,M,M,M,M,M,M,M,M,M,M,M,M,88.84,KNYC 091951Z AUTO VRB06KT 10SM CLR 29/21 A2992 RMK AO2 SLP122 T02940206
NYC,2012-08-09 20:51,-73.9693,40.7790,82.04,69.08,64.90,M,3.00,M,29.92,1012.10,10.00,M,CLR,M,M,M,M,M,M,M,M,M,M,M,M,M,M,85.43,KNYC 092051Z AUTO VRB03KT 10SM CLR 28/21 A2992 RMK AO2 SLP121 T02780206 56008
NYC,2012-08-09 21:51,-73.9693,40.7790,80.06,69.08,69.23,M,5.00,M,29.93,1012.40,10.00,14.00,CLR,M,M,M,M,M,M,M,M,M,M,M,M,M,M,82.95,KNYC 092151Z AUTO VRB05G14KT 10SM CLR 27/21 A2993 RMK AO2 SLP124 T02670206
NYC,2012-08-09 22:51,-73.9693,40.7790,78.98,69.08,M,M,M,M,29.91,1011.70,10.00,M,CLR,M,M,M,M,M,M,M,M,M,M,M,M,M,M,M,KNYC 092251Z AUTO 10SM CLR 26/21 A2991 RMK AO2 SLP117 T02610206
NYC,2012-08-09 23:30,-73.9693,40.7790,78.98,69.98,73.97,M,3.00,M,29.90,M,10.00,M,FEW,M,M,M,200.00,M,M,M,M,M,M,M,M,M,M,78.98,KNYC 092330Z AUTO VRB03KT 10SM FEW002 26/21 A2990 RMK AO2 T02610211
NYC,2012-08-09 23:51,-73.9693,40.7790,78.98,69.08,71.72,190.00,5.00,M,29.91,1011.90,10.00,M,FEW,SCT,BKN,M,2200.00,7000.00,9500.00,M,M,M,M,M,M,M,M,78.98,KNYC 092351Z AUTO 19005KT 10SM FEW022 SCT070 BKN095 26/21 A2991 RMK AO2 SLP119 T02610206 10306 20261 58002
NYC,2012-08-10 00:51,-73.9693,40.7790,78.08,71.06,M,M,M,M,29.91,1012.00,10.00,M,CLR,M,M,M,M,M,M,M,M,M,M,M,M,M,M,M,KNYC 100051Z AUTO 10SM CLR 26/22 A2991 RMK AO2 SLP120 T02560217
NYC,2012-08-10 01:51,-73.9693,40.7790,78.08,71.96,81.50,M,3.00,M,29.94,1012.70,9.00,M,CLR,M,M,M,M,M,M,M,M,M,M,M,M,M,M,78.08,KNYC 100151Z AUTO VRB03KT 9SM CLR 26/22 A2994 RMK AO2 SLP127 T02560222
NYC,2012-08-10 02:51,-73.9693,40.7790,78.08,71.06,79.05,220.00,4.00,M,29.94,1012.70,8.00,M,FEW,M,M,M,7500.00,M,M,M,M,M,M,M,M,M,M,78.08,KNYC 100251Z AUTO 22004KT 8SM FEW075 26/22 A2994 RMK AO2 SLP127 T02560217 50008
NYC,2012-08-10 03:51,-73.9693,40.7790,78.08,71.06,79.05,0.00,0.00,M,29.93,1012.50,8.00,M,CLR,M,M,M,M,M,M,M,M,M,M,M,M,M,M,78.08,KNYC 100351Z AUTO 00000KT 8SM CLR 26/22 A2993 RMK AO2 SLP125 T02560217
NYC,2012-08-10 04:51,-73.9693,40.7790,77.00,71.96,84.46,170.00,4.00,M,29.92,1012.10,8.00,M,CLR,M,M,M,M,M,M,M,M,M,M,M,M,M,M,77.00,KNYC 100451Z AUTO 17004KT 8SM CLR 25/22 A2992 RMK AO2 SLP121 T02500222 403110228
NYC,2012-08-10 05:51,-73.9693,40.7790,77.00,71.96,M,M,M,M,29.90,1011.60,8.00,M,BKN,M,M,M,1600.00,M,M,M,M,M,M,M,M,M,M,M,KNYC 100551Z AUTO 8SM BKN016 25/22 A2990 RMK AO2 SLP116 T02500222 10261 20250 58011
NYC,2012-08-10 06:51,-73.9693,40.7790,77.00,73.04,87.60,M,4.00,M,29.89,1011.20,9.00,M,BKN,M,M,M,1700.00,M,M,M,M,M,M,M,M,M,M,77.00,KNYC 100651Z AUTO VRB04KT 9SM BKN017 25/23 A2989 RMK AO2 SLP112 T02500228
NYC,2012-08-10 07:14,-73.9693,40.7790,77.00,71.96,M,M,M,M,29.89,M,9.00,M,SCT,M,M,M,1800.00,M,M,M,M,M,M,M,M,M,M,M,KNYC 100714Z AUTO 9SM SCT018 25/22 A2989 RMK AO2 T02500222
NYC,2012-08-10 07:51,-73.9693,40.7790,77.00,71.96,84.46,200.00,6.00,M,29.88,1010.80,9.00,M,FEW,M,M,M,1800.00,M,M,M,M,M,M,M,M,M,M,77.00,KNYC 100751Z AUTO 20006KT 9SM FEW018 25/22 A2988 RMK AO2 SLP108 T02500222
NYC,2012-08-10 08:51,-73.9693,40.7790,75.92,73.04,90.80,190.00,4.00,M,29.88,1010.70,9.00,M,SCT,M,M,M,1400.00,M,M,M,M,M,M,M,M,M,M,75.92,KNYC 100851Z AUTO 19004KT 9SM SCT014 24/23 A2988 RMK AO2 SLP107 T02440228 56009
NYC,2012-08-10 09:00,-73.9693,40.7790,77.00,73.04,87.60,0.00,0.00,M,29.88,M,9.00,M,BKN,M,M,M,1400.00,M,M,M,M,M,M,M,M,M,M,77.00,KNYC 100900Z AUTO 00000KT 9SM BKN014 25/23 A2988 RMK AO2 T02500228
NYC,2012-08-10 09:51,-73.9693,40.7790,77.00,73.04,87.60,M,4.00,M,29.88,1010.90,9.00,M,OVC,M,M,M,1400.00,M,M,M,M,M,M,M,M,M,M,77.00,KNYC 100951Z AUTO VRB04KT 9SM OVC014 25/23 A2988 RMK AO2 SLP109 T02500228
NYC,2012-08-10 10:51,-73.9693,40.7790,78.08,73.04,84.53,0.00,0.00,M,29.88,1010.80,8.00,M,OVC,M,M,M,1300.00,M,M,M,M,M,M,M,M,M,M,78.08,KNYC 101051Z AUTO 00000KT 8SM OVC013 26/23 A2988 RMK AO2 SLP108 T02560228
NYC,2012-08-10 11:51,-73.9693,40.7790,78.08,73.04,84.53,M,4.00,M,29.87,1010.50,9.00,M,BKN,BKN,M,M,1400.00,2100.00,M,M,M,M,M,M,M,M,M,78.08,KNYC 101151Z AUTO VRB04KT 9SM BKN014 BKN021 26/23 A2987 RMK AO2 SLP105 T02560228 10256 20244 58002
NYC,2012-08-10 12:03,-73.9693,40.7790,78.08,73.04,84.53,M,4.00,M,29.87,M,9.00,M,BKN,BKN,OVC,M,1500.00,2000.00,3500.00,M,M,M,M,M,M,M,M,78.08,KNYC 101203Z AUTO VRB04KT 9SM BKN015 BKN020 OVC035 26/23 A2987 RMK AO2 T02560228
NYC,2012-08-10 12:51,-73.9693,40.7790,78.98,73.04,82.06,M,3.00,M,29.87,1010.50,10.00,M,BKN,M,M,M,1700.00,M,M,M,M,M,M,M,M,M,M,78.98,KNYC 101251Z AUTO VRB03KT 10SM BKN017 26/23 A2987 RMK AO2 SLP105 T02610228
NYC,2012-08-10 13:44,-73.9693,40.7790,78.98,73.04,82.06,M,6.00,M,29.87,M,10.00,M,SCT,BKN,BKN,M,1800.00,4100.00,4900.00,M,M,M,M,M,M,M,M,78.98,KNYC 101344Z AUTO VRB06KT 10SM SCT018 BKN041 BKN049 26/23 A2987 RMK AO2 T02610228
NYC,2012-08-10 13:51,-73.9693,40.7790,78.98,73.04,82.06,M,6.00,M,29.86,1010.30,10.00,M,SCT,SCT,BKN,M,1800.00,2800.00,4400.00,M,M,M,M,M,M,M,M,78.98,KNYC 101351Z AUTO VRB06KT 10SM SCT018 SCT028 BKN044 26/23 A2986 RMK AO2 SLP103 T02610228
NYC,2012-08-10 14:06,-73.9693,40.7790,78.98,73.04,82.06,M,5.00,M,29.86,M,10.00,M,SCT,BKN,BKN,M,2000.00,2500.00,3000.00,M,M,M,M,M,M,M,M,78.98,KNYC 101406Z AUTO VRB05KT 10SM SCT020 BKN025 BKN030 26/23 A2986 RMK AO2 T02610228
NYC,2012-08-10 14:51,-73.9693,40.7790,78.98,73.04,82.06,180.00,6.00,M,29.85,1009.80,10.00,M,SCT,BKN,BKN,M,1900.00,3100.00,4300.00,M,M,M,M,M,M,M,M,78.98,KNYC 101451Z AUTO 18006KT 10SM SCT019 BKN031 BKN043 26/23 A2985 RMK AO2 SLP098 T02610228 58006
NYC,2012-08-10 15:02,-73.9693,40.7790,78.98,73.04,82.06,170.00,8.00,M,29.85,M,10.00,M,SCT,BKN,M,M,1900.00,2700.00,M,M,M,M,M,M,M,M,M,78.98,KNYC 101502Z AUTO 17008KT 10SM SCT019 BKN027 26/23 A2985 RMK AO2 T02610228
NYC,2012-08-10 15:51,-73.9693,40.7790,78.98,73.04,82.06,M,5.00,M,29.85,1009.60,10.00,M,FEW,SCT,BKN,M,1800.00,2200.00,3200.00,M,M,M,M,M,M,M,M,78.98,KNYC 101551Z AUTO VRB05KT 10SM FEW018 SCT022 BKN032 26/23 A2985 RMK AO2 SLP096 T02610228
NYC,2012-08-10 16:25,-73.9693,40.7790,75.92,73.94,93.59,M,6.00,0.04,29.84,M,2.50,15.00,SCT,BKN,OVC,M,1600.00,3100.00,10000.00,M,-RA BR,M,M,M,M,M,M,75.92,KNYC 101625Z AUTO VRB06G15KT 2 1/2SM -RA BR SCT016 BKN031 OVC100 24/23 A2984 RMK AO2 RAB1555 P0004 T02440233
NYC,2012-08-10 16:40,-73.9693,40.7790,75.92,75.02,97.04,M,3.00,0.08,29.85,M,1.25,15.00,SCT,BKN,OVC,M,1300.00,3900.00,7500.00,M,+RA BR,M,M,M,M,M,M,75.92,KNYC 101640Z AUTO VRB03G15KT 1 1/4SM +RA BR SCT013 BKN039 OVC075 24/24 A2985 RMK AO2 RAB1555 P0008 T02440239
NYC,2012-08-10 16:51,-73.9693,40.7790,73.04,71.96,96.42,M,5.00,0.13,29.84,1009.40,1.25,M,SCT,OVC,M,M,1300.00,4500.00,M,M,RA BR,M,M,M,M,M,M,73.04,KNYC 101651Z AUTO VRB05KT 1 1/4SM RA BR SCT013 OVC045 23/22 A2984 RMK AO2 RAB1555 SLP094 P0013 T02280222
NYC,2012-08-10 17:12,-73.9693,40.7790,69.98,69.08,96.97,0.00,0.00,0.08,29.82,M,3.00,M,BKN,BKN,OVC,M,4900.00,6500.00,9000.00,M,-RA BR,M,M,M,M,M,M,69.98,KNYC 101712Z AUTO 00000KT 3SM -RA BR BKN049 BKN065 OVC090 21/21 A2982 RMK AO2 P0008 T02110206
NYC,2012-08-10 17:51,-73.9693,40.7790,69.98,69.08,96.97,M,4.00,0.11,29.84,1009.40,8.00,M,SCT,BKN,OVC,M,2100.00,5000.00,7000.00,M,-RA,M,M,M,M,M,M,69.98,KNYC 101751Z AUTO VRB04KT 8SM -RA SCT021 BKN050 OVC070 21/21 A2984 RMK AO2 SLP094 P0011 60024 T02110206 10267 20211 56004
NYC,2012-08-10 17:59,-73.9693,40.7790,69.98,69.08,96.97,M,4.00,0.00,29.83,M,7.00,M,SCT,BKN,OVC,M,1500.00,2000.00,5000.00,M,-RA,M,M,M,M,M,M,69.98,KNYC 101759Z AUTO VRB04KT 7SM -RA SCT015 BKN020 OVC050 21/21 A2983 RMK AO2 P0000 T02110206
NYC,2012-08-10 18:51,-73.9693,40.7790,73.94,71.06,90.73,50.00,3.00,0.00,29.81,1008.40,10.00,M,BKN,OVC,M,M,1200.00,3100.00,M,M,M,M,M,M,M,M,M,73.94,KNYC 101851Z AUTO 05003KT 10SM BKN012 OVC031 23/22 A2981 RMK AO2 RAE09 SLP084 P0000 T02330217
NYC,2012-08-10 19:16,-73.9693,40.7790,75.02,71.06,87.50,M,6.00,M,29.80,M,10.00,M,SCT,SCT,BKN,M,1400.00,2400.00,12000.00,M,M,M,M,M,M,M,M,75.02,KNYC 101916Z AUTO VRB06KT 10SM SCT014 SCT024 BKN120 24/22 A2980 RMK AO2 T02390217
NYC,2012-08-10 19:51,-73.9693,40.7790,75.92,69.98,81.85,50.00,4.00,M,29.79,1007.70,10.00,M,FEW,M,M,M,2600.00,M,M,M,M,M,M,M,M,M,M,75.92,KNYC 101951Z AUTO 05004KT 10SM FEW026 24/21 A2979 RMK AO2 SLP077 T02440211
NYC,2012-08-10 20:07,-73.9693,40.7790,75.02,71.96,90.22,0.00,0.00,M,29.79,M,10.00,M,BKN,BKN,BKN,M,2400.00,2800.00,3200.00,M,M,M,M,M,M,M,M,75.02,KNYC 102007Z AUTO 00000KT 10SM BKN024 BKN028 BKN032 24/22 A2979 RMK AO2 T02390222
NYC,2012-08-10 20:51,-73.9693,40.7790,78.08,69.98,76.19,150.00,4.00,M,29.79,1007.80,10.00,M,BKN,BKN,BKN,M,2600.00,3000.00,6000.00,M,M,M,M,M,M,M,M,78.08,KNYC 102051Z AUTO 15004KT 10SM BKN026 BKN030 BKN060 26/21 A2979 RMK AO2 SLP078 60000 T02560211 55007
NYC,2012-08-10 21:43,-73.9693,40.7790,78.08,69.98,76.19,0.00,0.00,M,29.79,M,10.00,M,SCT,M,M,M,2900.00,M,M,M,M,M,M,M,M,M,M,78.08,KNYC 102143Z AUTO 00000KT 10SM SCT029 26/21 A2979 RMK AO2 T02560211
NYC,2012-08-10 21:51,-73.9693,40.7790,78.98,69.98,73.97,250.00,7.00,M,29.79,1007.70,10.00,M,FEW,M,M,M,2900.00,M,M,M,M,M,M,M,M,M,M,78.98,KNYC 102151Z AUTO 25007KT 10SM FEW029 26/21 A2979 RMK AO2 SLP077 T02610211
NYC,2012-08-10 22:51,-73.9693,40.7790,78.08,71.06,79.05,190.00,5.00,M,29.79,1007.80,10.00,M,SCT,BKN,BKN,M,2700.00,3300.00,7500.00,M,M,M,M,M,M,M,M,78.08,KNYC 102251Z AUTO 19005KT 10SM SCT027 BKN033 BKN075 26/22 A2979 RMK AO2 SLP078 T02560217
NYC,2012-08-10 23:00,-73.9693,40.7790,77.00,71.06,81.92,180.00,4.00,M,29.79,M,10.00,M,BKN,BKN,OVC,M,2600.00,3300.00,7500.00,M,M,M,M,M,M,M,M,77.00,KNYC 102300Z AUTO 18004KT 10SM BKN026 BKN033 OVC075 25/22 A2979 RMK AO2 T02500217
NYC,2012-08-10 23:51,-73.9693,40.7790,77.00,71.06,81.92,0.00,0.00,M,29.80,1008.10,10.00,M,BKN,M,M,M,2500.00,M,M,M,M,M,M,M,M,M,M,77.00,KNYC 102351Z AUTO 00000KT 10SM BKN025 25/22 A2980 RMK AO2 SLP081 60000 T02500217 10267 20211 53003
NYC,2012-08-11 00:38,-73.9693,40.7790,75.92,71.06,84.92,M,3.00,M,29.81,M,10.00,M,SCT,M,M,M,2500.00,M,M,M,M,M,M,M,M,M,M,75.92,KNYC 110038Z AUTO VRB03KT 10SM SCT025 24/22 A2981 RMK AO2 T02440217
NYC,2012-08-11 00:51,-73.9693,40.7790,75.92,71.06,84.92,0.00,0.00,M,29.81,1008.60,10.00,M,FEW,M,M,M,2500.00,M,M,M,M,M,M,M,M,M,M,75.92,KNYC 110051Z AUTO 00000KT 10SM FEW025 24/22 A2981 RMK AO2 SLP086 T02440217
NYC,2012-08-11 01:51,-73.9693,40.7790,77.00,71.06,81.92,M,3.00,M,29.82,1008.80,10.00,M,FEW,FEW,M,M,2200.00,2900.00,M,M,M,M,M,M,M,M,M,77.00,KNYC 110151Z AUTO VRB03KT 10SM FEW022 FEW029 25/22 A2982 RMK AO2 SLP088 T02500217
NYC,2012-08-11 02:51,-73.9693,40.7790,77.00,71.06,81.92,200.00,4.00,M,29.83,1009.00,10.00,M,SCT,SCT,M,M,2300.00,4300.00,M,M,M,M,M,M,M,M,M,77.00,KNYC 110251Z AUTO 20004KT 10SM SCT023 SCT043 25/22 A2983 RMK AO2 SLP090 T02500217 51008
NYC,2012-08-11 03:51,-73.9693,40.7790,77.00,71.06,81.92,0.00,0.00,M,29.82,1008.90,10.00,M,CLR,M,M,M,M,M,M,M,M,M,M,M,M,M,M,77.00,KNYC 110351Z AUTO 00000KT 10SM CLR 25/22 A2982 RMK AO2 SLP089 T02500217
NYC,2012-08-11 04:51,-73.9693,40.7790,75.92,71.96,87.55,M,3.00,M,29.83,1009.20,10.00,M,CLR,M,M,M,M,M,M,M,M,M,M,M,M,M,M,75.92,KNYC 110451Z AUTO VRB03KT 10SM CLR 24/22 A2983 RMK AO2 SLP092 T02440222 402670211
NYC,2012-08-11 05:51,-73.9693,40.7790,75.92,71.96,87.55,240.00,5.00,M,29.83,1009.30,10.00,M,SCT,M,M,M,3500.00,M,M,M,M,M,M,M,M,M,M,75.92,KNYC 110551Z AUTO 24005KT 10SM SCT035 24/22 A2983 RMK AO2 SLP093 T02440222 10250 20244 53003
NYC,2012-08-11 06:51,-73.9693,40.7790,75.92,71.06,84.92,M,4.00,M,29.83,1009.00,10.00,M,CLR,M,M,M,M,M,M,M,M,M,M,M,M,M,M,75.92,KNYC 110651Z AUTO VRB04KT 10SM CLR 24/22 A2983 RMK AO2 SLP090 T02440217
NYC,2012-08-11 07:51,-73.9693,40.7790,75.92,71.06,84.92,M,4.00,M,29.83,1009.30,10.00,M,CLR,M,M,M,M,M,M,M,M,M,M,M,M,M,M,75.92,KNYC 110751Z AUTO VRB04KT 10SM CLR 24/22 A2983 RMK AO2 SLP093 T02440217
NYC,2012-08-11 08:51,-73.9693,40.7790,75.92,71.06,84.92,220.00,4.00,M,29.83,1009.00,10.00,M,CLR,M,M,M,M,M,M,M,M,M,M,M,M,M,M,75.92,KNYC 110851Z AUTO 22004KT 10SM CLR 24/22 A2983 RMK AO2 SLP090 T02440217 58002
NYC,2012-08-11 09:51,-73.9693,40.7790,75.02,71.96,90.22,0.00,0.00,M,29.85,1009.70,9.00,M,FEW,BKN,M,M,1300.00,4900.00,M,M,M,M,M,M,M,M,M,75.02,KNYC 110951Z AUTO 00000KT 9SM FEW013 BKN049 24/22 A2985 RMK AO2 SLP097 T02390222
NYC,2012-08-11 10:51,-73.9693,40.7790,75.92,71.96,87.55,M,3.00,M,29.86,1010.10,8.00,M,SCT,M,M,M,1400.00,M,M,M,M,M,M,M,M,M,M,75.92,KNYC 111051Z AUTO VRB03KT 8SM SCT014 24/22 A2986 RMK AO2 SLP101 T02440222
NYC,2012-08-11 11:03,-73.9693,40.7790,77.00,71.96,84.46,0.00,0.00,M,29.86,M,8.00,M,BKN,M,M,M,1500.00,M,M,M,M,M,M,M,M,M,M,77.00,KNYC 111103Z AUTO 00000KT 8SM BKN015 25/22 A2986 RMK AO2 T02500222
NYC,2012-08-11 11:51,-73.9693,40.7790,77.00,71.96,84.46,M,3.00,M,29.86,1010.30,8.00,M,OVC,M,M,M,1500.00,M,M,M,M,M,M,M,M,M,M,77.00,KNYC 111151Z AUTO VRB03KT 8SM OVC015 25/22 A2986 RMK AO2 SLP103 70024 T02500222 10250 20239 51013
NYC,2012-08-11 12:51,-73.9693,40.7790,78.98,73.04,82.06,M,3.00,M,29.87,1010.40,8.00,M,BKN,OVC,M,M,1600.00,2300.00,M,M,M,M,M,M,M,M,M,78.98,KNYC 111251Z AUTO VRB03KT 8SM BKN016 OVC023 26/23 A2987 RMK AO2 SLP104 T02610228
NYC,2012-08-11 13:51,-73.9693,40.7790,80.06,73.04,79.20,M,3.00,M,29.88,1010.70,8.00,M,BKN,BKN,M,M,1800.00,2600.00,M,M,M,M,M,M,M,M,M,84.25,KNYC 111351Z AUTO VRB03KT 8SM BKN018 BKN026 27/23 A2988 RMK AO2 SLP107 T02670228
NYC,2012-08-11 14:51,-73.9693,40.7790,80.06,73.04,79.20,0.00,0.00,M,29.88,1010.90,8.00,M,BKN,OVC,M,M,2100.00,2700.00,M,M,M,M,M,M,M,M,M,84.25,KNYC 111451Z AUTO 00000KT 8SM BKN021 OVC027 27/23 A2988 RMK AO2 SLP109 T02670228 53006
NYC,2012-08-11 15:16,-73.9693,40.7790,80.06,71.96,76.36,0.00,0.00,M,29.87,M,9.00,M,SCT,BKN,M,M,2400.00,3400.00,M,M,M,M,M,M,M,M,M,83.87,KNYC 111516Z AUTO 00000KT 9SM SCT024 BKN034 27/22 A2987 RMK AO2 T02670222
NYC,2012-08-11 15:51,-73.9693,40.7790,84.02,71.96,M,M,M,M,29.87,1010.50,10.00,M,SCT,M,M,M,2800.00,M,M,M,M,M,M,M,M,M,M,M,KNYC 111551Z AUTO 10SM SCT028 29/22 A2987 RMK AO2 SLP105 T02890222
NYC,2012-08-11 16:51,-73.9693,40.7790,84.92,71.06,63.27,M,4.00,M,29.87,1010.50,10.00,M,FEW,SCT,M,M,3200.00,4100.00,M,M,M,M,M,M,M,M,M,90.15,KNYC 111651Z AUTO VRB04KT 10SM FEW032 SCT041 29/22 A2987 RMK AO2 SLP105 T02940217
NYC,2012-08-11 17:51,-73.9693,40.7790,84.92,71.06,63.27,M,4.00,M,29.86,1010.20,10.00,M,FEW,M,M,M,3800.00,M,M,M,M,M,M,M,M,M,M,90.15,KNYC 111751Z AUTO VRB04KT 10SM FEW038 29/22 A2986 RMK AO2 SLP102 T02940217 10300 20250 56007
NYC,2012-08-11 18:51,-73.9693,40.7790,84.92,71.06,63.27,M,6.00,M,29.87,1010.50,10.00,M,SCT,SCT,BKN,M,3700.00,4800.00,7000.00,M,M,M,M,M,M,M,M,90.15,KNYC 111851Z AUTO VRB06KT 10SM SCT037 SCT048 BKN070 29/22 A2987 RMK AO2 SLP105 T02940217
NYC,2012-08-11 19:51,-73.9693,40.7790,82.94,71.96,69.53,M,5.00,M,29.86,1010.10,10.00,M,SCT,BKN,M,M,3400.00,4700.00,M,M,M,M,M,M,M,M,M,88.14,KNYC 111951Z AUTO VRB05KT 10SM SCT034 BKN047 28/22 A2986 RMK AO2 SLP101 T02830222
NYC,2012-08-11 20:51,-73.9693,40.7790,82.04,69.08,64.90,220.00,7.00,M,29.86,1010.20,10.00,M,FEW,FEW,M,M,4200.00,5000.00,M,M,M,M,M,M,M,M,M,85.43,KNYC 112051Z AUTO 22007KT 170V250 10SM FEW042 FEW050 28/21 A2986 RMK AO2 SLP102 T02780206 58000
NYC,2012-08-11 21:51,-73.9693,40.7790,82.94,69.98,65.00,M,3.00,M,29.87,1010.60,10.00,M,CLR,M,M,M,M,M,M,M,M,M,M,M,M,M,M,86.99,KNYC 112151Z AUTO VRB03KT 10SM CLR 28/21 A2987 RMK AO2 SLP106 T02830211
NYC,2012-08-11 22:51,-73.9693,40.7790,80.96,69.08,67.22,M,6.00,M,29.88,1010.90,10.00,M,CLR,M,M,M,M,M,M,M,M,M,M,M,M,M,M,84.10,KNYC 112251Z AUTO VRB06KT 10SM CLR 27/21 A2988 RMK AO2 SLP109 T02720206
NYC,2012-08-11 23:51,-73.9693,40.7790,80.06,69.08,69.23,M,6.00,M,29.90,1011.50,10.00,M,CLR,M,M,M,M,M,M,M,M,M,M,M,M,M,M,82.95,KNYC 112351Z AUTO VRB06KT 10SM CLR 27/21 A2990 RMK AO2 SLP115 T02670206 10306 20261 53014
NYC,2012-08-12 00:51,-73.9693,40.7790,78.98,69.08,71.72,M,3.00,M,29.91,1012.00,10.00,M,FEW,M,M,M,3600.00,M,M,M,M,M,M,M,M,M,M,78.98,KNYC 120051Z AUTO VRB03KT 10SM FEW036 26/21 A2991 RMK AO2 SLP120 T02610206
NYC,2012-08-12 01:51,-73.9693,40.7790,78.08,69.98,76.19,240.00,9.00,M,29.93,1012.60,10.00,14.00,CLR,M,M,M,M,M,M,M,M,M,M,M,M,M,M,78.08,KNYC 120151Z AUTO 24009G14KT 200V260 10SM CLR 26/21 A2993 RMK AO2 SLP126 T02560211
NYC,2012-08-12 03:51,-73.9693,40.7790,77.00,69.98,78.96,0.00,0.00,M,29.92,1012.30,10.00,M,CLR,M,M,M,M,M,M,M,M,M,M,M,M,M,M,77.00,KNYC 120351Z AUTO 00000KT 10SM CLR 25/21 A2992 RMK AO2 SLP123 T02500211
NYC,2012-08-12 04:51,-73.9693,40.7790,75.92,68.00,76.48,M,4.00,M,29.92,1012.30,10.00,M,FEW,SCT,M,M,2500.00,8500.00,M,M,M,M,M,M,M,M,M,75.92,KNYC 120451Z AUTO VRB04KT 10SM FEW025 SCT085 24/20 A2992 RMK AO2 SLP123 T02440200 403060239
NYC,2012-08-12 05:13,-73.9693,40.7790,75.92,69.08,79.37,0.00,0.00,M,29.92,M,10.00,M,SCT,BKN,BKN,M,2300.00,2800.00,3400.00,M,M,M,M,M,M,M,M,75.92,KNYC 120513Z AUTO 00000KT 10SM SCT023 BKN028 BKN034 24/21 A2992 RMK AO2 T02440206
NYC,2012-08-12 05:42,-73.9693,40.7790,75.92,69.08,79.37,M,3.00,M,29.92,M,10.00,M,SCT,SCT,BKN,M,2100.00,4400.00,7000.00,M,M,M,M,M,M,M,M,75.92,KNYC 120542Z AUTO VRB03KT 10SM SCT021 SCT044 BKN070 24/21 A2992 RMK AO2 T02440206
NYC,2012-08-12 05:51,-73.9693,40.7790,75.02,69.98,84.34,M,6.00,M,29.91,1011.90,10.00,M,SCT,SCT,BKN,M,2100.00,7000.00,8500.00,M,M,M,M,M,M,M,M,75.02,KNYC 120551Z AUTO VRB06KT 10SM SCT021 SCT070 BKN085 24/21 A2991 RMK AO2 SLP119 T02390211 10267 20239 58006
NYC,2012-08-12 06:51,-73.9693,40.7790,75.02,69.08,81.79,0.00,0.00,M,29.91,1011.90,10.00,M,FEW,M,M,M,2200.00,M,M,M,M,M,M,M,M,M,M,75.02,KNYC 120651Z AUTO 00000KT 10SM FEW022 24/21 A2991 RMK AO2 SLP119 T02390206
NYC,2012-08-12 07:51,-73.9693,40.7790,75.02,69.08,81.79,290.00,5.00,M,29.91,1011.90,10.00,M,BKN,BKN,M,M,1600.00,2100.00,M,M,M,M,M,M,M,M,M,75.02,KNYC 120751Z AUTO 29005KT 10SM BKN016 BKN021 24/21 A2991 RMK AO2 SLP119 T02390206
NYC,2012-08-12 08:51,-73.9693,40.7790,73.94,69.08,84.80,280.00,3.00,M,29.93,1012.50,10.00,M,BKN,OVC,M,M,1300.00,2100.00,M,M,M,M,M,M,M,M,M,73.94,KNYC 120851Z AUTO 28003KT 10SM BKN013 OVC021 23/21 A2993 RMK AO2 SLP125 T02330206 53006
NYC,2012-08-12 09:01,-73.9693,40.7790,73.94,69.08,84.80,280.00,5.00,M,29.93,M,10.00,M,SCT,BKN,OVC,M,1300.00,2100.00,2600.00,M,M,M,M,M,M,M,M,73.94,KNYC 120901Z AUTO 28005KT 10SM SCT013 BKN021 OVC026 23/21 A2993 RMK AO2 T02330206
NYC,2012-08-12 09:51,-73.9693,40.7790,73.04,68.00,84.22,290.00,4.00,M,29.93,1012.60,10.00,M,BKN,BKN,M,M,2700.00,3400.00,M,M,M,M,M,M,M,M,M,73.04,KNYC 120951Z AUTO 29004KT 10SM BKN027 BKN034 23/20 A2993 RMK AO2 SLP126 T02280200
NYC,2012-08-12 10:04,-73.9693,40.7790,73.94,66.02,76.31,M,3.00,M,29.94,M,10.00,M,FEW,M,M,M,2900.00,M,M,M,M,M,M,M,M,M,M,73.94,KNYC 121004Z AUTO VRB03KT 10SM FEW029 23/19 A2994 RMK AO2 T02330189
NYC,2012-08-12 10:44,-73.9693,40.7790,73.94,60.08,61.92,M,4.00,M,29.94,M,10.00,M,FEW,M,M,M,200.00,M,M,M,M,M,M,M,M,M,M,73.94,KNYC 121044Z AUTO VRB04KT 10SM FEW002 23/16 A2994 RMK AO2 T02330156
NYC,2012-08-12 10:51,-73.9693,40.7790,73.94,59.00,59.58,M,3.00,M,29.94,1012.90,10.00,M,FEW,M,M,M,200.00,M,M,M,M,M,M,M,M,M,M,73.94,KNYC 121051Z AUTO VRB03KT 10SM FEW002 23/15 A2994 RMK AO2 SLP129 T02330150
NYC,2012-08-12 11:51,-73.9693,40.7790,73.04,60.08,63.83,290.00,3.00,M,29.96,1013.60,10.00,M,FEW,M,M,M,3700.00,M,M,M,M,M,M,M,M,M,M,73.04,KNYC 121151Z AUTO 29003KT 10SM FEW037 23/16 A2996 RMK AO2 SLP136 T02280156 10244 20228 53011
NYC,2012-08-12 12:51,-73.9693,40.7790,75.02,60.08,59.72,M,4.00,M,29.96,1013.60,10.00,M,CLR,M,M,M,M,M,M,M,M,M,M,M,M,M,M,75.02,KNYC 121251Z AUTO VRB04KT 10SM CLR 24/16 A2996 RMK AO2 SLP136 T02390156
NYC,2012-08-12 13:51,-73.9693,40.7790,77.00,60.08,55.91,290.00,7.00,M,29.96,1013.40,10.00,M,CLR,M,M,M,M,M,M,M,M,M,M,M,M,M,M,77.00,KNYC 121351Z AUTO 29007KT 10SM CLR 25/16 A2996 RMK AO2 SLP134 T02500156
NYC,2012-08-12 14:51,-73.9693,40.7790,80.06,59.00,48.64,280.00,5.00,M,29.95,1013.00,10.00,M,CLR,M,M,M,M,M,M,M,M,M,M,M,M,M,M,80.73,KNYC 121451Z AUTO 28005KT 10SM CLR 27/15 A2995 RMK AO2 SLP130 T02670150 58006
NYC,2012-08-12 15:51,-73.9693,40.7790,84.02,60.98,45.90,0.00,0.00,M,29.94,1012.70,10.00,M,CLR,M,M,M,M,M,M,M,M,M,M,M,M,M,M,84.33,KNYC 121551Z AUTO 00000KT 10SM CLR 29/16 A2994 RMK AO2 SLP127 T02890161
NYC,2012-08-12 16:51,-73.9693,40.7790,84.02,62.06,47.68,240.00,6.00,M,29.93,1012.60,10.00,M,FEW,M,M,M,10000.00,M,M,M,M,M,M,M,M,M,M,84.68,KNYC 121651Z AUTO 24006KT 10SM FEW100 29/17 A2993 RMK AO2 SLP126 T02890167
NYC,2012-08-12 17:51,-73.9693,40.7790,84.92,62.06,46.32,M,4.00,M,29.93,1012.40,10.00,M,SCT,M,M,M,5500.00,M,M,M,M,M,M,M,M,M,M,85.50,KNYC 121751Z AUTO VRB04KT 10SM SCT055 29/17 A2993 RMK AO2 SLP124 T02940167 10306 20228 56006
NYC,2012-08-12 18:51,-73.9693,40.7790,84.92,60.08,43.18,200.00,7.00,M,29.92,1012.20,10.00,M,FEW,M,M,M,6500.00,M,M,M,M,M,M,M,M,M,M,84.84,KNYC 121851Z AUTO 20007KT 170V240 10SM FEW065 29/16 A2992 RMK AO2 SLP122 T02940156
NYC,2012-08-12 19:51,-73.9693,40.7790,84.02,57.02,39.83,270.00,10.00,M,29.91,1012.00,10.00,14.00,SCT,M,M,M,6000.00,M,M,M,M,M,M,M,M,M,M,84.02,KNYC 121951Z AUTO 27010G14KT 10SM SCT060 29/14 A2991 RMK AO2 SLP120 T02890139
NYC,2012-08-12 20:51,-73.9693,40.7790,82.94,59.00,44.29,220.00,8.00,M,29.92,1012.20,10.00,17.00,FEW,M,M,M,6000.00,M,M,M,M,M,M,M,M,M,M,82.89,KNYC 122051Z AUTO 22008G17KT 190V260 10SM FEW060 28/15 A2992 RMK AO2 SLP122 T02830150 55002
NYC,2012-08-12 21:51,-73.9693,40.7790,82.04,59.00,45.60,M,5.00,M,29.93,1012.40,10.00,17.00,FEW,M,M,M,6000.00,M,M,M,M,M,M,M,M,M,M,82.19,KNYC 122151Z AUTO VRB05G17KT 10SM FEW060 28/15 A2993 RMK AO2 SLP124 T02780150
NYC,2012-08-12 22:51,-73.9693,40.7790,80.96,59.00,47.23,260.00,5.00,M,29.93,1012.60,10.00,M,FEW,M,M,M,6000.00,M,M,M,M,M,M,M,M,M,M,81.38,KNYC 122251Z AUTO 26005KT 10SM FEW060 27/15 A2993 RMK AO2 SLP126 T02720150
NYC,2012-08-12 23:51,-73.9693,40.7790,78.08,60.08,53.95,M,3.00,M,29.95,1013.10,10.00,M,CLR,M,M,M,M,M,M,M,M,M,M,M,M,M,M,78.08,KNYC 122351Z AUTO VRB03KT 10SM CLR 26/16 A2995 RMK AO2 SLP131 T02560156 10306 20256 53008
NYC,2012-08-13 00:51,-73.9693,40.7790,78.08,60.08,53.95,M,3.00,M,29.96,1013.50,10.00,M,CLR,M,M,M,M,M,M,M,M,M,M,M,M,M,M,78.08,KNYC 130051Z AUTO VRB03KT 10SM CLR 26/16 A2996 RMK AO2 SLP135 T02560156
NYC,2012-08-13 01:51,-73.9693,40.7790,77.00,60.08,55.91,M,3.00,M,29.97,1013.90,10.00,M,CLR,M,M,M,M,M,M,M,M,M,M,M,M,M,M,77.00,KNYC 130151Z AUTO VRB03KT 10SM CLR 25/16 A2997 RMK AO2 SLP139 T02500156
NYC,2012-08-13 02:51,-73.9693,40.7790,75.92,60.08,57.96,0.00,0.00,M,29.98,1014.10,10.00,M,CLR,M,M,M,M,M,M,M,M,M,M,M,M,M,M,75.92,KNYC 130251Z AUTO 00000KT 10SM CLR 24/16 A2998 RMK AO2 SLP141 T02440156 51010
NYC,2012-08-13 03:51,-73.9693,40.7790,73.94,60.08,61.92,M,3.00,M,29.98,1014.10,10.00,M,CLR,M,M,M,M,M,M,M,M,M,M,M,M,M,M,73.94,KNYC 130351Z AUTO VRB03KT 10SM CLR 23/16 A2998 RMK AO2 SLP141 T02330156
NYC,2012-08-13 04:51,-73.9693,40.7790,73.04,59.00,61.41,M,3.00,M,29.98,1014.30,10.00,M,CLR,M,M,M,M,M,M,M,M,M,M,M,M,M,M,73.04,KNYC 130451Z AUTO VRB03KT 10SM CLR 23/15 A2998 RMK AO2 SLP143 T02280150 403060228
NYC,2012-08-13 05:51,-73.9693,40.7790,71.96,60.08,66.20,260.00,4.00,M,29.99,1014.40,10.00,M,CLR,M,M,M,M,M,M,M,M,M,M,M,M,M,M,71.96,KNYC 130551Z AUTO 26004KT 10SM CLR 22/16 A2999 RMK AO2 SLP144 T02220156 10261 20222 51003
NYC,2012-08-13 06:51,-73.9693,40.7790,71.96,59.00,63.70,M,6.00,M,29.99,1014.40,10.00,M,CLR,M,M,M,M,M,M,M,M,M,M,M,M,M,M,71.96,KNYC 130651Z AUTO VRB06KT 10SM CLR 22/15 A2999 RMK AO2 SLP144 T02220150
NYC,2012-08-13 07:51,-73.9693,40.7790,71.06,60.08,M,M,M,M,29.99,1014.50,10.00,M,CLR,M,M,M,M,M,M,M,M,M,M,M,M,M,M,M,KNYC 130751Z AUTO 10SM CLR 22/16 A2999 RMK AO2 SLP145 T02170156
NYC,2012-08-13 08:51,-73.9693,40.7790,69.98,59.00,68.13,0.00,0.00,M,30.00,1014.70,10.00,M,CLR,M,M,M,M,M,M,M,M,M,M,M,M,M,M,69.98,KNYC 130851Z AUTO 00000KT 10SM CLR 21/15 A3000 RMK AO2 SLP147 T02110150 53004
NYC,2012-08-13 09:51,-73.9693,40.7790,69.08,59.00,70.26,0.00,0.00,M,30.01,1015.10,10.00,M,CLR,M,M,M,M,M,M,M,M,M,M,M,M,M,M,69.08,KNYC 130951Z AUTO 00000KT 10SM CLR 21/15 A3001 RMK AO2 SLP151 T02060150
NYC,2012-08-13 10:51,-73.9693,40.7790,69.98,59.00,68.13,M,3.00,M,30.02,1015.60,10.00,M,CLR,M,M,M,M,M,M,M,M,M,M,M,M,M,M,69.98,KNYC 131051Z AUTO VRB03KT 10SM CLR 21/15 A3002 RMK AO2 SLP156 T02110150
NYC,2012-08-13 11:26,-73.9693,40.7790,69.98,60.08,70.81,270.00,5.00,M,30.03,M,10.00,M,FEW,M,M,M,200.00,M,M,M,M,M,M,M,M,M,M,69.98,KNYC 131126Z AUTO 27005KT 10SM FEW002 21/16 A3003 RMK AO2 T02110156
NYC,2012-08-13 11:51,-73.9693,40.7790,69.98,60.08,70.81,280.00,5.00,M,30.04,1016.20,10.00,M,CLR,M,M,M,M,M,M,M,M,M,M,M,M,M,M,69.98,KNYC 131151Z AUTO 28005KT 10SM CLR 21/16 A3004 RMK AO2 SLP162 T02110156 10228 20206 53015
NYC,2012-08-13 12:51,-73.9693,40.7790,71.96,60.08,66.20,M,4.00,M,30.04,1016.20,10.00,M,CLR,M,M,M,M,M,M,M,M,M,M,M,M,M,M,71.96,KNYC 131251Z AUTO VRB04KT 10SM CLR 22/16 A3004 RMK AO2 SLP162 T02220156
NYC,2012-08-13 13:51,-73.9693,40.7790,73.94,60.08,61.92,M,5.00,M,30.04,1016.10,10.00,M,CLR,M,M,M,M,M,M,M,M,M,M,M,M,M,M,73.94,KNYC 131351Z AUTO VRB05KT 10SM CLR 23/16 A3004 RMK AO2 SLP161 T02330156
NYC,2012-08-13 14:51,-73.9693,40.7790,78.08,59.00,51.91,M,4.00,M,30.03,1015.80,10.00,M,FEW,M,M,M,4000.00,M,M,M,M,M,M,M,M,M,M,78.08,KNYC 131451Z AUTO VRB04KT 10SM FEW040 26/15 A3003 RMK AO2 SLP158 T02560150 58004
NYC,2012-08-13 15:51,-73.9693,40.7790,80.96,59.00,47.23,M,5.00,M,30.01,1015.10,10.00,M,FEW,M,M,M,4500.00,M,M,M,M,M,M,M,M,M,M,81.38,KNYC 131551Z AUTO VRB05KT 10SM FEW045 27/15 A3001 RMK AO2 SLP151 T02720150
NYC,2012-08-13 16:51,-73.9693,40.7790,82.94,55.94,39.67,M,5.00,M,29.98,1014.30,10.00,M,CLR,M,M,M,M,M,M,M,M,M,M,M,M,M,M,82.94,KNYC 131651Z AUTO VRB05KT 10SM CLR 28/13 A2998 RMK AO2 SLP143 T02830133
NYC,2012-08-13 17:51,-73.9693,40.7790,84.02,55.04,37.08,M,6.00,M,29.97,1013.90,10.00,M,SCT,M,M,M,6000.00,M,M,M,M,M,M,M,M,M,M,84.02,KNYC 131751Z AUTO VRB06KT 10SM SCT060 29/13 A2997 RMK AO2 SLP139 T02890128 10294 20211 56019
NYC,2012-08-13 18:51,-73.9693,40.7790,84.02,55.94,38.31,M,4.00,M,29.97,1013.70,10.00,M,BKN,M,M,M,7000.00,M,M,M,M,M,M,M,M,M,M,84.02,KNYC 131851Z AUTO VRB04KT 10SM BKN070 29/13 A2997 RMK AO2 SLP137 T02890133
NYC,2012-08-13 19:51,-73.9693,40.7790,82.94,55.04,38.39,M,5.00,M,29.97,1013.80,10.00,M,SCT,M,M,M,7500.00,M,M,M,M,M,M,M,M,M,M,82.94,KNYC 131951Z AUTO VRB05KT 10SM SCT075 28/13 A2997 RMK AO2 SLP138 T02830128
NYC,2012-08-13 20:51,-73.9693,40.7790,84.02,53.96,35.64,280.00,5.00,M,29.97,1013.90,10.00,M,BKN,M,M,M,8000.00,M,M,M,M,M,M,M,M,M,M,84.02,KNYC 132051Z AUTO 28005KT 10SM BKN080 29/12 A2997 RMK AO2 SLP139 T02890122 55000
NYC,2012-08-13 21:51,-73.9693,40.7790,82.94,53.96,36.91,M,4.00,M,29.96,1013.70,10.00,M,CLR,M,M,M,M,M,M,M,M,M,M,M,M,M,M,82.94,KNYC 132151Z AUTO VRB04KT 10SM CLR 28/12 A2996 RMK AO2 SLP137 T02830122
NYC,2012-08-13 22:51,-73.9693,40.7790,80.96,55.94,42.30,M,3.00,M,29.97,1013.70,10.00,M,CLR,M,M,M,M,M,M,M,M,M,M,M,M,M,M,80.85,KNYC 132251Z AUTO VRB03KT 10SM CLR 27/13 A2997 RMK AO2 SLP137 T02720133
NYC,2012-08-13 23:51,-73.9693,40.7790,80.06,55.94,43.56,270.00,5.00,M,29.97,1013.80,10.00,M,CLR,M,M,M,M,M,M,M,M,M,M,M,M,M,M,80.27,KNYC 132351Z AUTO 27005KT 10SM CLR 27/13 A2997 RMK AO2 SLP138 T02670133 10300 20267 55001
NYC,2012-08-14 00:51,-73.9693,40.7790,78.08,57.02,48.35,0.00,0.00,M,29.98,1014.20,10.00,M,CLR,M,M,M,M,M,M,M,M,M,M,M,M,M,M,78.08,KNYC 140051Z AUTO 00000KT 10SM CLR 26/14 A2998 RMK AO2 SLP142 T02560139
NYC,2012-08-14 01:51,-73.9693,40.7790,78.08,55.94,46.49,280.00,5.00,M,30.00,1014.80,10.00,M,CLR,M,M,M,M,M,M,M,M,M,M,M,M,M,M,78.08,KNYC 140151Z AUTO 28005KT 10SM CLR 26/13 A3000 RMK AO2 SLP148 T02560133
NYC,2012-08-14 02:51,-73.9693,40.7790,78.08,55.94,46.49,260.00,3.00,M,30.00,1014.90,10.00,M,CLR,M,M,M,M,M,M,M,M,M,M,M,M,M,M,78.08,KNYC 140251Z AUTO 26003KT 10SM CLR 26/13 A3000 RMK AO2 SLP149 T02560133 51010
NYC,2012-08-14 03:51,-73.9693,40.7790,75.92,57.92,53.65,280.00,3.00,M,30.00,1014.70,10.00,M,CLR,M,M,M,M,M,M,M,M,M,M,M,M,M,M,75.92,KNYC 140351Z AUTO 28003KT 10SM CLR 24/14 A3000 RMK AO2 SLP147 T02440144
NYC,2012-08-14 04:51,-73.9693,40.7790,75.02,57.02,53.52,0.00,0.00,M,29.99,1014.60,10.00,M,CLR,M,M,M,M,M,M,M,M,M,M,M,M,M,M,75.02,KNYC 140451Z AUTO 00000KT 10SM CLR 24/14 A2999 RMK AO2 SLP146 T02390139 403000206
NYC,2012-08-14 05:51,-73.9693,40.7790,72.00,57.00,59.20,0.00,0.00,0.00,29.99,1014.40,10.00,M,CLR,M,M,M,M,M,M,M,M,M,M,M,M,M,M,72.00,KNYC 140551Z AUTO 00000KT 10SM CLR 22/14 A2999 RMK AO2 SLP144 T02220139 10272 20222 58005
NYC,2012-08-14 06:51,-73.9693,40.7790,73.00,59.00,61.50,250.00,4.00,0.00,29.99,1014.50,10.00,M,CLR,M,M,M,M,M,M,M,M,M,M,M,M,M,M,73.00,KNYC 140651Z AUTO 25004KT 10SM CLR 23/15 A2999 RMK AO2 SLP145 T02280150
NYC,2012-08-14 07:51,-73.9693,40.7790,73.00,57.90,59.12,0.00,0.00,0.00,29.98,1014.30,10.00,M,CLR,M,M,M,M,M,M,M,M,M,M,M,M,M,M,73.00,KNYC 140751Z AUTO 00000KT 10SM CLR 23/14 A2998 RMK AO2 SLP143 T02280144
NYC,2012-08-14 08:51,-73.9693,40.7790,72.00,59.00,63.61,0.00,0.00,0.00,29.98,1014.30,10.00,M,CLR,M,M,M,M,M,M,M,M,M,M,M,M,M,M,72.00,KNYC 140851Z AUTO 00000KT 10SM CLR 22/15 A2998 RMK AO2 SLP143 T02220150 57001
NYC,2012-08-14 09:51,-73.9693,40.7790,73.00,62.10,68.66,0.00,0.00,0.00,29.99,1014.50,10.00,M,CLR,M,M,M,M,M,M,M,M,M,M,M,M,M,M,73.00,KNYC 140951Z AUTO 00000KT 10SM CLR 23/17 A2999 RMK AO2 SLP145 T02280167
NYC,2012-08-14 10:51,-73.9693,40.7790,73.00,64.00,73.40,270.00,3.00,0.00,29.99,1014.50,10.00,M,CLR,M,M,M,M,M,M,M,M,M,M,M,M,M,M,73.00,KNYC 141051Z AUTO 27003KT 10SM CLR 23/18 A2999 RMK AO2 SLP145 T02280178
NYC,2012-08-14 11:51,-73.9693,40.7790,75.00,64.90,70.83,0.00,0.00,0.00,29.99,1014.60,10.00,M,SCT,M,M,M,11000.00,M,M,M,M,M,M,M,M,M,M,75.00,KNYC 141151Z AUTO 00000KT 10SM SCT110 24/18 A2999 RMK AO2 SLP146 T02390183 10239 20222 51002
NYC,2012-08-14 12:51,-73.9693,40.7790,77.00,64.90,66.27,0.00,0.00,0.00,29.98,1014.20,10.00,M,CLR,M,M,M,M,M,M,M,M,M,M,M,M,M,M,77.00,KNYC 141251Z AUTO 00000KT 10SM CLR 25/18 A2998 RMK AO2 SLP142 T02500183
NYC,2012-08-14 13:51,-73.9693,40.7790,78.10,64.90,63.90,0.00,0.00,0.00,29.99,1014.40,9.00,M,CLR,M,M,M,M,M,M,M,M,M,M,M,M,M,M,78.10,KNYC 141351Z AUTO 00000KT 9SM CLR 26/18 A2999 RMK AO2 SLP144 T02560183
NYC,2012-08-14 14:51,-73.9693,40.7790,78.10,64.90,63.90,280.00,3.00,0.00,30.00,1014.70,9.00,M,FEW,SCT,SCT,M,4300.00,5000.00,7000.00,M,M,M,M,M,M,M,M,78.10,KNYC 141451Z AUTO 28003KT 9SM FEW043 SCT050 SCT070 26/18 A3000 RMK AO2 SLP147 T02560183 53002
NYC,2012-08-14 15:51,-73.9693,40.7790,78.10,66.00,66.39,0.00,0.00,0.00,29.99,1014.40,8.00,M,FEW,SCT,M,M,7000.00,11000.00,M,M,M,M,M,M,M,M,M,78.10,KNYC 141551Z AUTO 00000KT 8SM FEW070 SCT110 26/19 A2999 RMK AO2 SLP144 T02560189
NYC,2012-08-14 16:51,-73.9693,40.7790,75.90,66.00,71.41,280.00,4.00,0.01,29.98,1014.30,8.00,M,SCT,SCT,BKN,M,3400.00,4500.00,6000.00,M,M,M,M,M,M,M,M,75.90,KNYC 141651Z AUTO 28004KT 8SM SCT034 SCT045 BKN060 24/19 A2998 RMK AO2 RAB02E25 SLP143 P0001 T02440189
NYC,2012-08-14 17:51,-73.9693,40.7790,78.10,66.00,66.39,0.00,0.00,0.00,29.97,1013.80,8.00,M,FEW,M,M,M,12000.00,M,M,M,M,M,M,M,M,M,M,78.10,KNYC 141751Z AUTO 00000KT 8SM FEW120 26/19 A2997 RMK AO2 SLP138 60001 T02560189 10261 20233 58009
NYC,2012-08-14 18:51,-73.9693,40.7790,78.10,66.90,68.49,M,4.00,0.00,29.96,1013.40,8.00,M,BKN,M,M,M,11000.00,M,M,M,M,M,M,M,M,M,M,78.10,KNYC 141851Z AUTO VRB04KT 8SM BKN110 26/19 A2996 RMK AO2 SLP134 T02560194
NYC,2012-08-14 19:51,-73.9693,40.7790,77.00,64.90,66.27,170.00,7.00,0.00,29.94,1012.80,10.00,M,BKN,M,M,M,7500.00,M,M,M,M,M,M,M,M,M,M,77.00,KNYC 141951Z AUTO 17007KT 10SM BKN075 25/18 A2994 RMK AO2 SLP128 T02500183
NYC,2012-08-14 20:51,-73.9693,40.7790,77.00,66.00,M,M,M,0.00,29.94,1012.90,10.00,M,BKN,BKN,M,M,8000.00,10000.00,M,M,M,M,M,M,M,M,M,M,KNYC 142051Z AUTO 10SM BKN080 BKN100 25/19 A2994 RMK AO2 SLP129 T02500189 55009
NYC,2012-08-14 21:51,-73.9693,40.7790,77.00,68.00,73.78,M,6.00,0.00,29.92,1012.20,10.00,M,FEW,SCT,BKN,M,2300.00,2900.00,10000.00,M,M,M,M,M,M,M,M,77.00,KNYC 142151Z AUTO VRB06KT 10SM FEW023 SCT029 BKN100 25/20 A2992 RMK AO2 SLP122 T02500200
NYC,2012-08-14 22:51,-73.9693,40.7790,77.00,66.90,71.03,M,3.00,0.00,29.92,1012.20,10.00,M,FEW,M,M,M,2800.00,M,M,M,M,M,M,M,M,M,M,77.00,KNYC 142251Z AUTO VRB03KT 10SM FEW028 25/19 A2992 RMK AO2 SLP122 T02500194
NYC,2012-08-14 23:51,-73.9693,40.7790,75.90,68.00,M,M,M,0.00,29.92,1012.10,10.00,M,FEW,SCT,M,M,2500.00,3000.00,M,M,M,M,M,M,M,M,M,M,KNYC 142351Z AUTO 10SM FEW025 SCT030 24/20 A2992 RMK AO2 SLP121 T02440200 10256 20244 56008
NYC,2012-08-15 00:15,-73.9693,40.7790,75.90,68.00,76.53,M,3.00,0.00,29.92,M,10.00,M,BKN,M,M,M,2400.00,M,M,M,M,M,M,M,M,M,M,75.90,KNYC 150015Z AUTO VRB03KT 10SM BKN024 24/20 A2992 RMK AO2 T02440200
NYC,2012-08-15 00:22,-73.9693,40.7790,75.90,68.00,M,M,M,0.00,29.91,M,10.00,M,SCT,M,M,M,2400.00,M,M,M,M,M,M,M,M,M,M,M,KNYC 150022Z AUTO 10SM SCT024 24/20 A2991 RMK AO2 T02440200
NYC,2012-08-15 00:33,-73.9693,40.7790,75.90,68.00,76.53,M,4.00,0.00,29.91,M,10.00,M,BKN,BKN,M,M,2400.00,3000.00,M,M,M,M,M,M,M,M,M,75.90,KNYC 150033Z AUTO VRB04KT 10SM BKN024 BKN030 24/20 A2991 RMK AO2 T02440200
NYC,2012-08-15 00:51,-73.9693,40.7790,75.90,69.10,M,M,M,0.00,29.91,1011.90,10.00,M,BKN,BKN,M,M,2400.00,2900.00,M,M,M,M,M,M,M,M,M,M,KNYC 150051Z AUTO 10SM BKN024 BKN029 24/21 A2991 RMK AO2 SLP119 T02440206
NYC,2012-08-15 01:51,-73.9693,40.7790,75.90,70.00,M,M,M,0.00,29.93,1012.40,10.00,M,BKN,OVC,M,M,2200.00,2600.00,M,M,M,M,M,M,M,M,M,M,KNYC 150151Z AUTO 10SM BKN022 OVC026 24/21 A2993 RMK AO2 SLP124 T02440211
NYC,2012-08-15 02:51,-73.9693,40.7790,75.90,70.00,81.96,M,4.00,0.00,29.92,1012.20,10.00,M,SCT,BKN,BKN,M,1900.00,2300.00,2900.00,M,M,M,M,M,M,M,M,75.90,KNYC 150251Z AUTO VRB04KT 10SM SCT019 BKN023 BKN029 24/21 A2992 RMK AO2 SLP122 T02440211 53001
NYC,2012-08-15 03:51,-73.9693,40.7790,75.90,71.10,85.09,0.00,0.00,0.00,29.93,1012.40,10.00,M,SCT,BKN,OVC,M,2000.00,2500.00,3200.00,M,M,M,M,M,M,M,M,75.90,KNYC 150351Z AUTO 00000KT 10SM SCT020 BKN025 OVC032 24/22 A2993 RMK AO2 SLP124 T02440217
NYC,2012-08-15 04:51,-73.9693,40.7790,75.90,70.00,81.96,0.00,0.00,0.00,29.91,1011.70,10.00,M,BKN,M,M,M,2000.00,M,M,M,M,M,M,M,M,M,M,75.90,KNYC 150451Z AUTO 00000KT 10SM BKN020 24/21 A2991 RMK AO2 SLP117 T02440211 402610222
NYC,2012-08-15 05:51,-73.9693,40.7790,77.00,71.06,81.92,0.00,0.00,M,29.89,1011.20,10.00,M,OVC,M,M,M,1700.00,M,M,M,M,M,M,M,M,M,M,77.00,KNYC 150551Z AUTO 00000KT 10SM OVC017 25/22 A2989 RMK AO2 SLP112 T02500217 10250 20244 58009
NYC,2012-08-15 06:51,-73.9693,40.7790,75.92,71.06,84.92,M,3.00,M,29.87,1010.60,9.00,M,BKN,BKN,M,M,1500.00,3300.00,M,M,M,M,M,M,M,M,M,75.92,KNYC 150651Z AUTO VRB03KT 9SM BKN015 BKN033 24/22 A2987 RMK AO2 SLP106 T02440217
NYC,2012-08-15 07:09,-73.9693,40.7790,75.92,71.06,84.92,M,3.00,M,29.86,M,9.00,M,SCT,M,M,M,1600.00,M,M,M,M,M,M,M,M,M,M,75.92,KNYC 150709Z AUTO VRB03KT 9SM SCT016 24/22 A2986 RMK AO2 T02440217
NYC,2012-08-15 07:49,-73.9693,40.7790,75.20,71.60,88.59,0.00,0.00,M,29.86,M,9.00,M,SCT,BKN,BKN,M,1900.00,2600.00,3400.00,M,M,M,M,M,M,M,M,75.20,KNYC 150749Z AUTO 00000KT 9SM SCT019 BKN026 BKN034 24/22 A2986 RMK AO2
NYC,2012-08-15 07:51,-73.9693,40.7790,75.92,71.06,84.92,0.00,0.00,M,29.86,1010.00,9.00,M,SCT,BKN,BKN,M,1900.00,2400.00,3400.00,M,M,M,M,M,M,M,M,75.92,KNYC 150751Z AUTO 00000KT 9SM SCT019 BKN024 BKN034 24/22 A2986 RMK AO2 SLP100 T02440217
NYC,2012-08-15 08:38,-73.9693,40.7790,75.92,71.06,84.92,270.00,5.00,M,29.85,M,8.00,M,FEW,SCT,M,M,1400.00,2200.00,M,M,M,M,M,M,M,M,M,75.92,KNYC 150838Z AUTO 27005KT 8SM FEW014 SCT022 24/22 A2985 RMK AO2 T02440217
NYC,2012-08-15 08:51,-73.9693,40.7790,75.02,69.98,84.34,0.00,0.00,M,29.86,1010.20,8.00,M,FEW,M,M,M,12000.00,M,M,M,M,M,M,M,M,M,M,75.02,KNYC 150851Z AUTO 00000KT 8SM FEW120 24/21 A2986 RMK AO2 SLP102 T02390211 55003
NYC,2012-08-15 09:51,-73.9693,40.7790,75.02,69.08,81.79,270.00,5.00,M,29.88,1010.70,9.00,M,CLR,M,M,M,M,M,M,M,M,M,M,M,M,M,M,75.02,KNYC 150951Z AUTO 27005KT 9SM CLR 24/21 A2988 RMK AO2 SLP107 T02390206
NYC,2012-08-15 10:51,-73.9693,40.7790,75.02,69.08,81.79,0.00,0.00,M,29.88,1010.70,8.00,M,FEW,M,M,M,1600.00,M,M,M,M,M,M,M,M,M,M,75.02,KNYC 151051Z AUTO 00000KT 8SM FEW016 24/21 A2988 RMK AO2 SLP107 T02390206
NYC,2012-08-15 11:51,-73.9693,40.7790,75.02,68.00,78.81,50.00,6.00,M,29.89,1011.20,10.00,M,SCT,M,M,M,6500.00,M,M,M,M,M,M,M,M,M,M,75.02,KNYC 151151Z AUTO 05006KT 10SM SCT065 24/20 A2989 RMK AO2 SLP112 70001 T02390200 10250 20233 53010
NYC,2012-08-15 12:51,-73.9693,40.7790,75.02,66.92,75.93,M,4.00,M,29.89,1011.30,10.00,M,FEW,OVC,M,M,1600.00,8500.00,M,M,M,M,M,M,M,M,M,75.02,KNYC 151251Z AUTO VRB04KT 10SM FEW016 OVC085 24/19 A2989 RMK AO2 SLP113 T02390194
NYC,2012-08-15 13:51,-73.9693,40.7790,77.00,66.92,71.08,0.00,0.00,M,29.90,1011.50,10.00,M,SCT,M,M,M,7000.00,M,M,M,M,M,M,M,M,M,M,77.00,KNYC 151351Z AUTO 00000KT 10SM SCT070 25/19 A2990 RMK AO2 SLP115 T02500194
NYC,2012-08-15 14:51,-73.9693,40.7790,80.06,68.00,66.70,M,4.00,M,29.90,1011.40,10.00,M,FEW,M,M,M,7500.00,M,M,M,M,M,M,M,M,M,M,82.65,KNYC 151451Z AUTO VRB04KT 10SM FEW075 27/20 A2990 RMK AO2 SLP114 T02670200 50001
NYC,2012-08-15 15:51,-73.9693,40.7790,80.96,68.00,64.77,0.00,0.00,M,29.89,1011.30,9.00,M,BKN,OVC,M,M,3100.00,4000.00,M,M,M,M,M,M,M,M,M,83.72,KNYC 151551Z AUTO 00000KT 9SM BKN031 OVC040 27/20 A2989 RMK AO2 SLP113 T02720200
NYC,2012-08-15 16:51,-73.9693,40.7790,77.00,69.08,76.57,70.00,5.00,M,29.89,1011.20,9.00,M,SCT,SCT,OVC,M,3200.00,5500.00,9000.00,M,M,M,M,M,M,M,M,77.00,KNYC 151651Z AUTO 07005KT 9SM SCT032 SCT055 OVC090 25/21 A2989 RMK AO2 SLP112 T02500206
NYC,2012-08-15 17:47,-73.9693,40.7790,71.60,69.80,94.06,110.00,5.00,0.02,29.90,M,1.25,M,FEW,BKN,OVC,M,2000.00,2900.00,4800.00,M,+RA BR,M,M,M,M,M,M,71.60,KNYC 151747Z AUTO 11005KT 1 1/4SM +RA BR FEW020 BKN029 OVC048 22/21 A2990 RMK AO2 RAB35 P0002
NYC,2012-08-15 17:49,-73.9693,40.7790,71.60,69.80,94.06,100.00,8.00,0.04,29.90,M,0.75,M,FEW,BKN,OVC,M,1800.00,3200.00,4800.00,M,+RA BR,M,M,M,M,M,M,71.60,KNYC 151749Z AUTO 10008KT 3/4SM +RA BR FEW018 BKN032 OVC048 22/21 A2990 RMK AO2 RAB35 P0004
NYC,2012-08-15 17:51,-73.9693,40.7790,71.06,69.08,93.47,110.00,7.00,0.10,29.90,1011.40,0.75,M,SCT,BKN,OVC,M,1800.00,3000.00,5000.00,M,+RA BR,M,M,M,M,M,M,71.06,KNYC 151751Z AUTO 11007KT 070V130 3/4SM +RA BR SCT018 BKN030 OVC050 22/21 A2990 RMK AO2 RAB35 SLP114 P0010 60010 T02170206 10278 20217 55000
NYC,2012-08-15 17:58,-73.9693,40.7790,69.98,69.08,96.97,M,5.00,0.02,29.90,M,2.00,M,FEW,BKN,OVC,M,1600.00,3000.00,7500.00,M,-RA BR,M,M,M,M,M,M,69.98,KNYC 151758Z AUTO VRB05KT 2SM -RA BR FEW016 BKN030 OVC075 21/21 A2990 RMK AO2 VIS 1/2V5 P0002 T02110206
NYC,2012-08-15 18:05,-73.9693,40.7790,69.98,68.00,93.44,M,5.00,0.02,29.90,M,6.00,M,SCT,BKN,OVC,M,2300.00,4000.00,7500.00,M,BR,M,M,M,M,M,M,69.98,KNYC 151805Z AUTO VRB05KT 6SM BR SCT023 BKN040 OVC075 21/20 A2990 RMK AO2 RAE01 P0002 T02110200
NYC,2012-08-15 18:51,-73.9693,40.7790,71.96,71.06,96.99,50.00,4.00,0.03,29.88,1010.70,2.00,M,SCT,BKN,OVC,M,5000.00,8000.00,10000.00,M,RA BR,M,M,M,M,M,M,71.96,KNYC 151851Z AUTO 05004KT 2SM RA BR SCT050 BKN080 OVC100 22/22 A2988 RMK AO2 RAE01B32 SLP107 P0003 T02220217
NYC,2012-08-15 19:07,-73.9693,40.7790,71.06,69.98,96.39,0.00,0.00,0.02,29.88,M,4.00,M,SCT,BKN,OVC,M,3800.00,5000.00,8000.00,M,-RA BR,M,M,M,M,M,M,71.06,KNYC 151907Z AUTO 00000KT 4SM -RA BR SCT038 BKN050 OVC080 22/21 A2988 RMK AO2 P0002 T02170211
NYC,2012-08-15 19:51,-73.9693,40.7790,71.06,69.98,96.39,140.00,4.00,0.03,29.89,1011.00,3.00,M,BKN,M,M,M,6500.00,M,M,M,BR,M,M,M,M,M,M,71.06,KNYC 151951Z AUTO 14004KT 3SM BR BKN065 22/21 A2989 RMK AO2 RAE30 SLP110 P0003 T02170211
NYC,2012-08-15 20:41,-73.9693,40.7790,68.00,66.92,96.34,220.00,3.00,0.02,29.87,M,2.00,M,FEW,BKN,OVC,M,3600.00,8500.00,10000.00,M,-RA BR,M,M,M,M,M,M,68.00,KNYC 152041Z AUTO 22003KT 2SM -RA BR FEW036 BKN085 OVC100 20/19 A2987 RMK AO2 RAB20 P0002 T02000194
NYC,2012-08-15 20:51,-73.9693,40.7790,68.00,66.92,96.34,M,4.00,0.03,29.88,1010.80,4.00,M,FEW,FEW,OVC,M,6000.00,7500.00,10000.00,M,-RA BR,M,M,M,M,M,M,68.00,KNYC 152051Z AUTO VRB04KT 4SM -RA BR FEW060 FEW075 OVC100 20/19 A2988 RMK AO2 RAB20 SLP108 P0003 60009 T02000194 56007
NYC,2012-08-15 21:51,-73.9693,40.7790,69.98,68.00,93.44,M,4.00,0.01,29.89,1011.20,8.00,M,OVC,M,M,M,7500.00,M,M,M,M,M,M,M,M,M,M,69.98,KNYC 152151Z AUTO VRB04KT 8SM OVC075 21/20 A2989 RMK AO2 RAE07 SLP112 P0001 T02110200
NYC,2012-08-15 22:03,-73.9693,40.7790,69.08,68.00,96.36,M,4.00,0.01,29.89,M,1.75,M,FEW,OVC,M,M,3600.00,7500.00,M,M,+RA BR,M,M,M,M,M,M,69.08,KNYC 152203Z AUTO VRB04KT 1 3/4SM +RA BR FEW036 OVC075 21/20 A2989 RMK AO2 RAB00 P0001 T02060200
NYC,2012-08-15 22:13,-73.9693,40.7790,69.08,68.00,96.36,M,3.00,0.16,29.90,M,0.50,M,BKN,OVC,M,M,4100.00,7500.00,M,M,+RA FG,M,M,M,M,M,M,69.08,KNYC 152213Z AUTO VRB03KT 1/2SM +RA FG BKN041 OVC075 21/20 A2990 RMK AO2 RAB00 P0016 T02060200
NYC,2012-08-15 22:26,-73.9693,40.7790,69.08,68.00,96.36,0.00,0.00,0.24,29.88,M,1.00,M,BKN,OVC,M,M,4700.00,7500.00,M,M,RA BR,M,M,M,M,M,M,69.08,KNYC 152226Z AUTO 00000KT 1SM RA BR BKN047 OVC075 21/20 A2988 RMK AO2 RAB00 P0024 T02060200
NYC,2012-08-15 22:51,-73.9693,40.7790,68.00,68.00,100.00,0.00,0.00,0.31,29.88,1010.90,2.00,M,FEW,SCT,OVC,M,6000.00,7000.00,10000.00,M,-RA BR,M,M,M,M,M,M,68.00,KNYC 152251Z AUTO 00000KT 2SM -RA BR FEW060 SCT070 OVC100 20/20 A2988 RMK AO2 RAB00 SLP109 P0031 T02000200
NYC,2012-08-15 22:58,-73.9693,40.7790,68.00,68.00,100.00,M,3.00,0.01,29.88,M,1.75,M,FEW,OVC,M,M,6500.00,11000.00,M,M,-RA BR,M,M,M,M,M,M,68.00,KNYC 152258Z AUTO VRB03KT 1 3/4SM -RA BR FEW065 OVC110 20/20 A2988 RMK AO2 P0001 T02000200
NYC,2012-08-15 23:04,-73.9693,40.7790,68.00,66.92,96.34,290.00,4.00,0.02,29.89,M,3.00,M,OVC,M,M,M,11000.00,M,M,M,-RA BR,M,M,M,M,M,M,68.00,KNYC 152304Z AUTO 29004KT 3SM -RA BR OVC110 20/19 A2989 RMK AO2 P0002 T02000194
NYC,2012-08-15 23:51,-73.9693,40.7790,68.00,66.92,96.34,0.00,0.00,0.05,29.89,1011.30,3.00,M,FEW,OVC,M,M,9000.00,11000.00,M,M,-RA BR,M,M,M,M,M,M,68.00,KNYC 152351Z AUTO 00000KT 3SM -RA BR FEW090 OVC110 20/19 A2989 RMK AO2 SLP113 P0005 60046 T02000194 10222 20200 52005
NYC,2012-08-16 00:51,-73.9693,40.7790,68.00,68.00,100.00,20.00,4.00,0.01,29.89,1011.20,5.00,M,CLR,M,M,M,M,M,M,M,BR,M,M,M,M,M,M,68.00,KNYC 160051Z AUTO 02004KT 5SM BR CLR 20/20 A2989 RMK AO2 RAE09 SLP112 P0001 T02000200
NYC,2012-08-16 01:51,-73.9693,40.7790,68.00,66.92,96.34,300.00,5.00,M,29.89,1011.20,5.00,M,CLR,M,M,M,M,M,M,M,BR,M,M,M,M,M,M,68.00,KNYC 160151Z AUTO 30005KT 5SM BR CLR 20/19 A2989 RMK AO2 SLP112 T02000194
NYC,2012-08-16 02:51,-73.9693,40.7790,68.00,66.02,93.38,0.00,0.00,M,29.88,1010.90,5.00,M,CLR,M,M,M,M,M,M,M,BR,M,M,M,M,M,M,68.00,KNYC 160251Z AUTO 00000KT 5SM BR CLR 20/19 A2988 RMK AO2 SLP109 60001 T02000189 58002
NYC,2012-08-16 03:51,-73.9693,40.7790,66.92,66.02,96.93,0.00,0.00,M,29.89,1011.20,4.00,M,CLR,M,M,M,M,M,M,M,BR,M,M,M,M,M,M,66.92,KNYC 160351Z AUTO 00000KT 4SM BR CLR 19/19 A2989 RMK AO2 SLP112 T01940189
NYC,2012-08-16 04:51,-73.9693,40.7790,66.92,64.94,93.35,0.00,0.00,M,29.90,1011.60,6.00,M,CLR,M,M,M,M,M,M,M,BR,M,M,M,M,M,M,66.92,KNYC 160451Z AUTO 00000KT 6SM BR CLR 19/18 A2990 RMK AO2 SLP116 T01940183 402780194
NYC,2012-08-16 05:12,-73.9693,40.7790,66.92,66.02,96.93,0.00,0.00,M,29.89,M,2.00,M,CLR,M,M,M,M,M,M,M,BR,M,M,M,M,M,M,66.92,KNYC 160512Z AUTO 00000KT 2SM BR CLR 19/19 A2989 RMK AO2 T01940189
NYC,2012-08-16 05:41,-73.9693,40.7790,68.00,66.02,93.38,0.00,0.00,M,29.89,M,4.00,M,CLR,M,M,M,M,M,M,M,BR,M,M,M,M,M,M,68.00,KNYC 160541Z AUTO 00000KT 4SM BR CLR 20/19 A2989 RMK AO2 T02000189
NYC,2012-08-16 05:51,-73.9693,40.7790,68.00,66.92,96.34,300.00,3.00,M,29.89,1011.30,4.00,M,CLR,M,M,M,M,M,M,M,BR,M,M,M,M,M,M,68.00,KNYC 160551Z AUTO 30003KT 4SM BR CLR 20/19 A2989 RMK AO2 SLP113 60001 T02000194 10206 20194 50003
NYC,2012-08-16 06:15,-73.9693,40.7790,68.00,66.92,96.34,290.00,3.00,M,29.89,M,4.00,M,CLR,M,M,M,M,M,M,M,BR,M,M,M,M,M,M,68.00,KNYC 160615Z AUTO 29003KT 4SM BR CLR 20/19 A2989 RMK AO2 T02000194
NYC,2012-08-16 06:26,-73.9693,40.7790,68.00,66.92,96.34,0.00,0.00,M,29.90,M,2.50,M,CLR,M,M,M,M,M,M,M,BR,M,M,M,M,M,M,68.00,KNYC 160626Z AUTO 00000KT 2 1/2SM BR CLR 20/19 A2990 RMK AO2 T02000194
NYC,2012-08-16 06:35,-73.9693,40.7790,68.00,66.02,93.38,0.00,0.00,M,29.90,M,4.00,M,CLR,M,M,M,M,M,M,M,BR,M,M,M,M,M,M,68.00,KNYC 160635Z AUTO 00000KT 4SM BR CLR 20/19 A2990 RMK AO2 T02000189
NYC,2012-08-16 06:51,-73.9693,40.7790,68.00,66.02,93.38,0.00,0.00,M,29.90,1011.40,4.00,M,CLR,M,M,M,M,M,M,M,BR,M,M,M,M,M,M,68.00,KNYC 160651Z AUTO 00000KT 4SM BR CLR 20/19 A2990 RMK AO2 SLP114 T02000189
NYC,2012-08-16 07:08,-73.9693,40.7790,66.92,66.02,96.93,0.00,0.00,M,29.89,M,2.50,M,CLR,M,M,M,M,M,M,M,BR,M,M,M,M,M,M,66.92,KNYC 160708Z AUTO 00000KT 2 1/2SM BR CLR 19/19 A2989 RMK AO2 T01940189
NYC,2012-08-16 07:15,-73.9693,40.7790,66.92,66.02,96.93,0.00,0.00,M,29.89,M,3.00,M,CLR,M,M,M,M,M,M,M,BR,M,M,M,M,M,M,66.92,KNYC 160715Z AUTO 00000KT 3SM BR CLR 19/19 A2989 RMK AO2 T01940189
NYC,2012-08-16 07:23,-73.9693,40.7790,66.92,66.02,96.93,0.00,0.00,M,29.90,M,1.75,M,CLR,M,M,M,M,M,M,M,BR,M,M,M,M,M,M,66.92,KNYC 160723Z AUTO 00000KT 1 3/4SM BR CLR 19/19 A2990 RMK AO2 T01940189
NYC,2012-08-16 07:31,-73.9693,40.7790,66.92,66.02,96.93,0.00,0.00,M,29.89,M,2.50,M,CLR,M,M,M,M,M,M,M,BR,M,M,M,M,M,M,66.92,KNYC 160731Z AUTO 00000KT 2 1/2SM BR CLR 19/19 A2989 RMK AO2 T01940189
NYC,2012-08-16 07:40,-73.9693,40.7790,66.92,66.02,96.93,0.00,0.00,M,29.89,M,4.00,M,CLR,M,M,M,M,M,M,M,BR,M,M,M,M,M,M,66.92,KNYC 160740Z AUTO 00000KT 4SM BR CLR 19/19 A2989 RMK AO2 T01940189
NYC,2012-08-16 07:51,-73.9693,40.7790,66.92,66.02,96.93,0.00,0.00,M,29.89,1011.30,2.50,M,CLR,M,M,M,M,M,M,M,BR,M,M,M,M,M,M,66.92,KNYC 160751Z AUTO 00000KT 2 1/2SM BR CLR 19/19 A2989 RMK AO2 SLP113 T01940189
NYC,2012-08-16 08:14,-73.9693,40.7790,66.92,66.02,96.93,280.00,4.00,M,29.89,M,1.75,M,CLR,M,M,M,M,M,M,M,BR,M,M,M,M,M,M,66.92,KNYC 160814Z AUTO 28004KT 1 3/4SM BR CLR 19/19 A2989 RMK AO2 T01940189
NYC,2012-08-16 08:20,-73.9693,40.7790,66.92,66.02,96.93,290.00,3.00,M,29.90,M,3.00,M,CLR,M,M,M,M,M,M,M,BR,M,M,M,M,M,M,66.92,KNYC 160820Z AUTO 29003KT 3SM BR CLR 19/19 A2990 RMK AO2 T01940189
NYC,2012-08-16 08:51,-73.9693,40.7790,66.92,64.94,93.35,M,4.00,M,29.90,1011.50,8.00,M,CLR,M,M,M,M,M,M,M,M,M,M,M,M,M,M,66.92,KNYC 160851Z AUTO VRB04KT 8SM CLR 19/18 A2990 RMK AO2 SLP115 T01940183 53002
NYC,2012-08-16 09:51,-73.9693,40.7790,66.92,64.94,93.35,280.00,4.00,M,29.92,1012.10,7.00,M,CLR,M,M,M,M,M,M,M,M,M,M,M,M,M,M,66.92,KNYC 160951Z AUTO 28004KT 7SM CLR 19/18 A2992 RMK AO2 SLP121 T01940183
NYC,2012-08-16 10:51,-73.9693,40.7790,66.92,64.04,90.46,290.00,5.00,M,29.92,1012.40,8.00,M,CLR,M,M,M,M,M,M,M,M,M,M,M,M,M,M,66.92,KNYC 161051Z AUTO 29005KT 8SM CLR 19/18 A2992 RMK AO2 SLP124 T01940178
NYC,2012-08-16 11:51,-73.9693,40.7790,68.00,62.06,81.29,M,4.00,M,29.94,1013.00,10.00,M,CLR,M,M,M,M,M,M,M,M,M,M,M,M,M,M,68.00,KNYC 161151Z AUTO VRB04KT 10SM CLR 20/17 A2994 RMK AO2 SLP130 70057 T02000167 10200 20189 52015
NYC,2012-08-16 12:51,-73.9693,40.7790,69.08,62.96,80.86,M,5.00,M,29.94,1013.10,10.00,M,CLR,M,M,M,M,M,M,M,M,M,M,M,M,M,M,69.08,KNYC 161251Z AUTO VRB05KT 10SM CLR 21/17 A2994 RMK AO2 SLP131 T02060172
NYC,2012-08-16 13:51,-73.9693,40.7790,71.96,62.96,73.30,M,3.00,M,29.95,1013.20,10.00,M,CLR,M,M,M,M,M,M,M,M,M,M,M,M,M,M,71.96,KNYC 161351Z AUTO VRB03KT 10SM CLR 22/17 A2995 RMK AO2 SLP132 T02220172
NYC,2012-08-16 14:51,-73.9693,40.7790,75.92,64.04,66.65,0.00,0.00,M,29.94,1013.00,10.00,M,CLR,M,M,M,M,M,M,M,M,M,M,M,M,M,M,75.92,KNYC 161451Z AUTO 00000KT 10SM CLR 24/18 A2994 RMK AO2 SLP130 T02440178 58000
NYC,2012-08-16 15:51,-73.9693,40.7790,80.06,62.96,55.97,M,4.00,M,29.93,1012.40,10.00,M,FEW,M,M,M,3000.00,M,M,M,M,M,M,M,M,M,M,81.45,KNYC 161551Z AUTO VRB04KT 10SM FEW030 27/17 A2993 RMK AO2 SLP124 T02670172
NYC,2012-08-16 16:51,-73.9693,40.7790,82.04,60.08,47.39,0.00,0.00,M,29.92,1012.10,10.00,M,SCT,M,M,M,4300.00,M,M,M,M,M,M,M,M,M,M,82.43,KNYC 161651Z AUTO 00000KT 10SM SCT043 28/16 A2992 RMK AO2 SLP121 T02780156
NYC,2012-08-16 17:51,-73.9693,40.7790,82.04,59.00,45.60,M,3.00,M,29.91,1011.80,10.00,M,FEW,M,M,M,5500.00,M,M,M,M,M,M,M,M,M,M,82.19,KNYC 161751Z AUTO VRB03KT 10SM FEW055 28/15 A2991 RMK AO2 SLP118 T02780150 10289 20200 56010
NYC,2012-08-16 18:51,-73.9693,40.7790,84.02,57.02,39.83,300.00,5.00,M,29.91,1011.70,10.00,M,BKN,M,M,M,6000.00,M,M,M,M,M,M,M,M,M,M,84.02,KNYC 161851Z AUTO 30005KT 10SM BKN060 29/14 A2991 RMK AO2 SLP117 T02890139
NYC,2012-08-16 19:51,-73.9693,40.7790,82.94,55.94,39.67,M,3.00,M,29.90,1011.60,10.00,M,FEW,M,M,M,7000.00,M,M,M,M,M,M,M,M,M,M,82.94,KNYC 161951Z AUTO VRB03KT 10SM FEW070 28/13 A2990 RMK AO2 SLP116 T02830133
NYC,2012-08-16 20:51,-73.9693,40.7790,82.94,59.00,M,M,M,M,29.89,1011.00,10.00,M,SCT,BKN,M,M,6000.00,9000.00,M,M,M,M,M,M,M,M,M,M,KNYC 162051Z AUTO 10SM SCT060 BKN090 28/15 A2989 RMK AO2 SLP110 T02830150 58008
NYC,2012-08-16 21:51,-73.9693,40.7790,82.94,53.96,36.91,280.00,10.00,M,29.89,1011.10,10.00,15.00,CLR,M,M,M,M,M,M,M,M,M,M,M,M,M,M,82.94,KNYC 162151Z AUTO 28010G15KT 10SM CLR 28/12 A2989 RMK AO2 SLP111 T02830122
NYC,2012-08-16 22:51,-73.9693,40.7790,80.96,55.94,42.30,M,4.00,M,29.89,1011.20,10.00,M,CLR,M,M,M,M,M,M,M,M,M,M,M,M,M,M,80.85,KNYC 162251Z AUTO VRB04KT 10SM CLR 27/13 A2989 RMK AO2 SLP112 T02720133
NYC,2012-08-16 23:51,-73.9693,40.7790,78.98,55.94,45.14,0.00,0.00,M,29.88,1011.00,10.00,M,CLR,M,M,M,M,M,M,M,M,M,M,M,M,M,M,78.98,KNYC 162351Z AUTO 00000KT 10SM CLR 26/13 A2988 RMK AO2 SLP110 T02610133 10294 20261 58001
NYC,2012-08-17 00:51,-73.9693,40.7790,78.08,57.02,48.35,M,4.00,M,29.90,1011.50,10.00,M,CLR,M,M,M,M,M,M,M,M,M,M,M,M,M,M,78.08,KNYC 170051Z AUTO VRB04KT 10SM CLR 26/14 A2990 RMK AO2 SLP115 T02560139
NYC,2012-08-17 01:51,-73.9693,40.7790,75.02,57.02,53.52,240.00,3.00,M,29.90,1011.50,10.00,M,CLR,M,M,M,M,M,M,M,M,M,M,M,M,M,M,75.02,KNYC 170151Z AUTO 24003KT 10SM CLR 24/14 A2990 RMK AO2 SLP115 T02390139
NYC,2012-08-17 02:51,-73.9693,40.7790,75.02,57.02,53.52,0.00,0.00,M,29.91,1011.90,10.00,M,CLR,M,M,M,M,M,M,M,M,M,M,M,M,M,M,75.02,KNYC 170251Z AUTO 00000KT 10SM CLR 24/14 A2991 RMK AO2 SLP119 T02390139 51009
NYC,2012-08-17 03:51,-73.9693,40.7790,73.04,57.92,59.08,240.00,4.00,M,29.92,1012.20,10.00,M,CLR,M,M,M,M,M,M,M,M,M,M,M,M,M,M,73.04,KNYC 170351Z AUTO 24004KT 10SM CLR 23/14 A2992 RMK AO2 SLP122 T02280144
NYC,2012-08-17 04:51,-73.9693,40.7790,71.96,59.00,63.70,0.00,0.00,M,29.92,1012.20,10.00,M,CLR,M,M,M,M,M,M,M,M,M,M,M,M,M,M,71.96,KNYC 170451Z AUTO 00000KT 10SM CLR 22/15 A2992 RMK AO2 SLP122 T02220150 402940189
NYC,2012-08-17 05:51,-73.9693,40.7790,73.04,57.92,59.08,0.00,0.00,M,29.92,1012.00,10.00,M,CLR,M,M,M,M,M,M,M,M,M,M,M,M,M,M,73.04,KNYC 170551Z AUTO 00000KT 10SM CLR 23/14 A2992 RMK AO2 SLP120 T02280144 10261 20217 50001
NYC,2012-08-17 06:51,-73.9693,40.7790,71.96,57.92,61.28,290.00,4.00,M,29.92,1012.10,10.00,M,CLR,M,M,M,M,M,M,M,M,M,M,M,M,M,M,71.96,KNYC 170651Z AUTO 29004KT 10SM CLR 22/14 A2992 RMK AO2 SLP121 T02220144
NYC,2012-08-17 07:51,-73.9693,40.7790,71.06,57.92,63.18,0.00,0.00,M,29.90,1011.60,10.00,M,CLR,M,M,M,M,M,M,M,M,M,M,M,M,M,M,71.06,KNYC 170751Z AUTO 00000KT 10SM CLR 22/14 A2990 RMK AO2 SLP116 T02170144
NYC,2012-08-17 08:51,-73.9693,40.7790,71.96,57.02,59.32,250.00,3.00,M,29.89,1011.20,10.00,M,CLR,M,M,M,M,M,M,M,M,M,M,M,M,M,M,71.96,KNYC 170851Z AUTO 25003KT 10SM CLR 22/14 A2989 RMK AO2 SLP112 T02220139 58008
NYC,2012-08-17 09:51,-73.9693,40.7790,71.96,57.02,59.32,240.00,3.00,M,29.89,1011.10,10.00,M,CLR,M,M,M,M,M,M,M,M,M,M,M,M,M,M,71.96,KNYC 170951Z AUTO 24003KT 10SM CLR 22/14 A2989 RMK AO2 SLP111 T02220139
NYC,2012-08-17 10:51,-73.9693,40.7790,73.04,57.92,59.08,M,6.00,M,29.90,1011.30,10.00,M,CLR,M,M,M,M,M,M,M,M,M,M,M,M,M,M,73.04,KNYC 171051Z AUTO VRB06KT 10SM CLR 23/14 A2990 RMK AO2 SLP113 T02280144
NYC,2012-08-17 11:51,-73.9693,40.7790,73.94,60.08,61.92,M,4.00,M,29.89,1011.20,10.00,M,CLR,M,M,M,M,M,M,M,M,M,M,M,M,M,M,73.94,KNYC 171151Z AUTO VRB04KT 10SM CLR 23/16 A2989 RMK AO2 SLP112 T02330156 10233 20217 52000
NYC,2012-08-17 12:51,-73.9693,40.7790,75.92,60.98,59.84,M,3.00,M,29.89,1011.20,9.00,M,CLR,M,M,M,M,M,M,M,M,M,M,M,M,M,M,75.92,KNYC 171251Z AUTO VRB03KT 9SM CLR 24/16 A2989 RMK AO2 SLP112 T02440161
NYC,2012-08-17 13:51,-73.9693,40.7790,78.08,62.96,59.74,0.00,0.00,M,29.89,1011.00,9.00,M,CLR,M,M,M,M,M,M,M,M,M,M,M,M,M,M,78.08,KNYC 171351Z AUTO 00000KT 9SM CLR 26/17 A2989 RMK AO2 SLP110 T02560172
NYC,2012-08-17 14:51,-73.9693,40.7790,80.96,64.04,56.45,M,4.00,M,29.87,1010.50,9.00,M,CLR,M,M,M,M,M,M,M,M,M,M,M,M,M,M,82.52,KNYC 171451Z AUTO VRB04KT 9SM CLR 27/18 A2987 RMK AO2 SLP105 T02720178 58007
NYC,2012-08-17 15:51,-73.9693,40.7790,84.92,64.04,49.66,M,3.00,M,29.87,1010.50,9.00,M,CLR,M,M,M,M,M,M,M,M,M,M,M,M,M,M,86.27,KNYC 171551Z AUTO VRB03KT 9SM CLR 29/18 A2987 RMK AO2 SLP105 T02940178
NYC,2012-08-17 16:51,-73.9693,40.7790,84.92,62.96,47.82,270.00,7.00,M,29.85,1009.90,10.00,M,CLR,M,M,M,M,M,M,M,M,M,M,M,M,M,M,85.83,KNYC 171651Z AUTO 27007KT 230V300 10SM CLR 29/17 A2985 RMK AO2 SLP099 T02940172 $
NYC,2012-08-17 17:51,-73.9693,40.7790,87.08,62.06,43.23,260.00,7.00,M,29.84,1009.40,10.00,15.00,CLR,M,M,M,M,M,M,M,M,M,M,M,M,M,M,87.55,KNYC 171751Z AUTO 26007G15KT 10SM CLR 31/17 A2984 RMK AO2 SLP094 T03060167 10311 20233 58011 $
NYC,2012-08-17 18:51,-73.9693,40.7790,86.00,62.06,44.75,240.00,7.00,M,29.82,1008.90,10.00,M,SCT,M,M,M,6000.00,M,M,M,M,M,M,M,M,M,M,86.51,KNYC 171851Z AUTO 24007KT 170V290 10SM SCT060 30/17 A2982 RMK AO2 SLP089 T03000167 $
NYC,2012-08-17 19:51,-73.9693,40.7790,86.00,62.96,46.19,M,5.00,M,29.81,1008.30,10.00,17.00,SCT,M,M,M,7000.00,M,M,M,M,M,M,M,M,M,M,86.87,KNYC 171951Z AUTO VRB05G17KT 10SM SCT070 30/17 A2981 RMK AO2 SLP083 T03000172 $
NYC,2012-08-17 20:51,-73.9693,40.7790,84.92,64.04,49.66,M,6.00,M,29.80,1008.00,10.00,M,CLR,M,M,M,M,M,M,M,M,M,M,M,M,M,M,86.27,KNYC 172051Z AUTO VRB06KT 10SM CLR 29/18 A2980 RMK AO2 SLP080 T02940178 56014 $
NYC,2012-08-17 21:51,-73.9693,40.7790,84.02,62.06,47.68,M,3.00,M,29.80,1008.20,10.00,M,FEW,M,M,M,8000.00,M,M,M,M,M,M,M,M,M,M,84.68,KNYC 172151Z AUTO VRB03KT 10SM FEW080 29/17 A2980 RMK AO2 SLP082 T02890167 $
NYC,2012-08-17 22:51,-73.9693,40.7790,82.94,62.96,50.97,240.00,4.00,M,29.80,1008.20,10.00,M,SCT,SCT,SCT,M,6500.00,8500.00,11000.00,M,M,M,M,M,M,M,M,84.00,KNYC 172251Z AUTO 24004KT 10SM SCT065 SCT085 SCT110 28/17 A2980 RMK AO2 SLP082 T02830172 $
NYC,2012-08-17 23:26,-73.9693,40.7790,78.08,68.00,71.19,M,6.00,0.01,29.81,M,1.75,M,OVC,M,M,M,5500.00,M,M,M,RA,M,M,M,M,M,M,78.08,KNYC 172326Z AUTO VRB06KT 1 3/4SM RA OVC055 26/20 A2981 RMK AO2 RAB23 P0001 T02560200 $
NYC,2012-08-17 23:39,-73.9693,40.7790,73.04,71.06,93.52,0.00,0.00,0.11,29.82,M,3.00,M,BKN,M,M,M,5500.00,M,M,M,-RA BR,M,M,M,M,M,M,73.04,KNYC 172339Z AUTO 00000KT 3SM -RA BR BKN055 23/22 A2982 RMK AO2 RAB23 P0011 T02280217 $
NYC,2012-08-17 23:51,-73.9693,40.7790,73.04,71.96,96.42,0.00,0.00,0.11,29.82,1008.80,3.00,M,SCT,M,M,M,6000.00,M,M,M,BR,M,M,M,M,M,M,73.04,KNYC 172351Z AUTO 00000KT 3SM BR SCT060 23/22 A2982 RMK AO2 RAB23E40 SLP088 P0011 60011 T02280222 10311 20228 53008 $
NYC,2012-08-18 00:51,-73.9693,40.7790,73.94,66.92,78.72,M,3.00,M,29.85,1009.70,10.00,M,SCT,M,M,M,9000.00,M,M,M,M,M,M,M,M,M,M,73.94,KNYC 180051Z AUTO VRB03KT 10SM SCT090 23/19 A2985 RMK AO2 SLP097 T02330194 $
NYC,2012-08-18 01:51,-73.9693,40.7790,73.04,66.02,78.65,0.00,0.00,M,29.87,1010.30,10.00,M,CLR,M,M,M,M,M,M,M,M,M,M,M,M,M,M,73.04,KNYC 180151Z AUTO 00000KT 10SM CLR 23/19 A2987 RMK AO2 SLP103 T02280189 $
NYC,2012-08-18 02:51,-73.9693,40.7790,73.94,64.04,71.22,0.00,0.00,M,29.86,1010.20,10.00,M,FEW,M,M,M,7000.00,M,M,M,M,M,M,M,M,M,M,73.94,KNYC 180251Z AUTO 00000KT 10SM FEW070 23/18 A2986 RMK AO2 SLP102 T02330178 50014 $
NYC,2012-08-18 03:51,-73.9693,40.7790,73.94,64.04,71.22,M,6.00,M,29.87,1010.60,10.00,M,BKN,BKN,M,M,4800.00,6000.00,M,M,M,M,M,M,M,M,M,73.94,KNYC 180351Z AUTO VRB06KT 10SM BKN048 BKN060 23/18 A2987 RMK AO2 SLP106 T02330178 $
NYC,2012-08-18 04:51,-73.9693,40.7790,68.00,62.06,81.29,M,6.00,0.00,29.90,1011.60,4.00,M,BKN,OVC,M,M,4700.00,5500.00,M,M,RA,M,M,M,M,M,M,68.00,KNYC 180451Z AUTO VRB06KT 4SM RA BKN047 OVC055 20/17 A2990 RMK AO2 RAB40 SLP116 P0000 T02000167 403110200 $
NYC,2012-08-18 04:58,-73.9693,40.7790,66.02,62.96,89.86,M,6.00,0.03,29.91,M,1.75,M,BKN,OVC,M,M,4700.00,6000.00,M,M,+RA BR,M,M,M,M,M,M,66.02,KNYC 180458Z AUTO VRB06KT 1 3/4SM +RA BR BKN047 OVC060 19/17 A2991 RMK AO2 P0003 T01890172 $
NYC,2012-08-18 05:10,-73.9693,40.7790,64.94,62.96,93.30,M,5.00,0.09,29.89,M,3.00,M,FEW,BKN,OVC,M,4300.00,6000.00,7500.00,M,RA BR,M,M,M,M,M,M,64.94,KNYC 180510Z VRB05KT 3SM RA BR FEW043 BKN060 OVC075 18/17 A2989 RMK AO2 P0009 T01830172 $
NYC,2012-08-18 05:51,-73.9693,40.7790,64.04,62.96,96.28,0.00,0.00,0.13,29.88,1010.80,7.00,M,FEW,BKN,OVC,M,5500.00,7500.00,10000.00,M,-RA,M,M,M,M,M,M,64.04,KNYC 180551Z AUTO 00000KT 7SM -RA FEW055 BKN075 OVC100 18/17 A2988 RMK AO2 SLP108 P0013 60013 T01780172 10239 20178 50006 $
NYC,2012-08-18 06:51,-73.9693,40.7790,64.04,62.06,93.28,330.00,4.00,0.00,29.89,1011.00,10.00,M,FEW,OVC,M,M,4800.00,11000.00,M,M,M,M,M,M,M,M,M,64.04,KNYC 180651Z AUTO 33004KT 10SM FEW048 OVC110 18/17 A2989 RMK AO2 RAE0559 SLP110 P0000 T01780167 $
NYC,2012-08-18 07:51,-73.9693,40.7790,64.94,62.96,93.30,M,3.00,0.01,29.88,1010.80,9.00,M,OVC,M,M,M,4300.00,M,M,M,-RA,M,M,M,M,M,M,64.94,KNYC 180751Z AUTO VRB03KT 9SM -RA OVC043 18/17 A2988 RMK AO2 RAB17 SLP108 P0001 T01830172 $
NYC,2012-08-18 08:21,-73.9693,40.7790,64.94,64.04,96.90,M,4.00,0.01,29.88,M,7.00,M,BKN,BKN,OVC,M,1100.00,1900.00,4200.00,M,-RA,M,M,M,M,M,M,64.94,KNYC 180821Z AUTO VRB04KT 7SM -RA BKN011 BKN019 OVC042 18/18 A2988 RMK AO2 P0001 T01830178 $
NYC,2012-08-18 08:41,-73.9693,40.7790,64.94,62.06,90.39,M,6.00,0.01,29.89,M,10.00,M,SCT,OVC,M,M,1000.00,2100.00,M,M,M,M,M,M,M,M,M,64.94,KNYC 180841Z AUTO VRB06KT 10SM SCT010 OVC021 18/17 A2989 RMK AO2 RAE31 P0001 T01830167 $
NYC,2012-08-18 08:51,-73.9693,40.7790,64.94,62.06,90.39,20.00,4.00,0.01,29.90,1011.40,9.00,M,FEW,SCT,OVC,M,1000.00,2000.00,2600.00,M,-RA,M,M,M,M,M,M,64.94,KNYC 180851Z AUTO 02004KT 9SM -RA FEW010 SCT020 OVC026 18/17 A2990 RMK AO2 RAE31B51 SLP114 P0001 60002 T01830167 53006 $
NYC,2012-08-18 09:19,-73.9693,40.7790,64.04,62.96,96.28,M,5.00,0.02,29.90,M,9.00,M,OVC,M,M,M,3000.00,M,M,M,-RA,M,M,M,M,M,M,64.04,KNYC 180919Z AUTO VRB05KT 9SM -RA OVC030 18/17 A2990 RMK AO2 P0002 T01780172 $
NYC,2012-08-18 09:51,-73.9693,40.7790,64.04,62.06,93.28,M,5.00,0.02,29.90,1011.30,10.00,M,FEW,BKN,OVC,M,3200.00,4200.00,7000.00,M,M,M,M,M,M,M,M,64.04,KNYC 180951Z AUTO VRB05KT 10SM FEW032 BKN042 OVC070 18/17 A2990 RMK AO2 RAE22 SLP113 P0002 T01780167 $
NYC,2012-08-18 10:51,-73.9693,40.7790,62.96,60.98,93.25,30.00,5.00,0.04,29.91,1012.00,10.00,M,SCT,BKN,OVC,M,5500.00,7500.00,9000.00,M,M,M,M,M,M,M,M,62.96,KNYC 181051Z AUTO 03005KT 10SM SCT055 BKN075 OVC090 17/16 A2991 RMK AO2 RAB0954E51 SLP120 P0004 T01720161 $
NYC,2012-08-18 11:51,-73.9693,40.7790,64.04,62.96,96.28,0.00,0.00,0.00,29.93,1012.60,4.00,M,BKN,OVC,M,M,6000.00,7500.00,M,M,-RA BR,M,M,M,M,M,M,64.04,KNYC 181151Z AUTO 00000KT 4SM -RA BR BKN060 OVC075 18/17 A2993 RMK AO2 RAB28 SLP126 P0000 60008 70032 T01780172 10189 20172 53011 $
NYC,2012-08-18 12:16,-73.9693,40.7790,64.04,62.96,96.28,M,5.00,0.03,29.94,M,2.00,M,OVC,M,M,M,6000.00,M,M,M,-RA BR,M,M,M,M,M,M,64.04,KNYC 181216Z AUTO VRB05KT 2SM -RA BR OVC060 18/17 A2994 RMK AO2 P0003 T01780172 $
NYC,2012-08-18 12:32,-73.9693,40.7790,62.96,62.96,100.00,0.00,0.00,0.09,29.93,M,1.50,M,SCT,OVC,M,M,4400.00,6000.00,M,M,RA BR,M,M,M,M,M,M,62.96,KNYC 181232Z AUTO 00000KT 1 1/2SM RA BR SCT044 OVC060 17/17 A2993 RMK AO2 P0009 T01720172 $
NYC,2012-08-18 12:47,-73.9693,40.7790,62.60,62.60,100.00,0.00,0.00,0.11,29.93,M,2.50,M,FEW,BKN,OVC,M,4300.00,6500.00,8000.00,M,-RA BR,M,M,M,M,M,M,62.60,KNYC 181247Z AUTO 00000KT 2 1/2SM -RA BR FEW043 BKN065 OVC080 17/17 A2993 RMK AO2 P0011 $
NYC,2012-08-18 12:51,-73.9693,40.7790,62.96,62.96,100.00,30.00,3.00,0.12,29.93,1012.70,2.00,M,FEW,OVC,M,M,4200.00,7500.00,M,M,RA BR,M,M,M,M,M,M,62.96,KNYC 181251Z AUTO 03003KT 2SM RA BR FEW042 OVC075 17/17 A2993 RMK AO2 SLP127 P0012 T01720172 $
NYC,2012-08-18 13:12,-73.9693,40.7790,64.04,62.96,96.28,50.00,4.00,0.03,29.92,M,5.00,M,FEW,OVC,M,M,6500.00,8500.00,M,M,-RA BR,M,M,M,M,M,M,64.04,KNYC 181312Z AUTO 05004KT 5SM -RA BR FEW065 OVC085 18/17 A2992 RMK AO2 P0003 T01780172 $
NYC,2012-08-18 13:51,-73.9693,40.7790,64.94,62.96,93.30,70.00,4.00,0.03,29.93,1012.70,10.00,M,FEW,BKN,M,M,8000.00,11000.00,M,M,M,M,M,M,M,M,M,64.94,KNYC 181351Z AUTO 07004KT 10SM FEW080 BKN110 18/17 A2993 RMK AO2 RAE15 SLP127 P0003 T01830172 $
NYC,2012-08-18 14:51,-73.9693,40.7790,68.00,62.06,81.29,70.00,5.00,M,29.95,1013.20,10.00,M,SCT,BKN,M,M,2200.00,12000.00,M,M,M,M,M,M,M,M,M,68.00,KNYC 181451Z AUTO 07005KT 10SM SCT022 BKN120 20/17 A2995 RMK AO2 SLP132 60015 T02000167 53004 $
NYC,2012-08-18 15:40,-73.9693,40.7790,69.98,62.96,78.41,M,3.00,M,29.95,M,10.00,M,BKN,M,M,M,2700.00,M,M,M,M,M,M,M,M,M,M,69.98,KNYC 181540Z AUTO VRB03KT 10SM BKN027 21/17 A2995 RMK AO2 T02110172 $
NYC,2012-08-18 15:51,-73.9693,40.7790,69.98,62.06,75.96,60.00,4.00,M,29.95,1013.20,10.00,M,BKN,OVC,M,M,2700.00,3500.00,M,M,M,M,M,M,M,M,M,69.98,KNYC 181551Z AUTO 06004KT 10SM BKN027 OVC035 21/17 A2995 RMK AO2 SLP132 T02110167 $
NYC,2012-08-18 16:13,-73.9693,40.7790,71.96,60.98,68.35,M,4.00,M,29.94,M,10.00,M,FEW,SCT,OVC,M,2700.00,3400.00,10000.00,M,M,M,M,M,M,M,M,71.96,KNYC 181613Z AUTO VRB04KT 10SM FEW027 SCT034 OVC100 22/16 A2994 RMK AO2 T02220161 $
NYC,2012-08-18 16:51,-73.9693,40.7790,75.02,60.98,61.66,50.00,7.00,M,29.92,1012.30,10.00,M,SCT,BKN,M,M,3100.00,10000.00,M,M,M,M,M,M,M,M,M,75.02,KNYC 181651Z AUTO 05007KT 020V090 10SM SCT031 BKN100 24/16 A2992 RMK AO2 SLP123 T02390161 $
NYC,2012-08-18 17:51,-73.9693,40.7790,75.02,62.06,64.07,0.00,0.00,M,29.92,1012.10,10.00,M,SCT,M,M,M,3500.00,M,M,M,M,M,M,M,M,M,M,75.02,KNYC 181751Z AUTO 00000KT 10SM SCT035 24/17 A2992 RMK AO2 SLP121 60015 T02390167 10244 20172 58010 $
NYC,2012-08-18 18:51,-73.9693,40.7790,77.00,60.08,55.91,0.00,0.00,M,29.90,1011.50,10.00,M,BKN,M,M,M,6000.00,M,M,M,M,M,M,M,M,M,M,77.00,KNYC 181851Z AUTO 00000KT 10SM BKN060 25/16 A2990 RMK AO2 SLP115 T02500156 $
NYC,2012-08-18 19:51,-73.9693,40.7790,75.92,60.98,59.84,60.00,5.00,M,29.89,1011.30,10.00,M,SCT,BKN,M,M,6000.00,7500.00,M,M,M,M,M,M,M,M,M,75.92,KNYC 181951Z AUTO 06005KT 10SM SCT060 BKN075 24/16 A2989 RMK AO2 SLP113 T02440161 $
NYC,2012-08-18 20:51,-73.9693,40.7790,78.08,57.02,48.35,M,4.00,M,29.88,1010.80,10.00,M,CLR,M,M,M,M,M,M,M,M,M,M,M,M,M,M,78.08,KNYC 182051Z AUTO VRB04KT 10SM CLR 26/14 A2988 RMK AO2 SLP108 T02560139 56013 $
NYC,2012-08-18 21:51,-73.9693,40.7790,77.00,55.04,46.64,M,5.00,M,29.87,1010.70,10.00,M,BKN,M,M,M,6000.00,M,M,M,M,M,M,M,M,M,M,77.00,KNYC 182151Z AUTO VRB05KT 10SM BKN060 25/13 A2987 RMK AO2 SLP107 T02500128 $
NYC,2012-08-18 22:51,-73.9693,40.7790,77.00,51.98,41.69,M,4.00,M,29.89,1011.10,10.00,M,OVC,M,M,M,7000.00,M,M,M,M,M,M,M,M,M,M,77.00,KNYC 182251Z AUTO VRB04KT 10SM OVC070 25/11 A2989 RMK AO2 SLP111 T02500111 $
NYC,2012-08-18 23:22,-73.9693,40.7790,75.92,50.00,40.16,M,6.00,M,29.89,M,10.00,M,FEW,SCT,M,M,200.00,7500.00,M,M,M,M,M,M,M,M,M,75.92,KNYC 182322Z AUTO VRB06KT 10SM FEW002 SCT075 24/10 A2989 RMK AO2 T02440100 $
NYC,2012-08-18 23:51,-73.9693,40.7790,73.94,48.02,39.85,M,4.00,M,29.90,1011.60,10.00,M,CLR,M,M,M,M,M,M,M,M,M,M,M,M,M,M,73.94,KNYC 182351Z AUTO VRB04KT 10SM CLR 23/09 A2990 RMK AO2 SLP116 T02330089 10261 20233 53008 $
NYC,2012-08-19 00:51,-73.9693,40.7790,71.96,48.92,44.06,0.00,0.00,M,29.92,1012.30,10.00,M,CLR,M,M,M,M,M,M,M,M,M,M,M,M,M,M,71.96,KNYC 190051Z AUTO 00000KT 10SM CLR 22/09 A2992 RMK AO2 SLP123 T02220094 $
NYC,2012-08-19 01:51,-73.9693,40.7790,71.96,48.92,44.06,0.00,0.00,M,29.93,1012.70,10.00,M,CLR,M,M,M,M,M,M,M,M,M,M,M,M,M,M,71.96,KNYC 190151Z AUTO 00000KT 10SM CLR 22/09 A2993 RMK AO2 SLP127 T02220094 $
NYC,2012-08-19 02:51,-73.9693,40.7790,69.98,50.00,49.07,M,3.00,M,29.96,1013.50,10.00,M,CLR,M,M,M,M,M,M,M,M,M,M,M,M,M,M,69.98,KNYC 190251Z AUTO VRB03KT 10SM CLR 21/10 A2996 RMK AO2 SLP135 T02110100 53018 $
NYC,2012-08-19 03:51,-73.9693,40.7790,68.00,51.08,54.66,0.00,0.00,M,29.96,1013.60,10.00,M,CLR,M,M,M,M,M,M,M,M,M,M,M,M,M,M,68.00,KNYC 190351Z AUTO 00000KT 10SM CLR 20/11 A2996 RMK AO2 SLP136 T02000106 $
NYC,2012-08-19 04:51,-73.9693,40.7790,64.94,53.96,67.57,0.00,0.00,M,29.96,1013.60,10.00,M,CLR,M,M,M,M,M,M,M,M,M,M,M,M,M,M,64.94,KNYC 190451Z AUTO 00000KT 10SM CLR 18/12 A2996 RMK AO2 SLP136 T01830122 402610172 $
NYC,2012-08-19 05:51,-73.9693,40.7790,66.02,55.04,67.69,0.00,0.00,M,29.96,1013.70,10.00,M,CLR,M,M,M,M,M,M,M,M,M,M,M,M,M,M,66.02,KNYC 190551Z AUTO 00000KT 10SM CLR 19/13 A2996 RMK AO2 SLP137 T01890128 10233 20183 53002 $
NYC,2012-08-19 06:51,-73.9693,40.7790,62.96,55.04,75.33,0.00,0.00,M,29.97,1013.90,10.00,M,CLR,M,M,M,M,M,M,M,M,M,M,M,M,M,M,62.96,KNYC 190651Z AUTO 00000KT 10SM CLR 17/13 A2997 RMK AO2 SLP139 T01720128 $
NYC,2012-08-19 07:51,-73.9693,40.7790,64.04,53.96,69.72,0.00,0.00,M,29.97,1014.10,10.00,M,CLR,M,M,M,M,M,M,M,M,M,M,M,M,M,M,64.04,KNYC 190751Z AUTO 00000KT 10SM CLR 18/12 A2997 RMK AO2 SLP141 T01780122 $
NYC,2012-08-19 08:51,-73.9693,40.7790,64.04,57.02,77.92,290.00,3.00,M,29.98,1014.40,10.00,M,CLR,M,M,M,M,M,M,M,M,M,M,M,M,M,M,64.04,KNYC 190851Z AUTO 29003KT 10SM CLR 18/14 A2998 RMK AO2 SLP144 T01780139 53007 $
NYC,2012-08-19 09:51,-73.9693,40.7790,62.96,57.02,80.93,0.00,0.00,M,29.99,1014.80,10.00,M,CLR,M,M,M,M,M,M,M,M,M,M,M,M,M,M,62.96,KNYC 190951Z AUTO 00000KT 10SM CLR 17/14 A2999 RMK AO2 SLP148 T01720139 $
NYC,2012-08-19 10:51,-73.9693,40.7790,62.96,57.02,80.93,0.00,0.00,M,29.99,1014.60,10.00,M,CLR,M,M,M,M,M,M,M,M,M,M,M,M,M,M,62.96,KNYC 191051Z AUTO 00000KT 10SM CLR 17/14 A2999 RMK AO2 SLP146 T01720139 $
NYC,2012-08-19 11:51,-73.9693,40.7790,64.94,57.02,75.51,0.00,0.00,M,30.00,1015.00,10.00,M,CLR,M,M,M,M,M,M,M,M,M,M,M,M,M,M,64.94,KNYC 191151Z AUTO 00000KT 10SM CLR 18/14 A3000 RMK AO2 SLP150 70015 T01830139 10189 20167 53006 $
NYC,2012-08-19 12:51,-73.9693,40.7790,68.00,53.06,58.80,0.00,0.00,M,30.01,1015.30,10.00,M,CLR,M,M,M,M,M,M,M,M,M,M,M,M,M,M,68.00,KNYC 191251Z AUTO 00000KT 10SM CLR 20/12 A3001 RMK AO2 SLP153 T02000117 $
NYC,2012-08-19 13:51,-73.9693,40.7790,69.98,53.96,56.78,M,6.00,M,30.00,1014.90,10.00,M,CLR,M,M,M,M,M,M,M,M,M,M,M,M,M,M,69.98,KNYC 191351Z AUTO VRB06KT 10SM CLR 21/12 A3000 RMK AO2 SLP149 T02110122 $
NYC,2012-08-19 14:51,-73.9693,40.7790,71.06,55.04,56.93,0.00,0.00,M,30.01,1015.20,10.00,M,CLR,M,M,M,M,M,M,M,M,M,M,M,M,M,M,71.06,KNYC 191451Z AUTO 00000KT 10SM CLR 22/13 A3001 RMK AO2 SLP152 T02170128 53002 $
NYC,2012-08-19 15:51,-73.9693,40.7790,71.96,53.06,51.36,330.00,6.00,M,30.01,1015.20,10.00,M,CLR,M,M,M,M,M,M,M,M,M,M,M,M,M,M,71.96,KNYC 191551Z AUTO 33006KT 10SM CLR 22/12 A3001 RMK AO2 SLP152 T02220117 $
NYC,2012-08-19 16:51,-73.9693,40.7790,71.06,53.06,52.95,0.00,0.00,M,30.01,1015.40,10.00,M,CLR,M,M,M,M,M,M,M,M,M,M,M,M,M,M,71.06,KNYC 191651Z AUTO 00000KT 10SM CLR 22/12 A3001 RMK AO2 SLP154 T02170117 $
NYC,2012-08-19 17:51,-73.9693,40.7790,71.96,53.96,53.08,0.00,0.00,M,30.00,1015.00,10.00,M,CLR,M,M,M,M,M,M,M,M,M,M,M,M,M,M,71.96,KNYC 191751Z AUTO 00000KT 10SM CLR 22/12 A3000 RMK AO2 SLP150 T02220122 10228 20183 58002 $
NYC,2012-08-19 18:51,-73.9693,40.7790,73.04,51.08,46.04,0.00,0.00,M,29.98,1014.40,10.00,M,CLR,M,M,M,M,M,M,M,M,M,M,M,M,M,M,73.04,KNYC 191851Z AUTO 00000KT 10SM CLR 23/11 A2998 RMK AO2 SLP144 T02280106
NYC,2012-08-19 19:51,-73.9693,40.7790,71.96,51.98,49.36,0.00,0.00,M,29.97,1014.00,10.00,M,CLR,M,M,M,M,M,M,M,M,M,M,M,M,M,M,71.96,KNYC 191951Z AUTO 00000KT 10SM CLR 22/11 A2997 RMK AO2 SLP140 T02220111 $
NYC,2012-08-19 20:51,-73.9693,40.7790,71.06,55.94,58.82,0.00,0.00,M,29.96,1013.60,10.00,M,CLR,M,M,M,M,M,M,M,M,M,M,M,M,M,M,71.06,KNYC 192051Z AUTO 00000KT 10SM CLR 22/13 A2996 RMK AO2 SLP136 T02170133 56014 $
NYC,2012-08-19 21:51,-73.9693,40.7790,71.96,51.98,49.36,0.00,0.00,M,29.96,1013.50,10.00,M,FEW,M,M,M,12000.00,M,M,M,M,M,M,M,M,M,M,71.96,KNYC 192151Z AUTO 00000KT 10SM FEW120 22/11 A2996 RMK AO2 SLP135 T02220111 $
NYC,2012-08-19 22:51,-73.9693,40.7790,71.96,51.08,47.75,240.00,4.00,M,29.95,1013.40,10.00,M,CLR,M,M,M,M,M,M,M,M,M,M,M,M,M,M,71.96,KNYC 192251Z AUTO 24004KT 10SM CLR 22/11 A2995 RMK AO2 SLP134 T02220106 $
NYC,2012-08-19 23:51,-73.9693,40.7790,71.06,51.98,50.89,240.00,4.00,M,29.95,1013.30,10.00,M,OVC,M,M,M,12000.00,M,M,M,M,M,M,M,M,M,M,71.06,KNYC 192351Z AUTO 24004KT 10SM OVC120 22/11 A2995 RMK AO2 SLP133 T02170111 10233 20217 56003 $
NYC,2012-08-20 00:51,-73.9693,40.7790,71.06,51.98,50.89,0.00,0.00,M,29.96,1013.60,10.00,M,OVC,M,M,M,11000.00,M,M,M,M,M,M,M,M,M,M,71.06,KNYC 200051Z AUTO 00000KT 10SM OVC110 22/11 A2996 RMK AO2 SLP136 T02170111 $
NYC,2012-08-20 01:51,-73.9693,40.7790,69.98,53.96,56.78,0.00,0.00,M,29.96,1013.80,10.00,M,OVC,M,M,M,10000.00,M,M,M,M,M,M,M,M,M,M,69.98,KNYC 200151Z AUTO 00000KT 10SM OVC100 21/12 A2996 RMK AO2 SLP138 T02110122 $
NYC,2012-08-20 02:51,-73.9693,40.7790,71.06,51.08,49.23,280.00,3.00,M,29.96,1013.60,10.00,M,OVC,M,M,M,11000.00,M,M,M,M,M,M,M,M,M,M,71.06,KNYC 200251Z AUTO 28003KT 10SM OVC110 22/11 A2996 RMK AO2 SLP136 T02170106 50003 $
NYC,2012-08-20 03:51,-73.9693,40.7790,69.08,53.96,58.56,0.00,0.00,M,29.96,1013.70,10.00,M,M,M,M,M,M,M,M,M,M,M,M,M,M,M,M,69.08,KNYC 200351Z AUTO 00000KT 10SM 21/12 A2996 RMK AO2 SLP137 T02060122 $
NYC,2012-08-20 04:51,-73.9693,40.7790,69.98,53.96,56.78,0.00,0.00,M,29.96,1013.60,10.00,M,FEW,M,M,M,10000.00,M,M,M,M,M,M,M,M,M,M,69.98,KNYC 200451Z AUTO 00000KT 10SM FEW100 21/12 A2996 RMK AO2 SLP136 T02110122 402330167 $
NYC,2012-08-20 05:51,-73.9693,40.7790,68.00,55.94,65.31,0.00,0.00,M,29.95,1013.30,10.00,M,FEW,M,M,M,10000.00,M,M,M,M,M,M,M,M,M,M,68.00,KNYC 200551Z AUTO 00000KT 10SM FEW100 20/13 A2995 RMK AO2 SLP133 T02000133 10217 20200 $
NYC,2012-08-20 06:51,-73.9693,40.7790,68.00,55.04,63.21,0.00,0.00,M,29.94,1013.00,10.00,M,SCT,M,M,M,10000.00,M,M,M,M,M,M,M,M,M,M,68.00,KNYC 200651Z AUTO 00000KT 10SM SCT100 20/13 A2994 RMK AO2 SLP130 T02000128 $
NYC,2012-08-20 07:51,-73.9693,40.7790,66.92,55.04,65.61,0.00,0.00,M,29.93,1012.60,10.00,M,CLR,M,M,M,M,M,M,M,M,M,M,M,M,M,M,66.92,KNYC 200751Z AUTO 00000KT 10SM CLR 19/13 A2993 RMK AO2 SLP126 T01940128 $
NYC,2012-08-20 08:51,-73.9693,40.7790,66.02,55.94,69.94,0.00,0.00,M,29.92,1012.20,10.00,M,CLR,M,M,M,M,M,M,M,M,M,M,M,M,M,M,66.02,KNYC 200851Z AUTO 00000KT 10SM CLR 19/13 A2992 RMK AO2 SLP122 T01890133 58010 $
NYC,2012-08-20 09:51,-73.9693,40.7790,64.94,57.02,75.51,0.00,0.00,M,29.92,1012.30,10.00,M,FEW,M,M,M,12000.00,M,M,M,M,M,M,M,M,M,M,64.94,KNYC 200951Z AUTO 00000KT 10SM FEW120 18/14 A2992 RMK AO2 SLP123 T01830139 $
NYC,2012-08-20 10:51,-73.9693,40.7790,66.02,57.92,75.12,0.00,0.00,M,29.94,1012.90,10.00,M,CLR,M,M,M,M,M,M,M,M,M,M,M,M,M,M,66.02,KNYC 201051Z AUTO 00000KT 10SM CLR 19/14 A2994 RMK AO2 SLP129 T01890144 $
NYC,2012-08-20 11:51,-73.9693,40.7790,66.92,59.00,75.69,0.00,0.00,M,29.94,1012.90,10.00,M,CLR,M,M,M,M,M,M,M,M,M,M,M,M,M,M,66.92,KNYC 201151Z AUTO 00000KT 10SM CLR 19/15 A2994 RMK AO2 SLP129 T01940150 10206 20183 52007 $
NYC,2012-08-20 12:51,-73.9693,40.7790,71.06,57.92,63.18,0.00,0.00,M,29.94,1013.00,10.00,M,CLR,M,M,M,M,M,M,M,M,M,M,M,M,M,M,71.06,KNYC 201251Z AUTO 00000KT 10SM CLR 22/14 A2994 RMK AO2 SLP130 T02170144 $
NYC,2012-08-20 13:51,-73.9693,40.7790,73.04,57.92,59.08,0.00,0.00,M,29.93,1012.60,10.00,M,CLR,M,M,M,M,M,M,M,M,M,M,M,M,M,M,73.04,KNYC 201351Z AUTO 00000KT 10SM CLR 23/14 A2993 RMK AO2 SLP126 T02280144 $
NYC,2012-08-20 14:51,-73.9693,40.7790,73.94,57.02,55.49,0.00,0.00,M,29.93,1012.50,10.00,M,CLR,M,M,M,M,M,M,M,M,M,M,M,M,M,M,73.94,KNYC 201451Z AUTO 00000KT 10SM CLR 23/14 A2993 RMK AO2 SLP125 T02330139 58004
NYC,2012-08-20 15:51,-73.9693,40.7790,75.92,59.00,55.77,0.00,0.00,M,29.93,1012.60,10.00,M,FEW,M,M,M,4800.00,M,M,M,M,M,M,M,M,M,M,75.92,KNYC 201551Z AUTO 00000KT 10SM FEW048 24/15 A2993 RMK AO2 SLP126 T02440150
NYC,2012-08-20 16:51,-73.9693,40.7790,75.92,57.02,51.94,0.00,0.00,M,29.92,1012.10,10.00,M,CLR,M,M,M,M,M,M,M,M,M,M,M,M,M,M,75.92,KNYC 201651Z AUTO 00000KT 10SM CLR 24/14 A2992 RMK AO2 SLP121 T02440139
NYC,2012-08-20 17:51,-73.9693,40.7790,77.00,55.94,48.19,M,3.00,M,29.91,1011.80,10.00,M,BKN,M,M,M,12000.00,M,M,M,M,M,M,M,M,M,M,77.00,KNYC 201751Z AUTO VRB03KT 10SM BKN120 25/13 A2991 RMK AO2 SLP118 T02500133 10256 20194 58007
NYC,2012-08-20 18:51,-73.9693,40.7790,75.02,60.08,59.72,170.00,4.00,M,29.89,1011.30,10.00,M,BKN,M,M,M,5000.00,M,M,M,M,M,M,M,M,M,M,75.02,KNYC 201851Z AUTO 17004KT 10SM BKN050 24/16 A2989 RMK AO2 SLP113 T02390156
NYC,2012-08-20 19:51,-73.9693,40.7790,75.92,59.00,55.77,0.00,0.00,M,29.87,1010.70,10.00,M,SCT,M,M,M,12000.00,M,M,M,M,M,M,M,M,M,M,75.92,KNYC 201951Z AUTO 00000KT 10SM SCT120 24/15 A2987 RMK AO2 SLP107 T02440150
NYC,2012-08-20 20:51,-73.9693,40.7790,75.92,59.00,55.77,M,4.00,M,29.87,1010.60,10.00,M,BKN,M,M,M,4600.00,M,M,M,M,M,M,M,M,M,M,75.92,KNYC 202051Z AUTO VRB04KT 10SM BKN046 24/15 A2987 RMK AO2 SLP106 T02440150 56012
NYC,2012-08-20 21:51,-73.9693,40.7790,75.02,60.08,59.72,M,3.00,M,29.88,1011.00,10.00,M,OVC,M,M,M,10000.00,M,M,M,M,M,M,M,M,M,M,75.02,KNYC 202151Z AUTO VRB03KT 10SM OVC100 24/16 A2988 RMK AO2 SLP110 T02390156
NYC,2012-08-20 22:51,-73.9693,40.7790,73.94,59.00,59.58,0.00,0.00,M,29.89,1011.30,10.00,M,BKN,M,M,M,10000.00,M,M,M,M,M,M,M,M,M,M,73.94,KNYC 202251Z AUTO 00000KT 10SM BKN100 23/15 A2989 RMK AO2 SLP113 T02330150
NYC,2012-08-20 23:51,-73.9693,40.7790,71.96,59.00,63.70,M,3.00,M,29.91,1011.90,10.00,M,OVC,M,M,M,10000.00,M,M,M,M,M,M,M,M,M,M,71.96,KNYC 202351Z AUTO VRB03KT 10SM OVC100 22/15 A2991 RMK AO2 SLP119 T02220150 10250 20222 53013
NYC,2012-08-21 00:51,-73.9693,40.7790,71.96,57.92,61.28,180.00,3.00,M,29.93,1012.50,10.00,M,FEW,M,M,M,6000.00,M,M,M,M,M,M,M,M,M,M,71.96,KNYC 210051Z AUTO 18003KT 10SM FEW060 22/14 A2993 RMK AO2 SLP125 T02220144
NYC,2012-08-21 01:51,-73.9693,40.7790,71.96,57.92,61.28,0.00,0.00,M,29.95,1013.10,10.00,M,OVC,M,M,M,4200.00,M,M,M,M,M,M,M,M,M,M,71.96,KNYC 210151Z AUTO 00000KT 10SM OVC042 22/14 A2995 RMK AO2 SLP131 T02220144
NYC,2012-08-21 02:51,-73.9693,40.7790,71.06,59.00,65.67,M,4.00,M,29.96,1013.50,10.00,M,FEW,OVC,M,M,5000.00,6000.00,M,M,M,M,M,M,M,M,M,71.06,KNYC 210251Z AUTO VRB04KT 10SM FEW050 OVC060 22/15 A2996 RMK AO2 SLP135 T02170150 51016
NYC,2012-08-21 03:51,-73.9693,40.7790,69.98,59.00,68.13,0.00,0.00,M,29.96,1013.60,10.00,M,SCT,BKN,M,M,7500.00,9000.00,M,M,M,M,M,M,M,M,M,69.98,KNYC 210351Z AUTO 00000KT 10SM SCT075 BKN090 21/15 A2996 RMK AO2 SLP136 T02110150
NYC,2012-08-21 04:51,-73.9693,40.7790,69.08,60.08,73.02,0.00,0.00,M,29.96,1013.60,10.00,M,SCT,M,M,M,12000.00,M,M,M,M,M,M,M,M,M,M,69.08,KNYC 210451Z AUTO 00000KT 10SM SCT120 21/16 A2996 RMK AO2 SLP136 T02060156 402560183
NYC,2012-08-21 05:51,-73.9693,40.7790,69.08,59.00,70.26,0.00,0.00,M,29.96,1013.70,10.00,M,BKN,M,M,M,12000.00,M,M,M,M,M,M,M,M,M,M,69.08,KNYC 210551Z AUTO 00000KT 10SM BKN120 21/15 A2996 RMK AO2 SLP137 T02060150 10228 20206 51002
NYC,2012-08-21 06:51,-73.9693,40.7790,69.08,57.92,67.59,300.00,3.00,M,29.98,1014.20,10.00,M,BKN,OVC,M,M,4400.00,7500.00,M,M,M,M,M,M,M,M,M,69.08,KNYC 210651Z AUTO 30003KT 10SM BKN044 OVC075 21/14 A2998 RMK AO2 SLP142 T02060144
NYC,2012-08-21 07:51,-73.9693,40.7790,69.08,57.92,67.59,0.00,0.00,M,29.98,1014.40,10.00,M,OVC,M,M,M,7500.00,M,M,M,M,M,M,M,M,M,M,69.08,KNYC 210751Z AUTO 00000KT 10SM OVC075 21/14 A2998 RMK AO2 SLP144 T02060144
NYC,2012-08-21 08:51,-73.9693,40.7790,68.00,59.00,72.92,M,4.00,M,29.99,1014.50,10.00,M,CLR,M,M,M,M,M,M,M,M,M,M,M,M,M,M,68.00,KNYC 210851Z AUTO VRB04KT 10SM CLR 20/15 A2999 RMK AO2 SLP145 T02000150 51008
NYC,2012-08-21 09:51,-73.9693,40.7790,66.92,59.00,75.69,M,4.00,M,30.01,1015.20,10.00,M,CLR,M,M,M,M,M,M,M,M,M,M,M,M,M,M,66.92,KNYC 210951Z AUTO VRB04KT 10SM CLR 19/15 A3001 RMK AO2 SLP152 T01940150
NYC,2012-08-21 10:51,-73.9693,40.7790,66.02,59.00,78.08,0.00,0.00,M,30.01,1015.50,10.00,M,CLR,M,M,M,M,M,M,M,M,M,M,M,M,M,M,66.02,KNYC 211051Z AUTO 00000KT 10SM CLR 19/15 A3001 RMK AO2 SLP155 T01890150
NYC,2012-08-21 11:51,-73.9693,40.7790,66.92,59.00,75.69,0.00,0.00,M,30.03,1016.10,10.00,M,CLR,M,M,M,M,M,M,M,M,M,M,M,M,M,M,66.92,KNYC 211151Z AUTO 00000KT 10SM CLR 19/15 A3003 RMK AO2 SLP161 T01940150 10206 20189 52016
NYC,2012-08-21 12:51,-73.9693,40.7790,68.00,59.00,72.92,M,4.00,M,30.05,1016.60,10.00,M,CLR,M,M,M,M,M,M,M,M,M,M,M,M,M,M,68.00,KNYC 211251Z AUTO VRB04KT 10SM CLR 20/15 A3005 RMK AO2 SLP166 T02000150
NYC,2012-08-21 13:51,-73.9693,40.7790,71.96,59.00,63.70,M,5.00,M,30.04,1016.50,10.00,M,CLR,M,M,M,M,M,M,M,M,M,M,M,M,M,M,71.96,KNYC 211351Z AUTO VRB05KT 10SM CLR 22/15 A3004 RMK AO2 SLP165 T02220150
NYC,2012-08-21 14:51,-73.9693,40.7790,73.94,57.92,57.32,60.00,5.00,M,30.05,1016.70,10.00,M,CLR,M,M,M,M,M,M,M,M,M,M,M,M,M,M,73.94,KNYC 211451Z AUTO 06005KT 10SM CLR 23/14 A3005 RMK AO2 SLP167 T02330144 51006
NYC,2012-08-21 15:51,-73.9693,40.7790,78.98,57.02,46.93,60.00,4.00,M,30.06,1016.90,10.00,M,CLR,M,M,M,M,M,M,M,M,M,M,M,M,M,M,78.98,KNYC 211551Z AUTO 06004KT 10SM CLR 26/14 A3006 RMK AO2 SLP169 T02610139
NYC,2012-08-21 16:51,-73.9693,40.7790,78.98,53.06,40.64,M,4.00,M,30.06,1017.00,10.00,M,CLR,M,M,M,M,M,M,M,M,M,M,M,M,M,M,78.98,KNYC 211651Z AUTO VRB04KT 10SM CLR 26/12 A3006 RMK AO2 SLP170 T02610117
NYC,2012-08-21 17:51,-73.9693,40.7790,78.98,53.06,40.64,M,3.00,M,30.07,1017.20,10.00,M,CLR,M,M,M,M,M,M,M,M,M,M,M,M,M,M,78.98,KNYC 211751Z AUTO VRB03KT 10SM CLR 26/12 A3007 RMK AO2 SLP172 T02610117 10267 20194 51006
NYC,2012-08-21 18:51,-73.9693,40.7790,80.06,51.08,36.46,250.00,4.00,M,30.06,1016.80,10.00,M,CLR,M,M,M,M,M,M,M,M,M,M,M,M,M,M,80.06,KNYC 211851Z AUTO 25004KT 10SM CLR 27/11 A3006 RMK AO2 SLP168 T02670106
NYC,2012-08-21 19:51,-73.9693,40.7790,80.96,53.96,39.36,0.00,0.00,M,30.05,1016.50,10.00,M,FEW,M,M,M,6500.00,M,M,M,M,M,M,M,M,M,M,80.96,KNYC 211951Z AUTO 00000KT 10SM FEW065 27/12 A3005 RMK AO2 SLP165 T02720122
NYC,2012-08-21 20:51,-73.9693,40.7790,78.98,53.06,40.64,0.00,0.00,M,30.06,1016.80,10.00,M,SCT,M,M,M,7000.00,M,M,M,M,M,M,M,M,M,M,78.98,KNYC 212051Z AUTO 00000KT 10SM SCT070 26/12 A3006 RMK AO2 SLP168 T02610117 55004
NYC,2012-08-21 21:51,-73.9693,40.7790,77.00,59.00,53.80,M,3.00,M,30.05,1016.80,10.00,M,SCT,M,M,M,6000.00,M,M,M,M,M,M,M,M,M,M,77.00,KNYC 212151Z AUTO VRB03KT 10SM SCT060 25/15 A3005 RMK AO2 SLP168 T02500150
NYC,2012-08-21 22:51,-73.9693,40.7790,75.92,57.02,51.94,M,5.00,M,30.06,1016.90,10.00,M,FEW,M,M,M,10000.00,M,M,M,M,M,M,M,M,M,M,75.92,KNYC 212251Z AUTO VRB05KT 10SM FEW100 24/14 A3006 RMK AO2 SLP169 T02440139
NYC,2012-08-21 23:07,-73.9693,40.7790,75.92,55.94,49.95,M,3.00,M,30.06,M,10.00,M,FEW,M,M,M,200.00,M,M,M,M,M,M,M,M,M,M,75.92,KNYC 212307Z AUTO VRB03KT 10SM FEW002 24/13 A3006 RMK AO2 T02440133
NYC,2012-08-21 23:51,-73.9693,40.7790,75.02,57.92,55.28,M,5.00,M,30.07,1017.30,10.00,M,FEW,BKN,M,M,6500.00,10000.00,M,M,M,M,M,M,M,M,M,75.02,KNYC 212351Z AUTO VRB05KT 10SM FEW065 BKN100 24/14 A3007 RMK AO2 SLP173 T02390144 10278 20233 53004
NYC,2012-08-22 00:51,-73.9693,40.7790,73.94,60.08,61.92,M,4.00,M,30.10,1018.30,10.00,M,FEW,FEW,SCT,M,6000.00,7500.00,10000.00,M,M,M,M,M,M,M,M,73.94,KNYC 220051Z AUTO VRB04KT 10SM FEW060 FEW075 SCT100 23/16 A3010 RMK AO2 SLP183 T02330156
NYC,2012-08-22 01:51,-73.9693,40.7790,73.04,59.00,61.41,170.00,4.00,M,30.12,1018.90,10.00,M,SCT,M,M,M,6000.00,M,M,M,M,M,M,M,M,M,M,73.04,KNYC 220151Z AUTO 17004KT 10SM SCT060 23/15 A3012 RMK AO2 SLP189 T02280150
NYC,2012-08-22 02:51,-73.9693,40.7790,71.96,57.92,61.28,0.00,0.00,M,30.12,1019.10,10.00,M,CLR,M,M,M,M,M,M,M,M,M,M,M,M,M,M,71.96,KNYC 220251Z AUTO 00000KT 10SM CLR 22/14 A3012 RMK AO2 SLP191 T02220144 51018
NYC,2012-08-22 03:51,-73.9693,40.7790,71.96,57.02,59.32,0.00,0.00,M,30.12,1019.00,10.00,M,CLR,M,M,M,M,M,M,M,M,M,M,M,M,M,M,71.96,KNYC 220351Z AUTO 00000KT 10SM CLR 22/14 A3012 RMK AO2 SLP190 T02220139
NYC,2012-08-22 04:51,-73.9693,40.7790,71.06,57.92,63.18,250.00,4.00,M,30.12,1018.90,10.00,M,CLR,M,M,M,M,M,M,M,M,M,M,M,M,M,M,71.06,KNYC 220451Z AUTO 25004KT 10SM CLR 22/14 A3012 RMK AO2 SLP189 T02170144 402780189
NYC,2012-08-22 05:51,-73.9693,40.7790,69.98,60.08,70.81,0.00,0.00,M,30.12,1019.00,10.00,M,CLR,M,M,M,M,M,M,M,M,M,M,M,M,M,M,69.98,KNYC 220551Z 00000KT 10SM CLR 21/16 A3012 RMK AO2 SLP190 T02110156 10239 20211 53000
NYC,2012-08-22 06:51,-73.9693,40.7790,69.98,60.98,73.11,0.00,0.00,M,30.13,1019.30,10.00,M,CLR,M,M,M,M,M,M,M,M,M,M,M,M,M,M,69.98,KNYC 220651Z 00000KT 10SM CLR 21/16 A3013 RMK AO2 SLP193 T02110161
NYC,2012-08-22 07:51,-73.9693,40.7790,68.00,62.06,81.29,0.00,0.00,M,30.13,1019.30,10.00,M,CLR,M,M,M,M,M,M,M,M,M,M,M,M,M,M,68.00,KNYC 220751Z 00000KT 10SM CLR 20/17 A3013 RMK AO2 SLP193 T02000167
NYC,2012-08-22 08:51,-73.9693,40.7790,69.08,62.96,80.86,0.00,0.00,M,30.12,1019.10,10.00,M,CLR,M,M,M,M,M,M,M,M,M,M,M,M,M,M,69.08,KNYC 220851Z 00000KT 10SM CLR 21/17 A3012 RMK AO2 SLP191 T02060172 50000
NYC,2012-08-22 09:51,-73.9693,40.7790,68.00,64.04,87.16,0.00,0.00,M,30.13,1019.30,9.00,M,CLR,M,M,M,M,M,M,M,M,M,M,M,M,M,M,68.00,KNYC 220951Z 00000KT 9SM CLR 20/18 A3013 RMK AO2 SLP193 T02000178
NYC,2012-08-22 11:51,-73.9693,40.7790,69.98,64.04,81.44,0.00,0.00,M,30.15,1020.20,8.00,M,CLR,M,M,M,M,M,M,M,M,M,M,M,M,M,M,69.98,KNYC 221151Z 00000KT 8SM CLR 21/18 A3015 RMK AO2 SLP202 T02110178 10217 20200 53010
NYC,2012-08-22 12:51,-73.9693,40.7790,73.04,62.06,68.47,M,3.00,M,30.16,1020.30,10.00,M,CLR,M,M,M,M,M,M,M,M,M,M,M,M,M,M,73.04,KNYC 221251Z VRB03KT 10SM CLR 23/17 A3016 RMK AO2 SLP203 T02280167
NYC,2012-08-22 13:51,-73.9693,40.7790,77.00,60.98,57.73,0.00,0.00,M,30.17,1020.60,10.00,M,CLR,M,M,M,M,M,M,M,M,M,M,M,M,M,M,77.00,KNYC 221351Z 00000KT 10SM CLR 25/16 A3017 RMK AO2 SLP206 T02500161
NYC,2012-08-22 14:51,-73.9693,40.7790,78.98,59.00,50.39,M,4.00,M,30.17,1020.70,10.00,M,CLR,M,M,M,M,M,M,M,M,M,M,M,M,M,M,78.98,KNYC 221451Z AUTO VRB04KT 10SM CLR 26/15 A3017 RMK AO2 SLP207 T02610150 51006
NYC,2012-08-22 15:51,-73.9693,40.7790,78.98,55.04,43.68,0.00,0.00,M,30.17,1020.50,10.00,M,CLR,M,M,M,M,M,M,M,M,M,M,M,M,M,M,78.98,KNYC 221551Z AUTO 00000KT 10SM CLR 26/13 A3017 RMK AO2 SLP205 T02610128
NYC,2012-08-22 16:51,-73.9693,40.7790,78.98,57.92,48.48,0.00,0.00,M,30.16,1020.40,10.00,M,BKN,M,M,M,6000.00,M,M,M,M,M,M,M,M,M,M,78.98,KNYC 221651Z AUTO 00000KT 10SM BKN060 26/14 A3016 RMK AO2 SLP204 T02610144
NYC,2012-08-22 17:51,-73.9693,40.7790,78.98,60.98,54.08,M,3.00,M,30.15,1020.10,10.00,M,FEW,SCT,BKN,M,6000.00,7500.00,10000.00,M,M,M,M,M,M,M,M,78.98,KNYC 221751Z AUTO VRB03KT 10SM FEW060 SCT075 BKN100 26/16 A3015 RMK AO2 SLP201 T02610161 10278 20211 58006
NYC,2012-08-22 18:51,-73.9693,40.7790,78.08,60.98,55.70,M,3.00,M,30.14,1019.70,10.00,M,SCT,BKN,BKN,M,4600.00,5500.00,10000.00,M,M,M,M,M,M,M,M,78.08,KNYC 221851Z AUTO VRB03KT 10SM SCT046 BKN055 BKN100 26/16 A3014 RMK AO2 SLP197 T02560161
NYC,2012-08-22 19:51,-73.9693,40.7790,77.00,60.08,55.91,M,3.00,M,30.14,1019.70,10.00,M,OVC,M,M,M,5500.00,M,M,M,M,M,M,M,M,M,M,77.00,KNYC 221951Z AUTO VRB03KT 10SM OVC055 25/16 A3014 RMK AO2 SLP197 T02500156
NYC,2012-08-22 20:51,-73.9693,40.7790,78.98,57.92,48.48,0.00,0.00,M,30.14,1019.70,10.00,M,BKN,BKN,M,M,5000.00,10000.00,M,M,M,M,M,M,M,M,M,78.98,KNYC 222051Z AUTO 00000KT 10SM BKN050 BKN100 26/14 A3014 RMK AO2 SLP197 T02610144 55004
NYC,2012-08-22 21:51,-73.9693,40.7790,75.92,59.00,55.77,M,4.00,0.00,30.13,1019.50,10.00,M,FEW,FEW,M,M,5000.00,9000.00,M,M,M,M,M,M,M,M,M,75.92,KNYC 222151Z AUTO VRB04KT 10SM FEW050 FEW090 24/15 A3013 RMK AO2 RAB31E41 SLP195 P0000 T02440150
NYC,2012-08-22 22:51,-73.9693,40.7790,75.92,60.98,59.84,M,5.00,M,30.13,1019.30,10.00,M,SCT,M,M,M,7000.00,M,M,M,M,M,M,M,M,M,M,75.92,KNYC 222251Z AUTO VRB05KT 10SM SCT070 24/16 A3013 RMK AO2 SLP193 T02440161
NYC,2012-08-22 23:51,-73.9693,40.7790,73.94,62.06,M,M,M,M,30.14,1019.60,10.00,M,CLR,M,M,M,M,M,M,M,M,M,M,M,M,M,M,M,KNYC 222351Z AUTO 10SM CLR 23/17 A3014 RMK AO2 SLP196 60000 T02330167 10272 20233 55002
NYC,2012-08-23 00:51,-73.9693,40.7790,73.04,62.96,70.68,180.00,3.00,M,30.16,1020.30,10.00,M,CLR,M,M,M,M,M,M,M,M,M,M,M,M,M,M,73.04,KNYC 230051Z AUTO 18003KT 10SM CLR 23/17 A3016 RMK AO2 SLP203 T02280172
NYC,2012-08-23 01:51,-73.9693,40.7790,71.96,62.06,71.01,M,3.00,M,30.16,1020.30,10.00,M,CLR,M,M,M,M,M,M,M,M,M,M,M,M,M,M,71.96,KNYC 230151Z AUTO VRB03KT 10SM CLR 22/17 A3016 RMK AO2 SLP203 T02220167
NYC,2012-08-23 02:51,-73.9693,40.7790,73.04,60.98,65.90,200.00,3.00,M,30.17,1020.50,10.00,M,CLR,M,M,M,M,M,M,M,M,M,M,M,M,M,M,73.04,KNYC 230251Z AUTO 20003KT 10SM CLR 23/16 A3017 RMK AO2 SLP205 T02280161 51010
NYC,2012-08-23 03:51,-73.9693,40.7790,71.96,62.06,71.01,0.00,0.00,M,30.17,1020.60,10.00,M,CLR,M,M,M,M,M,M,M,M,M,M,M,M,M,M,71.96,KNYC 230351Z AUTO 00000KT 10SM CLR 22/17 A3017 RMK AO2 SLP206 T02220167
NYC,2012-08-23 04:51,-73.9693,40.7790,71.06,60.98,70.47,M,4.00,M,30.17,1020.50,10.00,M,CLR,M,M,M,M,M,M,M,M,M,M,M,M,M,M,71.06,KNYC 230451Z AUTO VRB04KT 10SM CLR 22/16 A3017 RMK AO2 SLP205 T02170161 402780200
NYC,2012-08-23 05:51,-73.9693,40.7790,69.98,62.06,75.96,250.00,3.00,M,30.16,1020.40,10.00,M,CLR,M,M,M,M,M,M,M,M,M,M,M,M,M,M,69.98,KNYC 230551Z AUTO 25003KT 10SM CLR 21/17 A3016 RMK AO2 SLP204 T02110167 10233 20211 58001
NYC,2012-08-23 06:51,-73.9693,40.7790,71.06,62.06,73.22,M,3.00,M,30.16,1020.40,10.00,M,CLR,M,M,M,M,M,M,M,M,M,M,M,M,M,M,71.06,KNYC 230651Z AUTO VRB03KT 10SM CLR 22/17 A3016 RMK AO2 SLP204 T02170167
NYC,2012-08-23 07:51,-73.9693,40.7790,69.98,62.96,78.41,0.00,0.00,M,30.17,1020.50,10.00,M,CLR,M,M,M,M,M,M,M,M,M,M,M,M,M,M,69.98,KNYC 230751Z AUTO 00000KT 10SM CLR 21/17 A3017 RMK AO2 SLP205 T02110172
NYC,2012-08-23 08:51,-73.9693,40.7790,69.08,62.96,80.86,M,4.00,M,30.17,1020.60,10.00,M,CLR,M,M,M,M,M,M,M,M,M,M,M,M,M,M,69.08,KNYC 230851Z AUTO VRB04KT 10SM CLR 21/17 A3017 RMK AO2 SLP206 T02060172 53002
NYC,2012-08-23 09:51,-73.9693,40.7790,69.08,62.96,80.86,270.00,3.00,M,30.17,1020.60,10.00,M,CLR,M,M,M,M,M,M,M,M,M,M,M,M,M,M,69.08,KNYC 230951Z AUTO 27003KT 10SM CLR 21/17 A3017 RMK AO2 SLP206 T02060172
NYC,2012-08-23 10:51,-73.9693,40.7790,69.08,64.04,83.98,0.00,0.00,M,30.18,1021.10,8.00,M,CLR,M,M,M,M,M,M,M,M,M,M,M,M,M,M,69.08,KNYC 231051Z AUTO 00000KT 8SM CLR 21/18 A3018 RMK AO2 SLP211 T02060178
NYC,2012-08-23 11:51,-73.9693,40.7790,71.96,64.04,76.13,0.00,0.00,M,30.18,1021.20,8.00,M,CLR,M,M,M,M,M,M,M,M,M,M,M,M,M,M,71.96,KNYC 231151Z AUTO 00000KT 8SM CLR 22/18 A3018 RMK AO2 SLP212 T02220178 10222 20206 53005
NYC,2012-08-23 12:51,-73.9693,40.7790,73.04,62.06,68.47,270.00,3.00,M,30.19,1021.40,8.00,M,CLR,M,M,M,M,M,M,M,M,M,M,M,M,M,M,73.04,KNYC 231251Z AUTO 27003KT 8SM CLR 23/17 A3019 RMK AO2 SLP214 T02280167
NYC,2012-08-23 13:51,-73.9693,40.7790,75.02,60.98,61.66,0.00,0.00,M,30.19,1021.40,8.00,M,CLR,M,M,M,M,M,M,M,M,M,M,M,M,M,M,75.02,KNYC 231351Z AUTO 00000KT 8SM CLR 24/16 A3019 RMK AO2 SLP214 T02390161
NYC,2012-08-23 14:51,-73.9693,40.7790,78.98,62.06,56.18,0.00,0.00,M,30.19,1021.30,9.00,M,CLR,M,M,M,M,M,M,M,M,M,M,M,M,M,M,78.98,KNYC 231451Z AUTO 00000KT 9SM CLR 26/17 A3019 RMK AO2 SLP213 T02610167 50002
NYC,2012-08-23 15:51,-73.9693,40.7790,82.04,59.00,45.60,0.00,0.00,M,30.18,1021.00,10.00,M,CLR,M,M,M,M,M,M,M,M,M,M,M,M,M,M,82.19,KNYC 231551Z AUTO 00000KT 10SM CLR 28/15 A3018 RMK AO2 SLP210 T02780150
NYC,2012-08-23 16:51,-73.9693,40.7790,82.94,55.94,39.67,0.00,0.00,M,30.16,1020.40,10.00,M,FEW,M,M,M,5500.00,M,M,M,M,M,M,M,M,M,M,82.94,KNYC 231651Z AUTO 00000KT 10SM FEW055 28/13 A3016 RMK AO2 SLP204 T02830133
NYC,2012-08-23 17:51,-73.9693,40.7790,80.96,60.08,49.09,M,4.00,M,30.15,1020.10,10.00,M,FEW,M,M,M,6500.00,M,M,M,M,M,M,M,M,M,M,81.59,KNYC 231751Z AUTO VRB04KT 10SM FEW065 27/16 A3015 RMK AO2 SLP201 T02720156 10294 20217 58012
NYC,2012-08-23 18:51,-73.9693,40.7790,82.04,60.98,48.93,M,4.00,M,30.14,1019.60,9.00,M,SCT,M,M,M,6500.00,M,M,M,M,M,M,M,M,M,M,82.65,KNYC 231851Z AUTO VRB04KT 9SM SCT065 28/16 A3014 RMK AO2 SLP196 T02780161
NYC,2012-08-23 19:51,-73.9693,40.7790,84.02,62.06,M,M,M,M,30.13,1019.30,10.00,M,CLR,M,M,M,M,M,M,M,M,M,M,M,M,M,M,M,KNYC 231951Z AUTO 10SM CLR 29/17 A3013 RMK AO2 SLP193 T02890167
NYC,2012-08-23 20:51,-73.9693,40.7790,80.96,62.06,52.66,M,4.00,M,30.13,1019.20,10.00,M,CLR,M,M,M,M,M,M,M,M,M,M,M,M,M,M,82.02,KNYC 232051Z AUTO VRB04KT 10SM CLR 27/17 A3013 RMK AO2 SLP192 T02720167 56009
NYC,2012-08-23 21:51,-73.9693,40.7790,78.98,62.06,56.18,M,5.00,M,30.13,1019.40,10.00,M,FEW,M,M,M,8000.00,M,M,M,M,M,M,M,M,M,M,78.98,KNYC 232151Z AUTO VRB05KT 10SM FEW080 26/17 A3013 RMK AO2 SLP194 T02610167
NYC,2012-08-23 22:51,-73.9693,40.7790,78.08,60.98,M,M,M,M,30.14,1019.50,10.00,M,CLR,M,M,M,M,M,M,M,M,M,M,M,M,M,M,M,KNYC 232251Z AUTO 10SM CLR 26/16 A3014 RMK AO2 SLP195 T02560161
NYC,2012-08-23 23:51,-73.9693,40.7790,75.92,59.00,55.77,M,3.00,M,30.14,1019.60,10.00,M,CLR,M,M,M,M,M,M,M,M,M,M,M,M,M,M,75.92,KNYC 232351Z AUTO VRB03KT 10SM CLR 24/15 A3014 RMK AO2 SLP196 T02440150 10289 20244 51004
NYC,2012-08-24 00:51,-73.9693,40.7790,75.02,62.06,64.07,0.00,0.00,M,30.15,1020.00,10.00,M,CLR,M,M,M,M,M,M,M,M,M,M,M,M,M,M,75.02,KNYC 240051Z AUTO 00000KT 10SM CLR 24/17 A3015 RMK AO2 SLP200 T02390167
NYC,2012-08-24 01:51,-73.9693,40.7790,75.02,62.06,64.07,0.00,0.00,M,30.16,1020.30,10.00,M,CLR,M,M,M,M,M,M,M,M,M,M,M,M,M,M,75.02,KNYC 240151Z AUTO 00000KT 10SM CLR 24/17 A3016 RMK AO2 SLP203 T02390167
NYC,2012-08-24 02:51,-73.9693,40.7790,75.02,62.96,66.13,220.00,5.00,M,30.16,1020.40,10.00,M,CLR,M,M,M,M,M,M,M,M,M,M,M,M,M,M,75.02,KNYC 240251Z AUTO 22005KT 10SM CLR 24/17 A3016 RMK AO2 SLP204 T02390172 51008
NYC,2012-08-24 03:51,-73.9693,40.7790,73.94,62.96,68.57,0.00,0.00,M,30.16,1020.40,10.00,M,CLR,M,M,M,M,M,M,M,M,M,M,M,M,M,M,73.94,KNYC 240351Z AUTO 00000KT 10SM CLR 23/17 A3016 RMK AO2 SLP204 T02330172
NYC,2012-08-24 04:51,-73.9693,40.7790,73.94,62.96,68.57,0.00,0.00,M,30.17,1020.50,10.00,M,CLR,M,M,M,M,M,M,M,M,M,M,M,M,M,M,73.94,KNYC 240451Z AUTO 00000KT 10SM CLR 23/17 A3017 RMK AO2 SLP205 T02330172 402940206
NYC,2012-08-24 05:51,-73.9693,40.7790,73.04,62.96,70.68,M,3.00,M,30.15,1020.00,10.00,M,CLR,M,M,M,M,M,M,M,M,M,M,M,M,M,M,73.04,KNYC 240551Z AUTO VRB03KT 10SM CLR 23/17 A3015 RMK AO2 SLP200 T02280172 10244 20228 58004
NYC,2012-08-24 06:51,-73.9693,40.7790,73.04,62.96,70.68,270.00,4.00,M,30.15,1020.00,9.00,M,CLR,M,M,M,M,M,M,M,M,M,M,M,M,M,M,73.04,KNYC 240651Z AUTO 27004KT 9SM CLR 23/17 A3015 RMK AO2 SLP200 T02280172
NYC,2012-08-24 07:51,-73.9693,40.7790,73.04,62.06,68.47,M,3.00,M,30.15,1019.80,10.00,M,CLR,M,M,M,M,M,M,M,M,M,M,M,M,M,M,73.04,KNYC 240751Z AUTO VRB03KT 10SM CLR 23/17 A3015 RMK AO2 SLP198 T02280167
NYC,2012-08-24 08:51,-73.9693,40.7790,71.06,62.06,73.22,0.00,0.00,M,30.16,1020.10,9.00,M,CLR,M,M,M,M,M,M,M,M,M,M,M,M,M,M,71.06,KNYC 240851Z AUTO 00000KT 9SM CLR 22/17 A3016 RMK AO2 SLP201 T02170167 53001
NYC,2012-08-24 09:51,-73.9693,40.7790,69.98,62.96,78.41,300.00,3.00,M,30.16,1020.30,8.00,M,CLR,M,M,M,M,M,M,M,M,M,M,M,M,M,M,69.98,KNYC 240951Z AUTO 30003KT 8SM CLR 21/17 A3016 RMK AO2 SLP203 T02110172
NYC,2012-08-24 10:51,-73.9693,40.7790,69.08,62.96,80.86,0.00,0.00,M,30.18,1020.90,6.00,M,CLR,M,M,M,M,M,M,M,HZ,M,M,M,M,M,M,69.08,KNYC 241051Z AUTO 00000KT 6SM HZ CLR 21/17 A3018 RMK AO2 SLP209 T02060172
NYC,2012-08-24 11:51,-73.9693,40.7790,71.96,64.04,76.13,0.00,0.00,M,30.19,1021.20,6.00,M,CLR,M,M,M,M,M,M,M,HZ,M,M,M,M,M,M,71.96,KNYC 241151Z AUTO 00000KT 6SM HZ CLR 22/18 A3019 RMK AO2 SLP212 T02220178 10228 20206 53010
NYC,2012-08-24 12:51,-73.9693,40.7790,75.02,64.04,68.69,360.00,3.00,M,30.19,1021.30,7.00,M,CLR,M,M,M,M,M,M,M,M,M,M,M,M,M,M,75.02,KNYC 241251Z AUTO 36003KT 7SM CLR 24/18 A3019 RMK AO2 SLP213 T02390178
NYC,2012-08-24 13:51,-73.9693,40.7790,78.08,62.96,59.74,60.00,4.00,M,30.19,1021.30,8.00,M,CLR,M,M,M,M,M,M,M,M,M,M,M,M,M,M,78.08,KNYC 241351Z AUTO 06004KT 8SM CLR 26/17 A3019 RMK AO2 SLP213 T02560172
NYC,2012-08-24 14:51,-73.9693,40.7790,80.06,60.08,50.55,M,3.00,M,30.20,1021.50,10.00,M,CLR,M,M,M,M,M,M,M,M,M,M,M,M,M,M,80.91,KNYC 241451Z AUTO VRB03KT 10SM CLR 27/16 A3020 RMK AO2 SLP215 T02670156 53004
NYC,2012-08-24 15:51,-73.9693,40.7790,82.94,59.00,44.29,M,3.00,M,30.20,1021.50,10.00,M,CLR,M,M,M,M,M,M,M,M,M,M,M,M,M,M,82.89,KNYC 241551Z AUTO VRB03KT 10SM CLR 28/15 A3020 RMK AO2 SLP215 T02830150
NYC,2012-08-24 16:51,-73.9693,40.7790,84.92,57.02,38.70,M,5.00,M,30.19,1021.30,10.00,M,CLR,M,M,M,M,M,M,M,M,M,M,M,M,M,M,84.92,KNYC 241651Z AUTO VRB05KT 10SM CLR 29/14 A3019 RMK AO2 SLP213 T02940139
NYC,2012-08-24 17:51,-73.9693,40.7790,87.08,55.04,33.62,M,4.00,M,30.18,1021.10,10.00,M,CLR,M,M,M,M,M,M,M,M,M,M,M,M,M,M,87.08,KNYC 241751Z AUTO VRB04KT 10SM CLR 31/13 A3018 RMK AO2 SLP211 T03060128 10306 20222 58004
NYC,2012-08-24 18:51,-73.9693,40.7790,86.00,55.94,35.95,M,4.00,M,30.17,1020.60,10.00,M,CLR,M,M,M,M,M,M,M,M,M,M,M,M,M,M,86.00,KNYC 241851Z AUTO VRB04KT 10SM CLR 30/13 A3017 RMK AO2 SLP206 T03000133
NYC,2012-08-24 19:51,-73.9693,40.7790,84.02,59.00,42.77,0.00,0.00,M,30.17,1020.70,10.00,M,SCT,M,M,M,6000.00,M,M,M,M,M,M,M,M,M,M,83.77,KNYC 241951Z AUTO 00000KT 10SM SCT060 29/15 A3017 RMK AO2 SLP207 T02890150
NYC,2012-08-24 20:51,-73.9693,40.7790,82.94,60.08,46.03,0.00,0.00,M,30.17,1020.50,10.00,M,OVC,M,M,M,6000.00,M,M,M,M,M,M,M,M,M,M,83.16,KNYC 242051Z AUTO 00000KT 10SM OVC060 28/16 A3017 RMK AO2 SLP205 T02830156 56005
NYC,2012-08-24 21:51,-73.9693,40.7790,82.94,59.00,44.29,M,3.00,M,30.17,1020.60,10.00,M,CLR,M,M,M,M,M,M,M,M,M,M,M,M,M,M,82.89,KNYC 242151Z AUTO VRB03KT 10SM CLR 28/15 A3017 RMK AO2 SLP206 T02830150
NYC,2012-08-24 22:51,-73.9693,40.7790,80.06,57.92,46.79,0.00,0.00,M,30.17,1020.70,10.00,M,CLR,M,M,M,M,M,M,M,M,M,M,M,M,M,M,80.56,KNYC 242251Z AUTO 00000KT 10SM CLR 27/14 A3017 RMK AO2 SLP207 T02670144
NYC,2012-08-24 23:51,-73.9693,40.7790,78.08,59.00,51.91,0.00,0.00,M,30.18,1020.90,10.00,M,CLR,M,M,M,M,M,M,M,M,M,M,M,M,M,M,78.08,KNYC 242351Z AUTO 00000KT 10SM CLR 26/15 A3018 RMK AO2 SLP209 T02560150 10306 20256 53004
NYC,2012-08-25 00:51,-73.9693,40.7790,77.00,60.08,55.91,0.00,0.00,M,30.20,1021.50,10.00,M,CLR,M,M,M,M,M,M,M,M,M,M,M,M,M,M,77.00,KNYC 250051Z AUTO 00000KT 10SM CLR 25/16 A3020 RMK AO2 SLP215 T02500156
NYC,2012-08-25 01:51,-73.9693,40.7790,75.92,62.06,62.17,0.00,0.00,M,30.21,1021.90,10.00,M,CLR,M,M,M,M,M,M,M,M,M,M,M,M,M,M,75.92,KNYC 250151Z AUTO 00000KT 10SM CLR 24/17 A3021 RMK AO2 SLP219 T02440167
NYC,2012-08-25 02:51,-73.9693,40.7790,75.92,62.96,64.17,0.00,0.00,M,30.21,1021.90,10.00,M,CLR,M,M,M,M,M,M,M,M,M,M,M,M,M,M,75.92,KNYC 250251Z AUTO 00000KT 10SM CLR 24/17 A3021 RMK AO2 SLP219 T02440172 51009
NYC,2012-08-25 03:51,-73.9693,40.7790,75.02,62.96,66.13,0.00,0.00,M,30.21,1022.00,9.00,M,CLR,M,M,M,M,M,M,M,M,M,M,M,M,M,M,75.02,KNYC 250351Z AUTO 00000KT 9SM CLR 24/17 A3021 RMK AO2 SLP220 T02390172
NYC,2012-08-25 04:51,-73.9693,40.7790,73.94,62.96,68.57,0.00,0.00,M,30.21,1022.10,9.00,M,CLR,M,M,M,M,M,M,M,M,M,M,M,M,M,M,73.94,KNYC 250451Z AUTO 00000KT 9SM CLR 23/17 A3021 RMK AO2 SLP221 T02330172 403060206
NYC,2012-08-25 05:51,-73.9693,40.7790,75.02,64.04,68.69,0.00,0.00,M,30.22,1022.40,9.00,M,CLR,M,M,M,M,M,M,M,M,M,M,M,M,M,M,75.02,KNYC 250551Z AUTO 00000KT 9SM CLR 24/18 A3022 RMK AO2 SLP224 T02390178 10256 20233 53005
NYC,2012-08-25 06:51,-73.9693,40.7790,73.94,64.94,73.49,0.00,0.00,M,30.22,1022.50,8.00,M,CLR,M,M,M,M,M,M,M,M,M,M,M,M,M,M,73.94,KNYC 250651Z AUTO 00000KT 8SM CLR 23/18 A3022 RMK AO2 SLP225 T02330183
NYC,2012-08-25 07:51,-73.9693,40.7790,73.94,66.02,76.31,0.00,0.00,M,30.23,1022.60,8.00,M,CLR,M,M,M,M,M,M,M,M,M,M,M,M,M,M,73.94,KNYC 250751Z AUTO 00000KT 8SM CLR 23/19 A3023 RMK AO2 SLP226 T02330189
NYC,2012-08-25 08:51,-73.9693,40.7790,73.04,66.02,78.65,0.00,0.00,M,30.23,1022.60,8.00,M,CLR,M,M,M,M,M,M,M,M,M,M,M,M,M,M,73.04,KNYC 250851Z AUTO 00000KT 8SM CLR 23/19 A3023 RMK AO2 SLP226 T02280189 51003
NYC,2012-08-25 09:51,-73.9693,40.7790,71.96,66.92,84.16,0.00,0.00,M,30.24,1023.00,7.00,M,CLR,M,M,M,M,M,M,M,M,M,M,M,M,M,M,71.96,KNYC 250951Z AUTO 00000KT 7SM CLR 22/19 A3024 RMK AO2 SLP230 T02220194
NYC,2012-08-25 10:51,-73.9693,40.7790,71.96,68.00,87.35,70.00,3.00,M,30.25,1023.40,4.00,M,CLR,M,M,M,M,M,M,M,BR,M,M,M,M,M,M,71.96,KNYC 251051Z AUTO 07003KT 4SM BR CLR 22/20 A3025 RMK AO2 SLP234 T02220200
NYC,2012-08-25 11:51,-73.9693,40.7790,73.94,69.08,84.80,70.00,4.00,M,30.27,1023.90,4.00,M,CLR,M,M,M,M,M,M,M,HZ,M,M,M,M,M,M,73.94,KNYC 251151Z AUTO 07004KT 4SM HZ CLR 23/21 A3027 RMK AO2 SLP239 T02330206 10239 20222 53013
NYC,2012-08-25 12:51,-73.9693,40.7790,75.92,69.08,79.37,M,4.00,M,30.28,1024.40,6.00,M,CLR,M,M,M,M,M,M,M,HZ,M,M,M,M,M,M,75.92,KNYC 251251Z AUTO VRB04KT 6SM HZ CLR 24/21 A3028 RMK AO2 SLP244 T02440206
NYC,2012-08-25 13:51,-73.9693,40.7790,77.00,68.00,73.78,100.00,5.00,M,30.29,1024.70,6.00,M,CLR,M,M,M,M,M,M,M,HZ,M,M,M,M,M,M,77.00,KNYC 251351Z AUTO 10005KT 6SM HZ CLR 25/20 A3029 RMK AO2 SLP247 T02500200
NYC,2012-08-25 14:51,-73.9693,40.7790,80.96,66.02,M,M,M,M,30.30,1024.90,9.00,M,CLR,M,M,M,M,M,M,M,M,M,M,M,M,M,M,M,KNYC 251451Z AUTO 9SM CLR 27/19 A3030 RMK AO2 SLP249 T02720189 51010
NYC,2012-08-25 15:51,-73.9693,40.7790,82.94,64.94,54.63,M,3.00,M,30.28,1024.50,9.00,M,CLR,M,M,M,M,M,M,M,M,M,M,M,M,M,M,84.70,KNYC 251551Z AUTO VRB03KT 9SM CLR 28/18 A3028 RMK AO2 SLP245 T02830183
NYC,2012-08-25 16:51,-73.9693,40.7790,84.02,64.04,51.12,M,6.00,M,30.28,1024.20,9.00,M,CLR,M,M,M,M,M,M,M,M,M,M,M,M,M,M,85.40,KNYC 251651Z AUTO VRB06KT 9SM CLR 29/18 A3028 RMK AO2 SLP242 T02890178
NYC,2012-08-25 17:51,-73.9693,40.7790,82.04,66.92,60.25,80.00,5.00,M,30.27,1024.00,9.00,M,CLR,M,M,M,M,M,M,M,M,M,M,M,M,M,M,84.53,KNYC 251751Z AUTO 08005KT 9SM CLR 28/19 A3027 RMK AO2 SLP240 T02780194 10300 20233 56008
NYC,2012-08-25 18:51,-73.9693,40.7790,80.96,66.92,62.40,M,5.00,M,30.27,1024.00,9.00,M,CLR,M,M,M,M,M,M,M,M,M,M,M,M,M,M,83.36,KNYC 251851Z AUTO VRB05KT 9SM CLR 27/19 A3027 RMK AO2 SLP240 T02720194
NYC,2012-08-25 19:51,-73.9693,40.7790,80.06,68.00,66.70,M,4.00,M,30.27,1024.00,9.00,M,CLR,M,M,M,M,M,M,M,M,M,M,M,M,M,M,82.65,KNYC 251951Z AUTO VRB04KT 9SM CLR 27/20 A3027 RMK AO2 SLP240 T02670200
NYC,2012-08-25 20:51,-73.9693,40.7790,80.06,59.00,48.64,M,3.00,M,30.27,1024.00,10.00,M,CLR,M,M,M,M,M,M,M,M,M,M,M,M,M,M,80.73,KNYC 252051Z AUTO VRB03KT 10SM CLR 27/15 A3027 RMK AO2 SLP240 T02670150 52000
NYC,2012-08-25 21:51,-73.9693,40.7790,78.98,59.00,50.39,M,4.00,M,30.28,1024.30,10.00,M,CLR,M,M,M,M,M,M,M,M,M,M,M,M,M,M,78.98,KNYC 252151Z AUTO VRB04KT 10SM CLR 26/15 A3028 RMK AO2 SLP243 T02610150
NYC,2012-08-25 22:51,-73.9693,40.7790,77.00,59.00,53.80,120.00,5.00,M,30.28,1024.40,10.00,M,SCT,M,M,M,12000.00,M,M,M,M,M,M,M,M,M,M,77.00,KNYC 252251Z AUTO 12005KT 10SM SCT120 25/15 A3028 RMK AO2 SLP244 T02500150
NYC,2012-08-25 23:51,-73.9693,40.7790,75.92,60.08,57.96,M,3.00,M,30.30,1025.10,10.00,M,CLR,M,M,M,M,M,M,M,M,M,M,M,M,M,M,75.92,KNYC 252351Z AUTO VRB03KT 10SM CLR 24/16 A3030 RMK AO2 SLP251 T02440156 10278 20244 53011
NYC,2012-08-26 00:51,-73.9693,40.7790,73.94,60.08,61.92,M,3.00,M,30.31,1025.40,10.00,M,CLR,M,M,M,M,M,M,M,M,M,M,M,M,M,M,73.94,KNYC 260051Z AUTO VRB03KT 10SM CLR 23/16 A3031 RMK AO2 SLP254 T02330156
NYC,2012-08-26 01:51,-73.9693,40.7790,73.04,59.00,61.41,M,4.00,M,30.31,1025.30,10.00,M,CLR,M,M,M,M,M,M,M,M,M,M,M,M,M,M,73.04,KNYC 260151Z AUTO VRB04KT 10SM CLR 23/15 A3031 RMK AO2 SLP253 T02280150
NYC,2012-08-26 02:51,-73.9693,40.7790,71.96,60.08,66.20,M,4.00,M,30.30,1025.10,10.00,M,CLR,M,M,M,M,M,M,M,M,M,M,M,M,M,M,71.96,KNYC 260251Z AUTO VRB04KT 10SM CLR 22/16 A3030 RMK AO2 SLP251 T02220156 58000
NYC,2012-08-26 03:51,-73.9693,40.7790,71.96,60.98,68.35,M,4.00,M,30.31,1025.20,10.00,M,CLR,M,M,M,M,M,M,M,M,M,M,M,M,M,M,71.96,KNYC 260351Z AUTO VRB04KT 10SM CLR 22/16 A3031 RMK AO2 SLP252 T02220161
NYC,2012-08-26 04:51,-73.9693,40.7790,69.98,60.98,73.11,0.00,0.00,M,30.31,1025.30,10.00,M,CLR,M,M,M,M,M,M,M,M,M,M,M,M,M,M,69.98,KNYC 260451Z AUTO 00000KT 10SM CLR 21/16 A3031 RMK AO2 SLP253 T02110161 403000211
NYC,2012-08-26 05:51,-73.9693,40.7790,69.98,62.06,75.96,100.00,3.00,M,30.30,1025.00,10.00,M,CLR,M,M,M,M,M,M,M,M,M,M,M,M,M,M,69.98,KNYC 260551Z AUTO 10003KT 10SM CLR 21/17 A3030 RMK AO2 SLP250 T02110167 10244 20206 58001
NYC,2012-08-26 06:51,-73.9693,40.7790,69.98,62.06,75.96,60.00,5.00,M,30.30,1025.00,10.00,M,CLR,M,M,M,M,M,M,M,M,M,M,M,M,M,M,69.98,KNYC 260651Z AUTO 06005KT 10SM CLR 21/17 A3030 RMK AO2 SLP250 T02110167
NYC,2012-08-26 07:51,-73.9693,40.7790,69.98,62.06,75.96,70.00,5.00,M,30.30,1024.90,10.00,M,CLR,M,M,M,M,M,M,M,M,M,M,M,M,M,M,69.98,KNYC 260751Z AUTO 07005KT 10SM CLR 21/17 A3030 RMK AO2 SLP249 T02110167
NYC,2012-08-26 08:51,-73.9693,40.7790,69.98,64.04,81.44,M,3.00,M,30.31,1025.30,10.00,M,SCT,M,M,M,1700.00,M,M,M,M,M,M,M,M,M,M,69.98,KNYC 260851Z AUTO VRB03KT 10SM SCT017 21/18 A3031 RMK AO2 SLP253 T02110178 53003
NYC,2012-08-26 09:51,-73.9693,40.7790,69.08,64.04,83.98,M,4.00,M,30.31,1025.30,10.00,M,FEW,FEW,M,M,1500.00,11000.00,M,M,M,M,M,M,M,M,M,69.08,KNYC 260951Z AUTO VRB04KT 10SM FEW015 FEW110 21/18 A3031 RMK AO2 SLP253 T02060178
NYC,2012-08-26 10:51,-73.9693,40.7790,69.08,64.04,83.98,60.00,9.00,M,30.31,1025.40,10.00,15.00,SCT,M,M,M,1500.00,M,M,M,M,M,M,M,M,M,M,69.08,KNYC 261051Z AUTO 06009G15KT 10SM SCT015 21/18 A3031 RMK AO2 SLP254 T02060178
NYC,2012-08-26 11:23,-73.9693,40.7790,69.98,64.94,84.04,M,6.00,M,30.32,M,10.00,M,BKN,M,M,M,1500.00,M,M,M,M,M,M,M,M,M,M,69.98,KNYC 261123Z AUTO VRB06KT 10SM BKN015 21/18 A3032 RMK AO2 T02110183
NYC,2012-08-26 11:51,-73.9693,40.7790,69.98,64.94,84.04,80.00,8.00,M,30.33,1026.10,10.00,M,BKN,M,M,M,1500.00,M,M,M,M,M,M,M,M,M,M,69.98,KNYC 261151Z AUTO 08008KT 10SM BKN015 21/18 A3033 RMK AO2 SLP261 T02110183 10211 20200 53007
NYC,2012-08-26 12:41,-73.9693,40.7790,71.96,64.04,76.13,70.00,7.00,M,30.34,M,10.00,M,SCT,M,M,M,1600.00,M,M,M,M,M,M,M,M,M,M,71.96,KNYC 261241Z AUTO 07007KT 10SM SCT016 22/18 A3034 RMK AO2 T02220178
NYC,2012-08-26 12:51,-73.9693,40.7790,71.06,64.04,78.49,60.00,4.00,M,30.34,1026.60,10.00,M,SCT,M,M,M,1600.00,M,M,M,M,M,M,M,M,M,M,71.06,KNYC 261251Z AUTO 06004KT 10SM SCT016 22/18 A3034 RMK AO2 SLP266 T02170178
NYC,2012-08-26 13:51,-73.9693,40.7790,73.04,62.96,70.68,80.00,3.00,M,30.35,1026.70,10.00,M,FEW,M,M,M,12000.00,M,M,M,M,M,M,M,M,M,M,73.04,KNYC 261351Z AUTO 08003KT 10SM FEW120 23/17 A3035 RMK AO2 SLP267 T02280172
NYC,2012-08-26 14:51,-73.9693,40.7790,73.94,60.98,63.94,40.00,4.00,M,30.35,1026.80,10.00,M,CLR,M,M,M,M,M,M,M,M,M,M,M,M,M,M,73.94,KNYC 261451Z AUTO 04004KT 10SM CLR 23/16 A3035 RMK AO2 SLP268 T02330161 51007
NYC,2012-08-26 15:51,-73.9693,40.7790,78.98,60.98,M,M,M,M,30.33,1026.20,10.00,M,CLR,M,M,M,M,M,M,M,M,M,M,M,M,M,M,M,KNYC 261551Z AUTO 10SM CLR 26/16 A3033 RMK AO2 SLP262 T02610161
NYC,2012-08-26 16:51,-73.9693,40.7790,80.96,62.06,52.66,M,4.00,M,30.32,1025.70,10.00,M,CLR,M,M,M,M,M,M,M,M,M,M,M,M,M,M,82.02,KNYC 261651Z AUTO VRB04KT 10SM CLR 27/17 A3032 RMK AO2 SLP257 T02720167
NYC,2012-08-26 17:51,-73.9693,40.7790,82.04,62.06,50.84,M,6.00,M,30.30,1025.00,10.00,M,CLR,M,M,M,M,M,M,M,M,M,M,M,M,M,M,82.94,KNYC 261751Z AUTO VRB06KT 10SM CLR 28/17 A3030 RMK AO2 SLP250 T02780167 10283 20211 58018
NYC,2012-08-26 18:51,-73.9693,40.7790,82.94,62.06,49.37,100.00,9.00,M,30.28,1024.30,10.00,M,CLR,M,M,M,M,M,M,M,M,M,M,M,M,M,M,83.72,KNYC 261851Z AUTO 10009KT 10SM CLR 28/17 A3028 RMK AO2 SLP243 T02830167
NYC,2012-08-26 19:51,-73.9693,40.7790,80.96,62.96,54.35,M,6.00,M,30.27,1023.90,10.00,M,CLR,M,M,M,M,M,M,M,M,M,M,M,M,M,M,82.24,KNYC 261951Z AUTO VRB06KT 10SM CLR 27/17 A3027 RMK AO2 SLP239 T02720172
NYC,2012-08-26 20:51,-73.9693,40.7790,78.08,62.96,59.74,M,6.00,M,30.28,1024.20,10.00,M,CLR,M,M,M,M,M,M,M,M,M,M,M,M,M,M,78.08,KNYC 262051Z AUTO VRB06KT 10SM CLR 26/17 A3028 RMK AO2 SLP242 T02560172 55008
NYC,2012-08-26 21:51,-73.9693,40.7790,75.92,62.96,64.17,M,3.00,M,30.27,1024.10,10.00,M,CLR,M,M,M,M,M,M,M,M,M,M,M,M,M,M,75.92,KNYC 262151Z AUTO VRB03KT 10SM CLR 24/17 A3027 RMK AO2 SLP241 T02440172
NYC,2012-08-26 22:51,-73.9693,40.7790,73.94,64.04,71.22,M,3.00,M,30.27,1024.30,10.00,M,CLR,M,M,M,M,M,M,M,M,M,M,M,M,M,M,73.94,KNYC 262251Z AUTO VRB03KT 10SM CLR 23/18 A3027 RMK AO2 SLP243 T02330178
NYC,2012-08-26 23:51,-73.9693,40.7790,73.04,64.04,73.41,M,3.00,M,30.27,1024.10,10.00,M,CLR,M,M,M,M,M,M,M,M,M,M,M,M,M,M,73.04,KNYC 262351Z AUTO VRB03KT 10SM CLR 23/18 A3027 RMK AO2 SLP241 T02280178 10289 20228 56002
NYC,2012-08-27 00:51,-73.9693,40.7790,71.96,64.04,76.13,0.00,0.00,M,30.28,1024.50,10.00,M,BKN,M,M,M,11000.00,M,M,M,M,M,M,M,M,M,M,71.96,KNYC 270051Z AUTO 00000KT 10SM BKN110 22/18 A3028 RMK AO2 SLP245 T02220178
NYC,2012-08-27 01:51,-73.9693,40.7790,71.96,64.04,76.13,M,4.00,M,30.27,1024.10,10.00,M,CLR,M,M,M,M,M,M,M,M,M,M,M,M,M,M,71.96,KNYC 270151Z AUTO VRB04KT 10SM CLR 22/18 A3027 RMK AO2 SLP241 T02220178
NYC,2012-08-27 02:51,-73.9693,40.7790,71.06,64.04,78.49,0.00,0.00,M,30.26,1023.90,10.00,M,BKN,M,M,M,12000.00,M,M,M,M,M,M,M,M,M,M,71.06,KNYC 270251Z AUTO 00000KT 10SM BKN120 22/18 A3026 RMK AO2 SLP239 T02170178 58002
NYC,2012-08-27 03:51,-73.9693,40.7790,71.06,64.04,78.49,M,3.00,M,30.26,1023.80,10.00,M,BKN,M,M,M,12000.00,M,M,M,M,M,M,M,M,M,M,71.06,KNYC 270351Z AUTO VRB03KT 10SM BKN120 22/18 A3026 RMK AO2 SLP238 T02170178
NYC,2012-08-27 04:49,-73.9693,40.7790,71.60,64.40,78.04,0.00,0.00,M,30.25,M,10.00,M,BKN,M,M,M,2000.00,M,M,M,M,M,M,M,M,M,M,71.60,KNYC 270449Z AUTO 00000KT 10SM BKN020 22/18 A3025 RMK AO2
NYC,2012-08-27 04:51,-73.9693,40.7790,71.06,64.94,81.00,0.00,0.00,M,30.25,1023.20,10.00,M,BKN,M,M,M,2000.00,M,M,M,M,M,M,M,M,M,M,71.06,KNYC 270451Z AUTO 00000KT 10SM BKN020 22/18 A3025 RMK AO2 SLP232 T02170183 402890200
NYC,2012-08-27 05:16,-73.9693,40.7790,71.06,64.94,81.00,170.00,4.00,M,30.24,M,10.00,M,SCT,M,M,M,2000.00,M,M,M,M,M,M,M,M,M,M,71.06,KNYC 270516Z AUTO 17004KT 10SM SCT020 22/18 A3024 RMK AO2 T02170183
NYC,2012-08-27 05:51,-73.9693,40.7790,69.98,64.94,84.04,M,3.00,M,30.22,1022.30,10.00,M,FEW,M,M,M,1700.00,M,M,M,M,M,M,M,M,M,M,69.98,KNYC 270551Z AUTO VRB03KT 10SM FEW017 21/18 A3022 RMK AO2 SLP223 T02110183 10228 20211 58015
NYC,2012-08-27 06:51,-73.9693,40.7790,71.06,66.02,84.10,0.00,0.00,M,30.21,1021.90,10.00,M,SCT,BKN,M,M,1400.00,11000.00,M,M,M,M,M,M,M,M,M,71.06,KNYC 270651Z AUTO 00000KT 10SM SCT014 BKN110 22/19 A3021 RMK AO2 SLP219 T02170189
NYC,2012-08-27 06:59,-73.9693,40.7790,71.06,66.02,84.10,0.00,0.00,M,30.20,M,10.00,M,BKN,BKN,M,M,1400.00,11000.00,M,M,M,M,M,M,M,M,M,71.06,KNYC 270659Z AUTO 00000KT 10SM BKN014 BKN110 22/19 A3020 RMK AO2 T02170189
NYC,2012-08-27 07:33,-73.9693,40.7790,71.06,66.92,86.77,0.00,0.00,M,30.20,M,10.00,M,SCT,BKN,M,M,1500.00,11000.00,M,M,M,M,M,M,M,M,M,71.06,KNYC 270733Z AUTO 00000KT 10SM SCT015 BKN110 22/19 A3020 RMK AO2 T02170194
NYC,2012-08-27 07:51,-73.9693,40.7790,71.96,66.92,84.16,0.00,0.00,M,30.20,1021.50,10.00,M,SCT,BKN,M,M,1500.00,11000.00,M,M,M,M,M,M,M,M,M,71.96,KNYC 270751Z AUTO 00000KT 10SM SCT015 BKN110 22/19 A3020 RMK AO2 SLP215 T02220194
NYC,2012-08-27 08:06,-73.9693,40.7790,71.96,66.92,84.16,0.00,0.00,M,30.20,M,10.00,M,SCT,BKN,BKN,M,1500.00,2300.00,11000.00,M,M,M,M,M,M,M,M,71.96,KNYC 270806Z AUTO 00000KT 10SM SCT015 BKN023 BKN110 22/19 A3020 RMK AO2 T02220194
NYC,2012-08-27 08:35,-73.9693,40.7790,71.96,66.92,84.16,0.00,0.00,M,30.19,M,10.00,M,FEW,M,M,M,2400.00,M,M,M,M,M,M,M,M,M,M,71.96,KNYC 270835Z AUTO 00000KT 10SM FEW024 22/19 A3019 RMK AO2 T02220194
NYC,2012-08-27 08:51,-73.9693,40.7790,71.96,68.00,87.35,0.00,0.00,M,30.20,1021.50,10.00,M,FEW,FEW,M,M,1800.00,12000.00,M,M,M,M,M,M,M,M,M,71.96,KNYC 270851Z AUTO 00000KT 10SM FEW018 FEW120 22/20 A3020 RMK AO2 SLP215 T02220200 55007
NYC,2012-08-27 09:51,-73.9693,40.7790,71.96,68.00,87.35,90.00,3.00,M,30.19,1021.30,10.00,M,FEW,M,M,M,1600.00,M,M,M,M,M,M,M,M,M,M,71.96,KNYC 270951Z AUTO 09003KT 10SM FEW016 22/20 A3019 RMK AO2 SLP213 T02220200
NYC,2012-08-27 10:25,-73.9693,40.7790,71.06,68.00,90.06,80.00,4.00,M,30.19,M,10.00,M,BKN,M,M,M,1500.00,M,M,M,M,M,M,M,M,M,M,71.06,KNYC 271025Z AUTO 08004KT 10SM BKN015 22/20 A3019 RMK AO2 T02170200
NYC,2012-08-27 10:51,-73.9693,40.7790,71.96,68.00,87.35,0.00,0.00,M,30.20,1021.80,10.00,M,SCT,BKN,M,M,1500.00,2500.00,M,M,M,M,M,M,M,M,M,71.96,KNYC 271051Z AUTO 00000KT 10SM SCT015 BKN025 22/20 A3020 RMK AO2 SLP218 T02220200
NYC,2012-08-27 11:51,-73.9693,40.7790,75.02,68.00,78.81,0.00,0.00,M,30.20,1021.80,10.00,M,BKN,OVC,M,M,2200.00,3000.00,M,M,M,M,M,M,M,M,M,75.02,KNYC 271151Z AUTO 00000KT 10SM BKN022 OVC030 24/20 A3020 RMK AO2 SLP218 T02390200 10239 20211 53002
NYC,2012-08-27 12:34,-73.9693,40.7790,75.02,66.92,75.93,0.00,0.00,M,30.20,M,10.00,M,SCT,M,M,M,2600.00,M,M,M,M,M,M,M,M,M,M,75.02,KNYC 271234Z AUTO 00000KT 10SM SCT026 24/19 A3020 RMK AO2 T02390194
NYC,2012-08-27 12:51,-73.9693,40.7790,75.92,66.92,73.68,0.00,0.00,M,30.19,1021.50,10.00,M,FEW,SCT,M,M,2200.00,2800.00,M,M,M,M,M,M,M,M,M,75.92,KNYC 271251Z AUTO 00000KT 10SM FEW022 SCT028 24/19 A3019 RMK AO2 SLP215 T02440194
NYC,2012-08-27 13:51,-73.9693,40.7790,78.08,66.02,66.48,M,4.00,M,30.18,1021.10,10.00,M,BKN,M,M,M,3100.00,M,M,M,M,M,M,M,M,M,M,78.08,KNYC 271351Z AUTO VRB04KT 10SM BKN031 26/19 A3018 RMK AO2 SLP211 T02560189
NYC,2012-08-27 14:46,-73.9693,40.7790,80.60,66.20,61.58,M,3.00,M,30.18,M,10.00,M,BKN,M,M,M,2900.00,M,M,M,M,M,M,M,M,M,M,82.75,KNYC 271446Z AUTO VRB03KT 10SM BKN029 27/19 A3018 RMK AO2
NYC,2012-08-27 14:51,-73.9693,40.7790,80.06,66.92,64.26,M,4.00,M,30.18,1020.90,10.00,M,BKN,M,M,M,2900.00,M,M,M,M,M,M,M,M,M,M,82.36,KNYC 271451Z AUTO VRB04KT 10SM BKN029 27/19 A3018 RMK AO2 SLP209 T02670194 55006
NYC,2012-08-27 15:02,-73.9693,40.7790,80.96,66.92,62.40,M,3.00,M,30.18,M,10.00,M,BKN,BKN,M,M,3000.00,3700.00,M,M,M,M,M,M,M,M,M,83.36,KNYC 271502Z AUTO VRB03KT 10SM BKN030 BKN037 27/19 A3018 RMK AO2 T02720194
NYC,2012-08-27 15:51,-73.9693,40.7790,78.98,66.92,66.58,M,4.00,M,30.16,1020.10,10.00,M,OVC,M,M,M,3000.00,M,M,M,M,M,M,M,M,M,M,78.98,KNYC 271551Z AUTO VRB04KT 10SM OVC030 26/19 A3016 RMK AO2 SLP201 T02610194
NYC,2012-08-27 16:05,-73.9693,40.7790,77.00,68.00,73.78,M,5.00,0.00,30.15,M,6.00,M,OVC,M,M,M,2900.00,M,M,M,-RA,M,M,M,M,M,M,77.00,KNYC 271605Z AUTO VRB05KT 6SM -RA OVC029 25/20 A3015 RMK AO2 RAB01 P0000 T02500200
NYC,2012-08-27 16:16,-73.9693,40.7790,73.94,71.06,M,M,M,0.03,30.15,M,1.75,M,OVC,M,M,M,2700.00,M,M,M,RA BR,M,M,M,M,M,M,M,KNYC 271616Z AUTO 1 3/4SM RA BR OVC027 23/22 A3015 RMK AO2 RAB01 P0003 T02330217
NYC,2012-08-27 16:27,-73.9693,40.7790,71.96,71.06,96.99,270.00,8.00,0.13,30.16,M,0.50,M,FEW,BKN,OVC,M,2500.00,3100.00,3900.00,M,+RA FG,M,M,M,M,M,M,71.96,KNYC 271627Z AUTO 27008KT 1/2SM +RA FG FEW025 BKN031 OVC039 22/22 A3016 RMK AO2 RAB01 P0013 T02220217
NYC,2012-08-27 16:37,-73.9693,40.7790,71.06,69.98,96.39,60.00,5.00,0.53,30.15,M,0.25,18.00,SCT,BKN,OVC,M,1700.00,2700.00,3700.00,M,+RA FG,M,M,M,M,M,M,71.06,KNYC 271637Z AUTO 06005G18KT 1/4SM +RA FG SCT017 BKN027 OVC037 22/21 A3015 RMK AO2 RAB01 P0053 T02170211
NYC,2012-08-27 16:44,-73.9693,40.7790,71.06,69.98,96.39,190.00,3.00,0.58,30.15,M,1.00,M,SCT,BKN,OVC,M,1900.00,3400.00,11000.00,M,-RA BR,M,M,M,M,M,M,71.06,KNYC 271644Z AUTO 19003KT 1SM -RA BR SCT019 BKN034 OVC110 22/21 A3015 RMK AO2 RAB01 P0058 T02170211
NYC,2012-08-27 16:51,-73.9693,40.7790,69.98,69.08,M,M,M,0.58,30.16,1020.40,1.75,M,SCT,BKN,OVC,M,1500.00,3600.00,11000.00,M,-RA BR,M,M,M,M,M,M,M,KNYC 271651Z AUTO 1 3/4SM -RA BR SCT015 BKN036 OVC110 21/21 A3016 RMK AO2 RAB01 SLP204 P0058 T02110206
NYC,2012-08-27 16:53,-73.9693,40.7790,69.98,69.08,96.97,160.00,6.00,0.00,30.15,M,2.00,M,BKN,BKN,OVC,M,1500.00,3600.00,11000.00,M,-RA BR,M,M,M,M,M,M,69.98,KNYC 271653Z AUTO 16006KT 2SM -RA BR BKN015 BKN036 OVC110 21/21 A3015 RMK AO2 P0000 T02110206
NYC,2012-08-27 17:05,-73.9693,40.7790,71.06,69.98,96.39,0.00,0.00,0.03,30.14,M,3.00,M,FEW,BKN,OVC,M,1100.00,5500.00,11000.00,M,-RA BR,M,M,M,M,M,M,71.06,KNYC 271705Z AUTO 00000KT 3SM -RA BR FEW011 BKN055 OVC110 22/21 A3014 RMK AO2 P0003 T02170211
NYC,2012-08-27 17:51,-73.9693,40.7790,69.98,69.08,96.97,M,4.00,0.03,30.14,1019.60,10.00,M,CLR,M,M,M,M,M,M,M,M,M,M,M,M,M,M,69.98,KNYC 271751Z AUTO VRB04KT 10SM CLR 21/21 A3014 RMK AO2 RAE18 SLP196 P0003 60061 T02110206 10272 20211 58014
NYC,2012-08-27 18:51,-73.9693,40.7790,75.02,71.06,87.50,190.00,5.00,M,30.11,1018.60,10.00,M,CLR,M,M,M,M,M,M,M,M,M,M,M,M,M,M,75.02,KNYC 271851Z AUTO 19005KT 10SM CLR 24/22 A3011 RMK AO2 SLP186 T02390217
NYC,2012-08-27 19:51,-73.9693,40.7790,77.00,69.98,78.96,M,4.00,M,30.07,1017.30,10.00,15.00,CLR,M,M,M,M,M,M,M,M,M,M,M,M,M,M,77.00,KNYC 271951Z AUTO VRB04G15KT 10SM CLR 25/21 A3007 RMK AO2 SLP173 T02500211
NYC,2012-08-27 20:51,-73.9693,40.7790,77.00,69.98,78.96,M,5.00,M,30.05,1016.60,10.00,M,FEW,M,M,M,11000.00,M,M,M,M,M,M,M,M,M,M,77.00,KNYC 272051Z AUTO VRB05KT 10SM FEW110 25/21 A3005 RMK AO2 SLP166 T02500211 56029
NYC,2012-08-27 21:20,-73.9693,40.7790,77.00,69.98,78.96,170.00,5.00,M,30.05,M,10.00,M,BKN,M,M,M,2600.00,M,M,M,M,M,M,M,M,M,M,77.00,KNYC 272120Z AUTO 17005KT 10SM BKN026 25/21 A3005 RMK AO2 T02500211
NYC,2012-08-27 21:51,-73.9693,40.7790,77.00,69.98,M,M,M,M,30.04,1016.20,10.00,M,OVC,M,M,M,2300.00,M,M,M,M,M,M,M,M,M,M,M,KNYC 272151Z AUTO 10SM OVC023 25/21 A3004 RMK AO2 SLP162 T02500211
NYC,2012-08-27 22:11,-73.9693,40.7790,77.00,69.98,78.96,M,3.00,M,30.03,M,10.00,M,SCT,M,M,M,2300.00,M,M,M,M,M,M,M,M,M,M,77.00,KNYC 272211Z AUTO VRB03KT 10SM SCT023 25/21 A3003 RMK AO2 T02500211
NYC,2012-08-27 22:51,-73.9693,40.7790,77.00,69.98,78.96,160.00,9.00,M,30.02,1015.50,10.00,M,SCT,M,M,M,2300.00,M,M,M,M,M,M,M,M,M,M,77.00,KNYC 272251Z AUTO 16009KT 10SM SCT023 25/21 A3002 RMK AO2 SLP155 T02500211
NYC,2012-08-27 23:05,-73.9693,40.7790,77.00,71.06,81.92,M,4.00,M,30.02,M,10.00,M,BKN,M,M,M,2400.00,M,M,M,M,M,M,M,M,M,M,77.00,KNYC 272305Z AUTO VRB04KT 10SM BKN024 25/22 A3002 RMK AO2 T02500217
NYC,2012-08-27 23:51,-73.9693,40.7790,75.92,71.06,84.92,M,3.00,M,30.02,1015.50,10.00,M,BKN,M,M,M,2100.00,M,M,M,M,M,M,M,M,M,M,75.92,KNYC 272351Z AUTO VRB03KT 10SM BKN021 24/22 A3002 RMK AO2 SLP155 T02440217 10256 20211 56010
NYC,2012-08-28 00:31,-73.9693,40.7790,75.92,71.96,87.55,M,3.00,M,30.02,M,10.00,M,FEW,M,M,M,1900.00,M,M,M,M,M,M,M,M,M,M,75.92,KNYC 280031Z AUTO VRB03KT 10SM FEW019 24/22 A3002 RMK AO2 T02440222
NYC,2012-08-28 00:51,-73.9693,40.7790,75.02,71.96,90.22,M,5.00,M,30.01,1015.30,10.00,M,FEW,M,M,M,1500.00,M,M,M,M,M,M,M,M,M,M,75.02,KNYC 280051Z AUTO VRB05KT 10SM FEW015 24/22 A3001 RMK AO2 SLP153 T02390222
NYC,2012-08-28 01:12,-73.9693,40.7790,75.92,73.04,90.80,M,4.00,M,30.01,M,10.00,M,BKN,BKN,M,M,1500.00,2000.00,M,M,M,M,M,M,M,M,M,75.92,KNYC 280112Z AUTO VRB04KT 10SM BKN015 BKN020 24/23 A3001 RMK AO2 T02440228
NYC,2012-08-28 01:23,-73.9693,40.7790,75.92,73.04,90.80,M,5.00,M,30.01,M,10.00,M,BKN,M,M,M,1400.00,M,M,M,M,M,M,M,M,M,M,75.92,KNYC 280123Z AUTO VRB05KT 10SM BKN014 24/23 A3001 RMK AO2 T02440228
NYC,2012-08-28 01:51,-73.9693,40.7790,75.92,73.04,90.80,M,6.00,M,30.00,1014.70,10.00,M,SCT,M,M,M,1300.00,M,M,M,M,M,M,M,M,M,M,75.92,KNYC 280151Z AUTO VRB06KT 10SM SCT013 24/23 A3000 RMK AO2 SLP147 T02440228
NYC,2012-08-28 02:41,-73.9693,40.7790,75.92,73.04,90.80,M,3.00,M,29.99,M,10.00,M,BKN,M,M,M,1500.00,M,M,M,M,M,M,M,M,M,M,75.92,KNYC 280241Z AUTO VRB03KT 10SM BKN015 24/23 A2999 RMK AO2 T02440228
NYC,2012-08-28 02:51,-73.9693,40.7790,75.92,71.96,87.55,M,5.00,M,29.99,1014.60,10.00,M,BKN,M,M,M,1500.00,M,M,M,M,M,M,M,M,M,M,75.92,KNYC 280251Z AUTO VRB05KT 10SM BKN015 24/22 A2999 RMK AO2 SLP146 T02440222 56009
NYC,2012-08-28 03:24,-73.9693,40.7790,75.92,71.96,87.55,M,4.00,M,29.99,M,10.00,M,SCT,BKN,M,M,1500.00,3500.00,M,M,M,M,M,M,M,M,M,75.92,KNYC 280324Z AUTO VRB04KT 10SM SCT015 BKN035 24/22 A2999 RMK AO2 T02440222
NYC,2012-08-28 03:51,-73.9693,40.7790,75.92,71.96,M,M,M,M,29.98,1014.30,10.00,M,SCT,SCT,M,M,3200.00,4200.00,M,M,M,M,M,M,M,M,M,M,KNYC 280351Z AUTO 10SM SCT032 SCT042 24/22 A2998 RMK AO2 SLP143 T02440222
NYC,2012-08-28 04:51,-73.9693,40.7790,75.02,71.96,90.22,M,6.00,M,29.97,1013.90,10.00,M,CLR,M,M,M,M,M,M,M,M,M,M,M,M,M,M,75.02,KNYC 280451Z AUTO VRB06KT 10SM CLR 24/22 A2997 RMK AO2 SLP139 T02390222 402720211
NYC,2012-08-28 05:51,-73.9693,40.7790,75.02,71.96,90.22,0.00,0.00,M,29.95,1013.20,10.00,M,FEW,M,M,M,1200.00,M,M,M,M,M,M,M,M,M,M,75.02,KNYC 280551Z AUTO 00000KT 10SM FEW012 24/22 A2995 RMK AO2 SLP132 T02390222 10250 20239 58016
NYC,2012-08-28 06:51,-73.9693,40.7790,75.02,71.96,M,M,M,M,29.93,1012.50,10.00,M,CLR,M,M,M,M,M,M,M,M,M,M,M,M,M,M,M,KNYC 280651Z AUTO 10SM CLR 24/22 A2993 RMK AO2 SLP125 T02390222
NYC,2012-08-28 07:51,-73.9693,40.7790,73.94,71.96,93.54,260.00,4.00,0.00,29.91,1011.80,9.00,M,FEW,M,M,M,1200.00,M,M,M,-RA,M,M,M,M,M,M,73.94,KNYC 280751Z AUTO 26004KT 9SM -RA FEW012 23/22 A2991 RMK AO2 RAB44 SLP118 P0000 T02330222
NYC,2012-08-28 08:51,-73.9693,40.7790,73.94,71.96,93.54,M,4.00,0.01,29.89,1011.30,9.00,M,FEW,BKN,M,M,1100.00,11000.00,M,M,-RA,M,M,M,M,M,M,73.94,KNYC 280851Z AUTO VRB04KT 9SM -RA FEW011 BKN110 23/22 A2989 RMK AO2 RAE11B51 SLP113 P0001 60001 T02330222 56018
NYC,2012-08-28 09:51,-73.9693,40.7790,73.94,71.96,M,M,M,0.01,29.89,1011.20,8.00,M,BKN,BKN,OVC,M,1300.00,8000.00,10000.00,M,M,M,M,M,M,M,M,M,KNYC 280951Z AUTO 8SM BKN013 BKN080 OVC100 23/22 A2989 RMK AO2 RAE16B40E49 SLP112 P0001 T02330222
NYC,2012-08-28 10:17,-73.9693,40.7790,73.94,73.04,97.02,M,3.00,0.03,29.89,M,2.50,M,SCT,BKN,OVC,M,1100.00,1800.00,7000.00,M,RA BR,M,M,M,M,M,M,73.94,KNYC 281017Z AUTO VRB03KT 2 1/2SM RA BR SCT011 BKN018 OVC070 23/23 A2989 RMK AO2 RAB04 P0003 T02330228
NYC,2012-08-28 10:31,-73.9693,40.7790,73.04,71.96,96.42,M,4.00,0.07,29.89,M,3.00,M,BKN,BKN,OVC,M,1200.00,4600.00,9000.00,M,-RA BR,M,M,M,M,M,M,73.04,KNYC 281031Z AUTO VRB04KT 3SM -RA BR BKN012 BKN046 OVC090 23/22 A2989 RMK AO2 RAB04 P0007 T02280222
NYC,2012-08-28 10:41,-73.9693,40.7790,73.04,73.04,100.00,M,3.00,0.09,29.89,M,2.50,M,SCT,BKN,OVC,M,1000.00,1900.00,7500.00,M,RA BR,M,M,M,M,M,M,73.04,KNYC 281041Z AUTO VRB03KT 2 1/2SM RA BR SCT010 BKN019 OVC075 23/23 A2989 RMK AO2 RAB04 P0009 T02280228
NYC,2012-08-28 10:51,-73.9693,40.7790,73.04,71.96,96.42,M,5.00,0.11,29.89,1011.00,3.00,M,BKN,BKN,OVC,M,1300.00,4000.00,7000.00,M,-RA BR,M,M,M,M,M,M,73.04,KNYC 281051Z AUTO VRB05KT 3SM -RA BR BKN013 BKN040 OVC070 23/22 A2989 RMK AO2 RAB04 SLP110 P0011 T02280222
NYC,2012-08-28 11:07,-73.9693,40.7790,73.04,71.96,M,M,M,0.00,29.88,M,4.00,M,SCT,BKN,OVC,M,1100.00,1700.00,7000.00,M,-RA BR,M,M,M,M,M,M,M,KNYC 281107Z AUTO 4SM -RA BR SCT011 BKN017 OVC070 23/22 A2988 RMK AO2 P0000 T02280222
NYC,2012-08-28 11:19,-73.9693,40.7790,73.04,73.04,100.00,240.00,5.00,0.01,29.88,M,3.00,M,BKN,BKN,OVC,M,1400.00,3700.00,7000.00,M,-RA BR,M,M,M,M,M,M,73.04,KNYC 281119Z AUTO 24005KT 3SM -RA BR BKN014 BKN037 OVC070 23/23 A2988 RMK AO2 P0001 T02280228
NYC,2012-08-28 11:40,-73.9693,40.7790,73.04,71.96,M,M,M,0.01,29.88,M,5.00,M,SCT,BKN,OVC,M,1200.00,1700.00,6000.00,M,BR,M,M,M,M,M,M,M,KNYC 281140Z AUTO 5SM BR SCT012 BKN017 OVC060 23/22 A2988 RMK AO2 RAE20 P0001 T02280222
NYC,2012-08-28 11:51,-73.9693,40.7790,73.94,71.96,93.54,M,4.00,0.01,29.88,1010.90,4.00,15.00,BKN,BKN,OVC,M,1200.00,1700.00,6000.00,M,BR,M,M,M,M,M,M,73.94,KNYC 281151Z AUTO VRB04G15KT 4SM BR BKN012 BKN017 OVC060 23/22 A2988 RMK AO2 RAE20 SLP109 P0001 60014 70075 T02330222 10244 20228 56002
NYC,2012-08-28 12:51,-73.9693,40.7790,73.94,71.96,93.54,M,4.00,M,29.88,1010.80,7.00,M,SCT,BKN,M,M,1400.00,2200.00,M,M,M,M,M,M,M,M,M,73.94,KNYC 281251Z AUTO VRB04KT 7SM SCT014 BKN022 23/22 A2988 RMK AO2 SLP108 T02330222
NYC,2012-08-28 13:30,-73.9693,40.7790,75.02,71.06,87.50,M,4.00,M,29.88,M,8.00,M,SCT,BKN,M,M,1600.00,6000.00,M,M,M,M,M,M,M,M,M,75.02,KNYC 281330Z AUTO VRB04KT 8SM SCT016 BKN060 24/22 A2988 RMK AO2 T02390217
NYC,2012-08-28 13:51,-73.9693,40.7790,75.02,69.98,84.34,240.00,7.00,M,29.88,1010.80,9.00,M,FEW,BKN,M,M,2200.00,6000.00,M,M,M,M,M,M,M,M,M,75.02,KNYC 281351Z AUTO 24007KT 210V290 9SM FEW022 BKN060 24/21 A2988 RMK AO2 SLP108 T02390211
NYC,2012-08-28 14:15,-73.9693,40.7790,75.20,69.80,83.32,270.00,7.00,M,29.88,M,10.00,M,SCT,BKN,M,M,2000.00,2500.00,M,M,M,M,M,M,M,M,M,75.20,KNYC 281415Z AUTO 27007KT 10SM SCT020 BKN025 24/21 A2988
NYC,2012-08-28 14:30,-73.9693,40.7790,78.08,69.98,76.19,290.00,6.00,M,29.88,M,10.00,15.00,SCT,BKN,M,M,2300.00,3400.00,M,M,M,M,M,M,M,M,M,78.08,KNYC 281430Z AUTO 29006G15KT 10SM SCT023 BKN034 26/21 A2988 RMK AO2 T02560211
NYC,2012-08-28 14:51,-73.9693,40.7790,78.08,68.00,71.19,290.00,7.00,M,29.89,1011.00,10.00,16.00,FEW,BKN,M,M,2700.00,3600.00,M,M,M,M,M,M,M,M,M,78.08,KNYC 281451Z AUTO 29007G16KT 260V340 10SM FEW027 BKN036 26/20 A2989 RMK AO2 SLP110 T02560200 53001
NYC,2012-08-28 15:51,-73.9693,40.7790,82.04,66.02,58.40,M,6.00,M,29.88,1010.70,10.00,M,FEW,M,M,M,3500.00,M,M,M,M,M,M,M,M,M,M,84.19,KNYC 281551Z AUTO VRB06KT 10SM FEW035 28/19 A2988 RMK AO2 SLP107 T02780189
NYC,2012-08-28 16:51,-73.9693,40.7790,84.02,64.04,51.12,M,5.00,M,29.87,1010.40,10.00,14.00,CLR,M,M,M,M,M,M,M,M,M,M,M,M,M,M,85.40,KNYC 281651Z AUTO VRB05G14KT 10SM CLR 29/18 A2987 RMK AO2 SLP104 T02890178
NYC,2012-08-28 17:51,-73.9693,40.7790,84.92,59.00,41.55,300.00,9.00,M,29.85,1009.70,10.00,20.00,CLR,M,M,M,M,M,M,M,M,M,M,M,M,M,M,84.52,KNYC 281751Z AUTO 30009G20KT 270V330 10SM CLR 29/15 A2985 RMK AO2 SLP097 T02940150 10300 20233 58013
NYC,2012-08-28 18:51,-73.9693,40.7790,86.00,59.00,40.14,310.00,8.00,M,29.83,1009.20,10.00,14.00,CLR,M,M,M,M,M,M,M,M,M,M,M,M,M,M,85.47,KNYC 281851Z AUTO 31008G14KT 10SM CLR 30/15 A2983 RMK AO2 SLP092 T03000150
NYC,2012-08-28 19:51,-73.9693,40.7790,84.92,57.92,39.97,310.00,8.00,M,29.83,1009.20,10.00,M,FEW,M,M,M,6500.00,M,M,M,M,M,M,M,M,M,M,84.92,KNYC 281951Z AUTO 31008KT 270V360 10SM FEW065 29/14 A2983 RMK AO2 SLP092 T02940144
NYC,2012-08-28 20:51,-73.9693,40.7790,84.02,55.04,37.08,280.00,7.00,M,29.84,1009.50,10.00,M,FEW,M,M,M,7000.00,M,M,M,M,M,M,M,M,M,M,84.02,KNYC 282051Z AUTO 28007KT 10SM FEW070 29/13 A2984 RMK AO2 SLP095 T02890128 55003
NYC,2012-08-28 21:51,-73.9693,40.7790,82.94,53.96,36.91,280.00,7.00,M,29.85,1009.90,10.00,M,CLR,M,M,M,M,M,M,M,M,M,M,M,M,M,M,82.94,KNYC 282151Z AUTO 28007KT 240V330 10SM CLR 28/12 A2985 RMK AO2 SLP099 T02830122
NYC,2012-08-28 22:51,-73.9693,40.7790,82.04,55.94,40.84,M,6.00,M,29.86,1010.10,10.00,14.00,CLR,M,M,M,M,M,M,M,M,M,M,M,M,M,M,81.58,KNYC 282251Z AUTO VRB06G14KT 10SM CLR 28/13 A2986 RMK AO2 SLP101 T02780133
NYC,2012-08-28 23:29,-73.9693,40.7790,80.96,57.02,43.99,M,4.00,M,29.87,M,10.00,M,FEW,M,M,M,100.00,M,M,M,M,M,M,M,M,M,M,81.02,KNYC 282329Z AUTO VRB04KT 10SM FEW001 27/14 A2987 RMK AO2 T02720139
NYC,2012-08-28 23:51,-73.9693,40.7790,80.96,57.02,43.99,M,6.00,M,29.88,1010.70,10.00,M,FEW,M,M,M,100.00,M,M,M,M,M,M,M,M,M,M,81.02,KNYC 282351Z AUTO VRB06KT 10SM FEW001 27/14 A2988 RMK AO2 SLP107 T02720139 10306 20267 53012
NYC,2012-08-29 00:51,-73.9693,40.7790,78.98,57.92,48.48,M,4.00,M,29.90,1011.40,10.00,M,CLR,M,M,M,M,M,M,M,M,M,M,M,M,M,M,78.98,KNYC 290051Z AUTO VRB04KT 10SM CLR 26/14 A2990 RMK AO2 SLP114 T02610144
NYC,2012-08-29 01:51,-73.9693,40.7790,77.00,59.00,53.80,290.00,5.00,M,29.92,1012.10,10.00,M,SCT,M,M,M,9000.00,M,M,M,M,M,M,M,M,M,M,77.00,KNYC 290151Z AUTO 29005KT 10SM SCT090 25/15 A2992 RMK AO2 SLP121 T02500150
NYC,2012-08-29 02:51,-73.9693,40.7790,75.92,59.00,55.77,340.00,7.00,M,29.93,1012.40,10.00,M,SCT,M,M,M,9500.00,M,M,M,M,M,M,M,M,M,M,75.92,KNYC 290251Z AUTO 34007KT 290V010 10SM SCT095 24/15 A2993 RMK AO2 SLP124 T02440150 51017
NYC,2012-08-29 03:51,-73.9693,40.7790,75.02,57.92,55.28,M,4.00,M,29.93,1012.50,10.00,M,FEW,M,M,M,9000.00,M,M,M,M,M,M,M,M,M,M,75.02,KNYC 290351Z AUTO VRB04KT 10SM FEW090 24/14 A2993 RMK AO2 SLP125 T02390144
NYC,2012-08-29 04:51,-73.9693,40.7790,73.04,57.92,59.08,M,4.00,M,29.94,1012.90,10.00,M,CLR,M,M,M,M,M,M,M,M,M,M,M,M,M,M,73.04,KNYC 290451Z AUTO VRB04KT 10SM CLR 23/14 A2994 RMK AO2 SLP129 T02280144 403060228
NYC,2012-08-29 05:51,-73.9693,40.7790,71.96,57.92,61.28,0.00,0.00,M,29.94,1012.80,10.00,M,CLR,M,M,M,M,M,M,M,M,M,M,M,M,M,M,71.96,KNYC 290551Z AUTO 00000KT 10SM CLR 22/14 A2994 RMK AO2 SLP128 T02220144 10272 20217 50004
NYC,2012-08-29 06:51,-73.9693,40.7790,69.98,57.92,65.54,M,4.00,M,29.94,1012.70,10.00,M,CLR,M,M,M,M,M,M,M,M,M,M,M,M,M,M,69.98,KNYC 290651Z AUTO VRB04KT 10SM CLR 21/14 A2994 RMK AO2 SLP127 T02110144
NYC,2012-08-29 07:51,-73.9693,40.7790,69.08,57.92,67.59,50.00,3.00,M,29.94,1012.80,10.00,M,CLR,M,M,M,M,M,M,M,M,M,M,M,M,M,M,69.08,KNYC 290751Z AUTO 05003KT 10SM CLR 21/14 A2994 RMK AO2 SLP128 T02060144
NYC,2012-08-29 08:51,-73.9693,40.7790,68.00,57.02,67.91,M,6.00,M,29.94,1012.90,10.00,M,CLR,M,M,M,M,M,M,M,M,M,M,M,M,M,M,68.00,KNYC 290851Z AUTO VRB06KT 10SM CLR 20/14 A2994 RMK AO2 SLP129 T02000139 53001
NYC,2012-08-29 09:51,-73.9693,40.7790,68.00,57.02,67.91,M,6.00,M,29.95,1013.30,10.00,M,CLR,M,M,M,M,M,M,M,M,M,M,M,M,M,M,68.00,KNYC 290951Z AUTO VRB06KT 10SM CLR 20/14 A2995 RMK AO2 SLP133 T02000139
NYC,2012-08-29 10:51,-73.9693,40.7790,66.92,53.96,63.08,40.00,7.00,M,29.99,1014.40,10.00,M,CLR,M,M,M,M,M,M,M,M,M,M,M,M,M,M,66.92,KNYC 291051Z AUTO 04007KT 010V070 10SM CLR 19/12 A2999 RMK AO2 SLP144 T01940122
NYC,2012-08-29 11:51,-73.9693,40.7790,66.92,51.08,56.73,M,6.00,M,30.02,1015.40,10.00,14.00,CLR,M,M,M,M,M,M,M,M,M,M,M,M,M,M,66.92,KNYC 291151Z AUTO VRB06G14KT 10SM CLR 19/11 A3002 RMK AO2 SLP154 T01940106 10222 20194 53025
NYC,2012-08-29 12:51,-73.9693,40.7790,68.00,51.08,54.66,M,6.00,M,30.03,1015.80,10.00,M,CLR,M,M,M,M,M,M,M,M,M,M,M,M,M,M,68.00,KNYC 291251Z AUTO VRB06KT 10SM CLR 20/11 A3003 RMK AO2 SLP158 T02000106
NYC,2012-08-29 13:51,-73.9693,40.7790,69.98,50.00,49.07,20.00,7.00,M,30.03,1015.80,10.00,M,CLR,M,M,M,M,M,M,M,M,M,M,M,M,M,M,69.98,KNYC 291351Z AUTO 02007KT 340V070 10SM CLR 21/10 A3003 RMK AO2 SLP158 T02110100
NYC,2012-08-29 14:51,-73.9693,40.7790,71.96,48.02,42.60,50.00,8.00,M,30.03,1016.00,10.00,M,CLR,M,M,M,M,M,M,M,M,M,M,M,M,M,M,71.96,KNYC 291451Z AUTO 05008KT 10SM CLR 22/09 A3003 RMK AO2 SLP160 T02220089 51006
NYC,2012-08-29 15:51,-73.9693,40.7790,73.94,48.02,39.85,M,6.00,M,30.03,1016.00,10.00,M,CLR,M,M,M,M,M,M,M,M,M,M,M,M,M,M,73.94,KNYC 291551Z AUTO VRB06KT 10SM CLR 23/09 A3003 RMK AO2 SLP160 T02330089
NYC,2012-08-29 16:51,-73.9693,40.7790,75.92,48.92,38.57,30.00,7.00,M,30.03,1015.80,10.00,M,CLR,M,M,M,M,M,M,M,M,M,M,M,M,M,M,75.92,KNYC 291651Z AUTO 03007KT 350V080 10SM CLR 24/09 A3003 RMK AO2 SLP158 T02440094
NYC,2012-08-29 17:51,-73.9693,40.7790,77.00,48.92,37.21,M,4.00,M,30.01,1015.20,10.00,M,CLR,M,M,M,M,M,M,M,M,M,M,M,M,M,M,77.00,KNYC 291751Z AUTO VRB04KT 10SM CLR 25/09 A3001 RMK AO2 SLP152 T02500094 10256 20194 58008
NYC,2012-08-29 18:51,-73.9693,40.7790,78.08,48.02,34.72,M,6.00,M,29.99,1014.60,10.00,M,CLR,M,M,M,M,M,M,M,M,M,M,M,M,M,M,78.08,KNYC 291851Z AUTO VRB06KT 10SM CLR 26/09 A2999 RMK AO2 SLP146 T02560089
NYC,2012-08-29 19:51,-73.9693,40.7790,78.08,50.00,37.38,0.00,0.00,M,29.98,1014.10,10.00,M,CLR,M,M,M,M,M,M,M,M,M,M,M,M,M,M,78.08,KNYC 291951Z AUTO 00000KT 10SM CLR 26/10 A2998 RMK AO2 SLP141 T02560100
NYC,2012-08-29 20:51,-73.9693,40.7790,78.08,50.00,37.38,M,4.00,M,29.98,1014.20,10.00,M,FEW,M,M,M,6500.00,M,M,M,M,M,M,M,M,M,M,78.08,KNYC 292051Z AUTO VRB04KT 10SM FEW065 26/10 A2998 RMK AO2 SLP142 T02560100 56011
NYC,2012-08-29 21:51,-73.9693,40.7790,77.00,51.08,40.33,M,4.00,M,29.98,1014.20,10.00,M,CLR,M,M,M,M,M,M,M,M,M,M,M,M,M,M,77.00,KNYC 292151Z AUTO VRB04KT 10SM CLR 25/11 A2998 RMK AO2 SLP142 T02500106
NYC,2012-08-29 22:51,-73.9693,40.7790,75.92,50.00,40.16,0.00,0.00,M,29.98,1014.20,10.00,M,CLR,M,M,M,M,M,M,M,M,M,M,M,M,M,M,75.92,KNYC 292251Z AUTO 00000KT 10SM CLR 24/10 A2998 RMK AO2 SLP142 T02440100
NYC,2012-08-29 23:51,-73.9693,40.7790,75.02,48.92,39.75,M,4.00,M,30.00,1014.90,10.00,M,SCT,M,M,M,6500.00,M,M,M,M,M,M,M,M,M,M,75.02,KNYC 292351Z AUTO VRB04KT 10SM SCT065 24/09 A3000 RMK AO2 SLP149 T02390094 10261 20233 53006
NYC,2012-08-30 00:51,-73.9693,40.7790,73.94,48.92,41.21,0.00,0.00,M,30.02,1015.50,10.00,M,CLR,M,M,M,M,M,M,M,M,M,M,M,M,M,M,73.94,KNYC 300051Z AUTO 00000KT 10SM CLR 23/09 A3002 RMK AO2 SLP155 T02330094
NYC,2012-08-30 01:51,-73.9693,40.7790,73.04,48.02,41.07,0.00,0.00,M,30.03,1015.90,10.00,M,CLR,M,M,M,M,M,M,M,M,M,M,M,M,M,M,73.04,KNYC 300151Z AUTO 00000KT 10SM CLR 23/09 A3003 RMK AO2 SLP159 T02280089
NYC,2012-08-30 02:51,-73.9693,40.7790,69.98,51.08,51.07,0.00,0.00,M,30.04,1016.30,10.00,M,CLR,M,M,M,M,M,M,M,M,M,M,M,M,M,M,69.98,KNYC 300251Z AUTO 00000KT 10SM CLR 21/11 A3004 RMK AO2 SLP163 T02110106 51014
NYC,2012-08-30 03:51,-73.9693,40.7790,68.00,51.08,54.66,30.00,3.00,M,30.05,1016.60,10.00,M,CLR,M,M,M,M,M,M,M,M,M,M,M,M,M,M,68.00,KNYC 300351Z AUTO 03003KT 10SM CLR 20/11 A3005 RMK AO2 SLP166 T02000106
NYC,2012-08-30 04:51,-73.9693,40.7790,68.00,50.00,52.51,320.00,3.00,M,30.05,1016.80,10.00,M,CLR,M,M,M,M,M,M,M,M,M,M,M,M,M,M,68.00,KNYC 300451Z AUTO 32003KT 10SM CLR 20/10 A3005 RMK AO2 SLP168 T02000100 402610194
NYC,2012-08-30 05:51,-73.9693,40.7790,66.02,51.08,58.53,290.00,4.00,M,30.05,1016.60,10.00,M,CLR,M,M,M,M,M,M,M,M,M,M,M,M,M,M,66.02,KNYC 300551Z AUTO 29004KT 10SM CLR 19/11 A3005 RMK AO2 SLP166 T01890106 10239 20189 50003
NYC,2012-08-30 06:51,-73.9693,40.7790,66.02,50.00,56.23,0.00,0.00,M,30.05,1016.70,10.00,M,CLR,M,M,M,M,M,M,M,M,M,M,M,M,M,M,66.02,KNYC 300651Z AUTO 00000KT 10SM CLR 19/10 A3005 RMK AO2 SLP167 T01890100
NYC,2012-08-30 07:51,-73.9693,40.7790,62.96,51.98,67.34,M,3.00,M,30.06,1016.90,10.00,M,CLR,M,M,M,M,M,M,M,M,M,M,M,M,M,M,62.96,KNYC 300751Z AUTO VRB03KT 10SM CLR 17/11 A3006 RMK AO2 SLP169 T01720111
NYC,2012-08-30 08:51,-73.9693,40.7790,62.96,51.98,67.34,0.00,0.00,M,30.06,1017.00,10.00,M,CLR,M,M,M,M,M,M,M,M,M,M,M,M,M,M,62.96,KNYC 300851Z AUTO 00000KT 10SM CLR 17/11 A3006 RMK AO2 SLP170 T01720111 52004
NYC,2012-08-30 09:51,-73.9693,40.7790,62.06,51.98,69.51,0.00,0.00,M,30.07,1017.20,10.00,M,CLR,M,M,M,M,M,M,M,M,M,M,M,M,M,M,62.06,KNYC 300951Z AUTO 00000KT 10SM CLR 17/11 A3007 RMK AO2 SLP172 T01670111
NYC,2012-08-30 10:51,-73.9693,40.7790,62.06,53.06,72.33,300.00,4.00,M,30.10,1018.40,10.00,M,CLR,M,M,M,M,M,M,M,M,M,M,M,M,M,M,62.06,KNYC 301051Z AUTO 30004KT 10SM CLR 17/12 A3010 RMK AO2 SLP184 T01670117 $
NYC,2012-08-30 11:51,-73.9693,40.7790,64.94,51.08,60.77,300.00,3.00,M,30.11,1018.80,10.00,M,CLR,M,M,M,M,M,M,M,M,M,M,M,M,M,M,64.94,KNYC 301151Z AUTO 30003KT 10SM CLR 18/11 A3011 RMK AO2 SLP188 T01830106 10194 20161 53018 $
NYC,2012-08-30 12:51,-73.9693,40.7790,66.92,51.08,56.73,300.00,4.00,M,30.12,1019.10,10.00,M,CLR,M,M,M,M,M,M,M,M,M,M,M,M,M,M,66.92,KNYC 301251Z AUTO 30004KT 10SM CLR 19/11 A3012 RMK AO2 SLP191 T01940106 $
NYC,2012-08-30 13:51,-73.9693,40.7790,69.98,51.08,51.07,M,5.00,M,30.12,1019.10,10.00,M,CLR,M,M,M,M,M,M,M,M,M,M,M,M,M,M,69.98,KNYC 301351Z AUTO VRB05KT 10SM CLR 21/11 A3012 RMK AO2 SLP191 T02110106 $
NYC,2012-08-30 14:51,-73.9693,40.7790,73.04,48.92,42.48,290.00,8.00,M,30.13,1019.40,10.00,M,CLR,M,M,M,M,M,M,M,M,M,M,M,M,M,M,73.04,KNYC 301451Z AUTO 29008KT 10SM CLR 23/09 A3013 RMK AO2 SLP194 T02280094 51006 $
NYC,2012-08-30 15:51,-73.9693,40.7790,75.92,48.92,38.57,0.00,0.00,M,30.13,1019.30,10.00,M,CLR,M,M,M,M,M,M,M,M,M,M,M,M,M,M,75.92,KNYC 301551Z AUTO 00000KT 10SM CLR 24/09 A3013 RMK AO2 SLP193 T02440094 $
NYC,2012-08-30 16:51,-73.9693,40.7790,80.06,48.02,32.53,0.00,0.00,M,30.12,1018.80,10.00,M,CLR,M,M,M,M,M,M,M,M,M,M,M,M,M,M,80.06,KNYC 301651Z AUTO 00000KT 10SM CLR 27/09 A3012 RMK AO2 SLP188 T02670089 $
NYC,2012-08-30 17:51,-73.9693,40.7790,80.96,42.08,25.20,M,4.00,M,30.11,1018.50,10.00,M,CLR,M,M,M,M,M,M,M,M,M,M,M,M,M,M,80.96,KNYC 301751Z AUTO VRB04KT 10SM CLR 27/06 A3011 RMK AO2 SLP185 T02720056 10272 20183 58008 $
NYC,2012-08-30 18:51,-73.9693,40.7790,82.04,42.98,M,M,M,M,30.09,1017.90,10.00,M,CLR,M,M,M,M,M,M,M,M,M,M,M,M,M,M,M,KNYC 301851Z AUTO 10SM CLR 28/06 A3009 RMK AO2 SLP179 T02780061 $
NYC,2012-08-30 19:51,-73.9693,40.7790,82.04,44.06,26.25,M,5.00,M,30.08,1017.70,10.00,M,CLR,M,M,M,M,M,M,M,M,M,M,M,M,M,M,82.04,KNYC 301951Z AUTO VRB05KT 10SM CLR 28/07 A3008 RMK AO2 SLP177 T02780067 $
NYC,2012-08-30 20:51,-73.9693,40.7790,82.04,46.94,29.28,M,3.00,M,30.08,1017.70,10.00,M,CLR,M,M,M,M,M,M,M,M,M,M,M,M,M,M,82.04,KNYC 302051Z AUTO VRB03KT 10SM CLR 28/08 A3008 RMK AO2 SLP177 T02780083 56009
NYC,2012-08-30 21:51,-73.9693,40.7790,78.98,50.00,M,M,M,M,30.08,1017.80,10.00,M,CLR,M,M,M,M,M,M,M,M,M,M,M,M,M,M,M,KNYC 302151Z AUTO 10SM CLR 26/10 A3008 RMK AO2 SLP178 T02610100
NYC,2012-08-30 22:51,-73.9693,40.7790,78.08,51.08,38.91,M,6.00,M,30.08,1017.60,10.00,M,CLR,M,M,M,M,M,M,M,M,M,M,M,M,M,M,78.08,KNYC 302251Z AUTO VRB06KT 10SM CLR 26/11 A3008 RMK AO2 SLP176 T02560106
NYC,2012-08-30 23:51,-73.9693,40.7790,77.00,50.00,38.74,0.00,0.00,M,30.08,1017.70,10.00,M,CLR,M,M,M,M,M,M,M,M,M,M,M,M,M,M,77.00,KNYC 302351Z AUTO 00000KT 10SM CLR 25/10 A3008 RMK AO2 SLP177 T02500100 10278 20250 50000
NYC,2012-08-31 00:51,-73.9693,40.7790,75.92,51.98,43.21,240.00,5.00,M,30.09,1017.90,10.00,M,CLR,M,M,M,M,M,M,M,M,M,M,M,M,M,M,75.92,KNYC 310051Z AUTO 24005KT 10SM CLR 24/11 A3009 RMK AO2 SLP179 T02440111
NYC,2012-08-31 01:51,-73.9693,40.7790,75.92,53.06,44.97,260.00,3.00,M,30.09,1018.00,10.00,M,CLR,M,M,M,M,M,M,M,M,M,M,M,M,M,M,75.92,KNYC 310151Z AUTO 26003KT 10SM CLR 24/12 A3009 RMK AO2 SLP180 T02440117
NYC,2012-08-31 02:51,-73.9693,40.7790,75.02,53.96,47.89,M,3.00,M,30.08,1017.70,10.00,M,CLR,M,M,M,M,M,M,M,M,M,M,M,M,M,M,75.02,KNYC 310251Z AUTO VRB03KT 10SM CLR 24/12 A3008 RMK AO2 SLP177 T02390122 50001
NYC,2012-08-31 03:51,-73.9693,40.7790,73.94,55.04,51.65,250.00,3.00,M,30.08,1017.40,10.00,M,CLR,M,M,M,M,M,M,M,M,M,M,M,M,M,M,73.94,KNYC 310351Z AUTO 25003KT 10SM CLR 23/13 A3008 RMK AO2 SLP174 T02330128
NYC,2012-08-31 04:51,-73.9693,40.7790,73.94,55.04,51.65,260.00,6.00,M,30.08,1017.70,10.00,M,CLR,M,M,M,M,M,M,M,M,M,M,M,M,M,M,73.94,KNYC 310451Z AUTO 26006KT 10SM CLR 23/13 A3008 RMK AO2 SLP177 T02330128 402780161
NYC,2012-08-31 05:51,-73.9693,40.7790,71.06,55.04,56.93,0.00,0.00,M,30.08,1017.70,10.00,M,CLR,M,M,M,M,M,M,M,M,M,M,M,M,M,M,71.06,KNYC 310551Z AUTO 00000KT 10SM CLR 22/13 A3008 RMK AO2 SLP177 T02170128 10250 20217 53001
NYC,2012-08-31 06:51,-73.9693,40.7790,69.98,55.04,59.06,M,3.00,M,30.09,1017.70,10.00,M,CLR,M,M,M,M,M,M,M,M,M,M,M,M,M,M,69.98,KNYC 310651Z AUTO VRB03KT 10SM CLR 21/13 A3009 RMK AO2 SLP177 T02110128
NYC,2012-08-31 07:51,-73.9693,40.7790,69.08,55.94,62.93,0.00,0.00,M,30.08,1017.50,10.00,M,CLR,M,M,M,M,M,M,M,M,M,M,M,M,M,M,69.08,KNYC 310751Z AUTO 00000KT 10SM CLR 21/13 A3008 RMK AO2 SLP175 T02060133
NYC,2012-08-31 08:51,-73.9693,40.7790,71.06,55.94,58.82,260.00,3.00,M,30.07,1017.20,10.00,M,CLR,M,M,M,M,M,M,M,M,M,M,M,M,M,M,71.06,KNYC 310851Z AUTO 26003KT 10SM CLR 22/13 A3007 RMK AO2 SLP172 T02170133 58005 $
NYC,2012-08-31 09:51,-73.9693,40.7790,69.98,57.02,63.45,260.00,3.00,M,30.08,1017.60,10.00,M,CLR,M,M,M,M,M,M,M,M,M,M,M,M,M,M,69.98,KNYC 310951Z AUTO 26003KT 10SM CLR 21/14 A3008 RMK AO2 SLP176 T02110139 $
NYC,2012-08-31 10:51,-73.9693,40.7790,69.98,57.92,65.54,M,3.00,M,30.08,1017.70,10.00,M,CLR,M,M,M,M,M,M,M,M,M,M,M,M,M,M,69.98,KNYC 311051Z AUTO VRB03KT 10SM CLR 21/14 A3008 RMK AO2 SLP177 T02110144 $
NYC,2012-08-31 11:51,-73.9693,40.7790,71.06,60.08,68.25,M,3.00,M,30.08,1017.60,9.00,M,CLR,M,M,M,M,M,M,M,M,M,M,M,M,M,M,71.06,KNYC 311151Z AUTO VRB03KT 9SM CLR 22/16 A3008 RMK AO2 SLP176 T02170156 10222 20206 50004 $
NYC,2012-08-31 12:51,-73.9693,40.7790,73.94,60.08,61.92,M,5.00,M,30.07,1017.40,9.00,M,CLR,M,M,M,M,M,M,M,M,M,M,M,M,M,M,73.94,KNYC 311251Z AUTO VRB05KT 9SM CLR 23/16 A3007 RMK AO2 SLP174 T02330156 $
NYC,2012-08-31 13:51,-73.9693,40.7790,77.00,60.98,57.73,0.00,0.00,M,30.07,1017.30,10.00,M,CLR,M,M,M,M,M,M,M,M,M,M,M,M,M,M,77.00,KNYC 311351Z AUTO 00000KT 10SM CLR 25/16 A3007 RMK AO2 SLP173 T02500161
NYC,2012-08-31 14:51,-73.9693,40.7790,82.04,59.00,45.60,260.00,7.00,M,30.06,1017.00,10.00,M,CLR,M,M,M,M,M,M,M,M,M,M,M,M,M,M,82.19,KNYC 311451Z AUTO 26007KT 10SM CLR 28/15 A3006 RMK AO2 SLP170 T02780150 58006
NYC,2012-08-31 15:51,-73.9693,40.7790,86.00,55.94,35.95,M,6.00,M,30.04,1016.40,10.00,M,CLR,M,M,M,M,M,M,M,M,M,M,M,M,M,M,86.00,KNYC 311551Z AUTO VRB06KT 10SM CLR 30/13 A3004 RMK AO2 SLP164 T03000133
NYC,2012-08-31 16:51,-73.9693,40.7790,87.98,55.94,33.75,260.00,7.00,M,30.02,1015.60,10.00,M,CLR,M,M,M,M,M,M,M,M,M,M,M,M,M,M,87.98,KNYC 311651Z AUTO 26007KT 210V280 10SM CLR 31/13 A3002 RMK AO2 SLP156 T03110133
NYC,2012-08-31 17:51,-73.9693,40.7790,89.96,55.04,30.69,M,4.00,M,30.00,1014.70,10.00,M,CLR,M,M,M,M,M,M,M,M,M,M,M,M,M,M,89.96,KNYC 311751Z AUTO VRB04KT 10SM CLR 32/13 A3000 RMK AO2 SLP147 T03220128 10322 20217 58023
NYC,2012-08-31 18:51,-73.9693,40.7790,89.96,51.98,27.43,260.00,6.00,M,29.98,1014.10,10.00,M,CLR,M,M,M,M,M,M,M,M,M,M,M,M,M,M,89.96,KNYC 311851Z AUTO 26006KT 10SM CLR 32/11 A2998 RMK AO2 SLP141 T03220111
NYC,2012-08-31 19:51,-73.9693,40.7790,89.96,53.96,29.50,M,5.00,M,29.96,1013.50,10.00,14.00,CLR,M,M,M,M,M,M,M,M,M,M,M,M,M,M,89.96,KNYC 311951Z AUTO VRB05G14KT 10SM CLR 32/12 A2996 RMK AO2 SLP135 T03220122
NYC,2012-08-31 20:51,-73.9693,40.7790,89.06,55.04,31.57,240.00,6.00,M,29.94,1012.80,10.00,18.00,CLR,M,M,M,M,M,M,M,M,M,M,M,M,M,M,89.06,KNYC 312051Z AUTO 24006G18KT 10SM CLR 32/13 A2994 RMK AO2 SLP128 T03170128 58020
NYC,2012-08-31 21:51,-73.9693,40.7790,87.08,57.02,36.12,0.00,0.00,M,29.93,1012.50,10.00,M,CLR,M,M,M,M,M,M,M,M,M,M,M,M,M,M,87.08,KNYC 312151Z AUTO 00000KT 10SM CLR 31/14 A2993 RMK AO2 SLP125 T03060139
NYC,2012-08-31 22:51,-73.9693,40.7790,84.92,57.92,39.97,M,6.00,M,29.93,1012.70,10.00,M,CLR,M,M,M,M,M,M,M,M,M,M,M,M,M,M,84.92,KNYC 312251Z AUTO VRB06KT 10SM CLR 29/14 A2993 RMK AO2 SLP127 T02940144
NYC,2012-08-31 23:42,-73.9693,40.7790,84.02,57.92,41.15,240.00,7.00,M,29.94,M,10.00,M,FEW,M,M,M,200.00,M,M,M,M,M,M,M,M,M,M,83.49,KNYC 312342Z AUTO 24007KT 210V330 10SM FEW002 29/14 A2994 RMK AO2 T02890144
NYC,2012-08-31 23:51,-73.9693,40.7790,84.02,59.00,42.77,M,6.00,M,29.94,1012.80,10.00,M,CLR,M,M,M,M,M,M,M,M,M,M,M,M,M,M,83.77,KNYC 312351Z AUTO VRB06KT 10SM CLR 29/15 A2994 RMK AO2 SLP128 T02890150 10328 20283 53001
